{"type":"FeatureCollection","features":[{"type":"Feature","id":1,"properties":{"nome":null},"geometry":{"type":"Polygon","coordinates":[[[-48.692961291457976,-26.86664672430219],[-48.69256602617511,-26.86661938811197],[-48.69259751543912,-26.86652106165997],[-48.69269062083171,-26.866446016360314],[-48.69282725706371,-26.866444071105793],[-48.692939487615455,-26.866497412316967],[-48.692961291457976,-26.86664672430219]]]}},{"type":"Feature","id":2,"properties":{"nome":null},"geometry":{"type":"Polygon","coordinates":[[[-48.692961291457976,-26.86664672430219],[-48.692906099473475,-26.866918677834796],[-48.69253433503288,-26.866880588235414],[-48.69256602617511,-26.86661938811197],[-48.692961291457976,-26.86664672430219]]]}},{"type":"Feature","id":3,"properties":{"nome":null},"geometry":{"type":"Polygon","coordinates":[[[-48.692906099473475,-26.866918677834796],[-48.69283504995278,-26.867207077456744],[-48.69270191453334,-26.867113024072406],[-48.69246771596581,-26.867103631247584],[-48.69253433503288,-26.866880588235414],[-48.692906099473475,-26.866918677834796]]]}},{"type":"Feature","id":4,"properties":{"nome":null},"geometry":{"type":"Polygon","coordinates":[[[-48.69283504995278,-26.867207077456744],[-48.69275410173257,-26.867371417500443],[-48.691125471633974,-26.869602822255374],[-48.691115532369466,-26.86978641910165],[-48.69113955449873,-26.87013205622708],[-48.691136161126146,-26.870299054078345],[-48.691496058824605,-26.870310504345465],[-48.69149536658892,-26.87065016864655],[-48.69120374597438,-26.870639835068],[-48.691193127946484,-26.870856830924655],[-48.691186341098195,-26.87119082750338],[-48.69119479643125,-26.87138586194651],[-48.691200084511294,-26.87173676090215],[-48.69119510732269,-26.871981691879405],[-48.692785162551765,-26.871957553377694],[-48.692746911362946,-26.8717007791652],[-48.69274737402995,-26.87137224798688],[-48.69272266878132,-26.871060010825996],[-48.69272109570033,-26.870831677701435],[-48.69312512338244,-26.870810433568266],[-48.693194318879705,-26.8722955578862],[-48.692771946217555,-26.872302582214335],[-48.690958314255134,-26.872328634202674],[-48.690775266886234,-26.872169725934988],[-48.69074808678492,-26.869535401186642],[-48.69246771596581,-26.867103631247584],[-48.69270191453334,-26.867113024072406],[-48.69283504995278,-26.867207077456744]]]}},{"type":"Feature","id":5,"properties":{"nome":null},"geometry":{"type":"Polygon","coordinates":[[[-48.692232614446056,-26.873329505579672],[-48.69221894363525,-26.87369680081246],[-48.69109723044561,-26.873742508426528],[-48.69109993117216,-26.873915174755776],[-48.691104942368206,-26.874126857902503],[-48.69099823111038,-26.874183581828536],[-48.69069598903894,-26.874237110235878],[-48.690510844692504,-26.874181183368503],[-48.69040504714154,-26.874040242516763],[-48.69039839532909,-26.873909274698633],[-48.690444675228754,-26.87377082020946],[-48.690461777556024,-26.87369314172254],[-48.69039006333757,-26.873555542125477],[-48.69042595681882,-26.873469817890413],[-48.69051094284741,-26.873412738296132],[-48.69076476182882,-26.873450298663492],[-48.69112044135233,-26.873364232400338],[-48.692232614446056,-26.873329505579672]]]}},{"type":"Feature","id":6,"properties":{"nome":null},"geometry":{"type":"Polygon","coordinates":[[[-48.693264959801795,-26.87447397987643],[-48.69328306404877,-26.874805599126585],[-48.692860872302376,-26.874796366069727],[-48.69149359801559,-26.874862677700037],[-48.69114333664716,-26.874834679199406],[-48.691085781506295,-26.874764132431874],[-48.69107337459764,-26.874610797449556],[-48.69116000164602,-26.874473002183052],[-48.69282768056164,-26.87445385251835],[-48.693264959801795,-26.87447397987643]]]}},{"type":"Feature","id":7,"properties":{"nome":null},"geometry":{"type":"Polygon","coordinates":[[[-48.692041024869674,-26.874966286026417],[-48.69204332448643,-26.875311568055174],[-48.69152438735981,-26.87533371449997],[-48.69164192460011,-26.87550825746651],[-48.69290998132395,-26.87544266255673],[-48.69289038759612,-26.875795940082927],[-48.691815604367164,-26.875822928935836],[-48.69189928406007,-26.87598299744249],[-48.69144055923264,-26.875944875123547],[-48.690984242165946,-26.875177323062],[-48.69106528519428,-26.87500880963439],[-48.692041024869674,-26.874966286026417]]]}},{"type":"Feature","id":8,"properties":{"nome":null},"geometry":{"type":"Polygon","coordinates":[[[-48.69189928406007,-26.87598299744249],[-48.69301453007722,-26.875951099909155],[-48.69301688895972,-26.87629359896479],[-48.692103437529,-26.87632600950577],[-48.69166823923112,-26.876352308429272],[-48.69144055923264,-26.875944875123547],[-48.69189928406007,-26.87598299744249]]]}},{"type":"Feature","id":9,"properties":{"nome":null},"geometry":{"type":"Polygon","coordinates":[[[-48.69301688895972,-26.87629359896479],[-48.69301453007722,-26.875951099909155],[-48.69328771244528,-26.875952777215417],[-48.693311514957756,-26.876309547517632],[-48.69301688895972,-26.87629359896479]]]}},{"type":"Feature","id":10,"properties":{"nome":null},"geometry":{"type":"Polygon","coordinates":[[[-48.69166823923112,-26.876352308429272],[-48.692103437529,-26.87632600950577],[-48.69217470302153,-26.876485874142407],[-48.692926988428084,-26.876439694900153],[-48.6929321112713,-26.87679894412844],[-48.692254877867335,-26.876818507420815],[-48.692017807523065,-26.87687310308155],[-48.69185010055378,-26.876722798602056],[-48.69166823923112,-26.876352308429272]]]}},{"type":"Feature","id":11,"properties":{"nome":null},"geometry":{"type":"Polygon","coordinates":[[[-48.693042091716556,-26.878568725061584],[-48.693645805367424,-26.878500625969494],[-48.69359708616373,-26.877230222259623],[-48.69374257016183,-26.877098954473144],[-48.69392890769047,-26.877096427773722],[-48.69403555678378,-26.877348749389338],[-48.694080333926095,-26.878507720511422],[-48.694384390624144,-26.878518252100612],[-48.69428126380518,-26.877174570010613],[-48.69436580270279,-26.876986622528015],[-48.69489964494077,-26.876995335314813],[-48.695109456027026,-26.877060012211295],[-48.69512378593474,-26.877271847556987],[-48.694992186730325,-26.87733095325832],[-48.69471758859918,-26.877398862108002],[-48.69477876022806,-26.87744440760211],[-48.69528822537741,-26.87743044714805],[-48.69537196860861,-26.877587730859393],[-48.695331222049695,-26.8777596884501],[-48.695193753152424,-26.877801992566848],[-48.6947333809389,-26.877844596817457],[-48.6947575213286,-26.878490932193184],[-48.69580749955987,-26.87846351653482],[-48.695818218152574,-26.87885348341684],[-48.69343846025182,-26.878926010888744],[-48.693193651474836,-26.87905565607158],[-48.693088123429156,-26.87905393255226],[-48.693003705167015,-26.878930047599194],[-48.693042091716556,-26.878568725061584]]]}},{"type":"Feature","id":12,"properties":{"nome":null},"geometry":{"type":"Polygon","coordinates":[[[-48.69663750455043,-26.878872415246484],[-48.696549817099175,-26.87645984009709],[-48.69667035505846,-26.876333730331233],[-48.69688106905098,-26.876353872106463],[-48.6969593959103,-26.876472086605432],[-48.697022825891516,-26.878856424292135],[-48.69663750455043,-26.878872415246484]]]}},{"type":"Feature","id":13,"properties":{"nome":null},"geometry":{"type":"Polygon","coordinates":[[[-48.698295166955496,-26.880113364000206],[-48.69826514067625,-26.87975649249554],[-48.69866265493287,-26.87975183292042],[-48.698655436252864,-26.880108097546977],[-48.698295166955496,-26.880113364000206]]]}},{"type":"Feature","id":14,"properties":{"nome":null},"geometry":{"type":"Polygon","coordinates":[[[-48.69826514067625,-26.87975649249554],[-48.6982671699368,-26.879503159749806],[-48.69835294676417,-26.879407110134895],[-48.69857309146934,-26.87942183437009],[-48.698633362463156,-26.879511911751415],[-48.69866265493287,-26.87975183292042],[-48.69826514067625,-26.87975649249554]]]}},{"type":"Feature","id":15,"properties":{"nome":null},"geometry":{"type":"Polygon","coordinates":[[[-48.700077608404015,-26.8801006357386],[-48.70007923915351,-26.8798667863361],[-48.70017714842566,-26.879784854183903],[-48.70048250620802,-26.87973135669715],[-48.700513779215306,-26.88002699509881],[-48.70047207694102,-26.88009313748512],[-48.700077608404015,-26.8801006357386]]]}},{"type":"Feature","id":16,"properties":{"nome":null},"geometry":{"type":"Polygon","coordinates":[[[-48.70374430759069,-26.8791858115881],[-48.703349672861755,-26.87920166947192],[-48.70333214196512,-26.87853316666128],[-48.703701549937534,-26.878536387769266],[-48.70374430759069,-26.8791858115881]]]}},{"type":"Feature","id":17,"properties":{"nome":null},"geometry":{"type":"Polygon","coordinates":[[[-48.70333214196512,-26.87853316666128],[-48.70334414668257,-26.878246585209183],[-48.70346327174588,-26.878190052785094],[-48.703648992892774,-26.878218130417327],[-48.70369679600574,-26.87831078714733],[-48.703701549937534,-26.878536387769266],[-48.70333214196512,-26.87853316666128]]]}},{"type":"Feature","id":18,"properties":{"nome":null},"geometry":{"type":"Polygon","coordinates":[[[-48.70392536051568,-26.878523321007982],[-48.70388638046395,-26.87784054829551],[-48.70398000033143,-26.877817011965117],[-48.704128981750436,-26.87781943357921],[-48.704273396043014,-26.877894171236438],[-48.704313390996774,-26.878526844134623],[-48.70392536051568,-26.878523321007982]]]}},{"type":"Feature","id":19,"properties":{"nome":null},"geometry":{"type":"Polygon","coordinates":[[[-48.70065299203222,-26.883579162322647],[-48.700276684607836,-26.8836092303016],[-48.70021629660446,-26.88352471966156],[-48.700203986466676,-26.88321268500285],[-48.70024879388564,-26.883146592442678],[-48.70060912947939,-26.883138538495594],[-48.700654618050265,-26.883192180232747],[-48.700701466601046,-26.883485287185444],[-48.70065299203222,-26.883579162322647]]]}},{"type":"Feature","id":20,"properties":{"nome":null},"geometry":{"type":"Polygon","coordinates":[[[-48.68825180455051,-26.894714054374766],[-48.6879221638219,-26.894433019323003],[-48.68832720997224,-26.894060997645976],[-48.688442007790705,-26.89406566206846],[-48.688650314980826,-26.89420549898469],[-48.68857918988251,-26.894343545309543],[-48.68825180455051,-26.894714054374766]]]}},{"type":"Feature","id":21,"properties":{"nome":null},"geometry":{"type":"Polygon","coordinates":[[[-48.68694005229572,-26.893865658727485],[-48.68665759772042,-26.8941645102405],[-48.68635820999339,-26.893922946339103],[-48.686640551218275,-26.893629661596048],[-48.68694005229572,-26.893865658727485]]]}},{"type":"Feature","id":22,"properties":{"nome":null},"geometry":{"type":"Polygon","coordinates":[[[-48.68721438693631,-26.89289846053874],[-48.68690574501103,-26.892653962268888],[-48.68706096710876,-26.892503373456048],[-48.6871948990999,-26.89248329341817],[-48.687336101447094,-26.892563564073704],[-48.68739292514394,-26.892670295457826],[-48.68721438693631,-26.89289846053874]]]}},{"type":"Feature","id":23,"properties":{"nome":null},"geometry":{"type":"Polygon","coordinates":[[[-48.68687420882638,-26.89252537196823],[-48.68659960018673,-26.89228699866582],[-48.686717289694755,-26.892149716247488],[-48.68686323991495,-26.89214932240591],[-48.68700071386121,-26.892260159153246],[-48.68701718427059,-26.89236622962101],[-48.68687420882638,-26.89252537196823]]]}},{"type":"Feature","id":24,"properties":{"nome":null},"geometry":{"type":"Polygon","coordinates":[[[-48.68611532382899,-26.892585327345913],[-48.68580358137496,-26.892340775092986],[-48.68629109188031,-26.891883800864765],[-48.686412208536915,-26.89188300144568],[-48.68650673464244,-26.891968076086307],[-48.686579646002336,-26.89204722940427],[-48.686542720688166,-26.892183051003354],[-48.68611532382899,-26.892585327345913]]]}},{"type":"Feature","id":25,"properties":{"nome":null},"geometry":{"type":"Polygon","coordinates":[[[-48.685375574632346,-26.892620533476407],[-48.68508228794822,-26.892384636083534],[-48.68586500859675,-26.891612317228066],[-48.6860047512733,-26.891611823408915],[-48.68613302448446,-26.891716942128472],[-48.686146502610555,-26.89181739469782],[-48.685375574632346,-26.892620533476407]]]}},{"type":"Feature","id":26,"properties":{"nome":null},"geometry":{"type":"Polygon","coordinates":[[[-48.68541342020251,-26.89183043751685],[-48.6851225591753,-26.891627989992685],[-48.685467886746416,-26.891291192189676],[-48.68562585607344,-26.891310486487175],[-48.68572687254698,-26.891381747922942],[-48.68576162555695,-26.89150482311815],[-48.68541342020251,-26.89183043751685]]]}},{"type":"Feature","id":27,"properties":{"nome":null},"geometry":{"type":"Polygon","coordinates":[[[-48.68527176095397,-26.89131581912281],[-48.68493490695916,-26.891084775370572],[-48.685105537027574,-26.89094000935088],[-48.68521705724627,-26.89095297454982],[-48.6853648044417,-26.89101664935248],[-48.68539081182795,-26.891111739325932],[-48.68527176095397,-26.89131581912281]]]}},{"type":"Feature","id":28,"properties":{"nome":null},"geometry":{"type":"Polygon","coordinates":[[[-48.68372323515889,-26.893095987326504],[-48.68380705583494,-26.89324910220951],[-48.683685681284324,-26.893262424486615],[-48.68337416852073,-26.893235039804612],[-48.683259466965715,-26.89314963119176],[-48.683384183143104,-26.893048661934717],[-48.68372323515889,-26.893095987326504]]]}},{"type":"Feature","id":29,"properties":{"nome":null},"geometry":{"type":"Polygon","coordinates":[[[-48.68372323515889,-26.893095987326504],[-48.683384183143104,-26.893048661934717],[-48.68345256917106,-26.892969041349676],[-48.68355548928527,-26.892947064465652],[-48.68366198563456,-26.89297804597464],[-48.68372323515889,-26.893095987326504]]]}},{"type":"Feature","id":30,"properties":{"nome":null},"geometry":{"type":"Polygon","coordinates":[[[-48.68501090744873,-26.894438215155137],[-48.68576453372078,-26.895093723566085],[-48.685556193894776,-26.895260145786935],[-48.68533043832128,-26.89521468104864],[-48.68521694418388,-26.895145999550618],[-48.684957968787835,-26.89490231127276],[-48.684839119835104,-26.894791777918883],[-48.684513254614984,-26.895087128868237],[-48.68424140978002,-26.894865502175225],[-48.68448594131727,-26.894599443908465],[-48.68501090744873,-26.894438215155137]]]}},{"type":"Feature","id":31,"properties":{"nome":null},"geometry":{"type":"Polygon","coordinates":[[[-48.686184976982474,-26.903866710280614],[-48.68588991290962,-26.903868833758388],[-48.685786036053884,-26.903784996624378],[-48.6857760025164,-26.90366789472522],[-48.68581279164671,-26.9035390319746],[-48.685914707870566,-26.903490587027353],[-48.68624219741861,-26.903497347885505],[-48.686184976982474,-26.903866710280614]]]}},{"type":"Feature","id":32,"properties":{"nome":null},"geometry":{"type":"Polygon","coordinates":[[[-48.68547134460546,-26.904368697637903],[-48.68507431430096,-26.904345481017096],[-48.68498621639682,-26.904249373593682],[-48.68498882876076,-26.904121342147945],[-48.68501271733588,-26.904015934410225],[-48.685088190120474,-26.903969840424335],[-48.68551948115792,-26.90398804979438],[-48.68547134460546,-26.904368697637903]]]}},{"type":"Feature","id":33,"properties":{"nome":null},"geometry":{"type":"Polygon","coordinates":[[[-48.683749992151434,-26.904869460776045],[-48.68369609518777,-26.905227739292176],[-48.68335770645481,-26.905222185855987],[-48.68325391672149,-26.90513417186852],[-48.683248638253175,-26.904936406395613],[-48.683350140736515,-26.90483227290785],[-48.683749992151434,-26.904869460776045]]]}},{"type":"Feature","id":34,"properties":{"nome":null},"geometry":{"type":"Polygon","coordinates":[[[-48.685739874449254,-26.91890945426509],[-48.68572151150584,-26.918591753172105],[-48.687130847077846,-26.91847565102644],[-48.68749981362115,-26.91850675627154],[-48.68768135356638,-26.918590473870275],[-48.687960280458434,-26.918620102377126],[-48.68807294655554,-26.91873053190911],[-48.68806344474766,-26.918891860341443],[-48.68794703276884,-26.9189651273836],[-48.6877576357401,-26.918962023837505],[-48.687406974393504,-26.91879479209496],[-48.685739874449254,-26.91890945426509]]]}},{"type":"Feature","id":35,"properties":{"nome":null},"geometry":{"type":"Polygon","coordinates":[[[-48.68539817472928,-26.920585509277878],[-48.68518355445527,-26.92090495613907],[-48.684721001392276,-26.92074145169582],[-48.685041756743566,-26.92039590514849],[-48.68539817472928,-26.920585509277878]]]}},{"type":"Feature","id":36,"properties":{"nome":null},"geometry":{"type":"Polygon","coordinates":[[[-48.69117425454768,-26.921548819130283],[-48.69106760913939,-26.921599974636308],[-48.69149760620539,-26.922447842131568],[-48.69173392371921,-26.922435003609895],[-48.69185132242421,-26.922771029789505],[-48.691725649881285,-26.92284136343686],[-48.69178006605383,-26.922914643372177],[-48.69154868637391,-26.923295079015674],[-48.69063810649706,-26.921643061050062],[-48.69082770487579,-26.921331547752743],[-48.69101282310322,-26.92123991470513],[-48.69117425454768,-26.921548819130283]]]}},{"type":"Feature","id":37,"properties":{"nome":null},"geometry":{"type":"Polygon","coordinates":[[[-48.690281313604515,-26.926654366741282],[-48.689941824400215,-26.926852054965455],[-48.68971112914987,-26.926436214495233],[-48.68980847833976,-26.926231777790594],[-48.69015064540195,-26.92635988498003],[-48.690111909536604,-26.926431640328197],[-48.690281313604515,-26.926654366741282]]]}},{"type":"Feature","id":38,"properties":{"nome":null},"geometry":{"type":"Polygon","coordinates":[[[-48.6905580213284,-26.927098801520437],[-48.690815319817304,-26.927428766620256],[-48.691064268004844,-26.92771126200135],[-48.69100537092825,-26.9278578612091],[-48.69086456350482,-26.92790845617456],[-48.69068272293587,-26.927838658871302],[-48.69023468041645,-26.927266128883346],[-48.6905580213284,-26.927098801520437]]]}},{"type":"Feature","id":39,"properties":{"nome":null},"geometry":{"type":"Polygon","coordinates":[[[-48.69142857110502,-26.93117521274],[-48.691506810981295,-26.931298998517608],[-48.691388743345826,-26.931452981400216],[-48.6912717097071,-26.93140373419829],[-48.69122452087033,-26.931280456536307],[-48.6913294304864,-26.931162453226012],[-48.69142857110502,-26.93117521274]]]}},{"type":"Feature","id":40,"properties":{"nome":null},"geometry":{"type":"Polygon","coordinates":[[[-48.69165952310811,-26.931731657829747],[-48.69194758755383,-26.93192430518824],[-48.69184908617907,-26.93203267023505],[-48.69158516111179,-26.931798654016585],[-48.69165952310811,-26.931731657829747]]]}},{"type":"Feature","id":41,"properties":{"nome":null},"geometry":{"type":"Polygon","coordinates":[[[-48.69184908617907,-26.93203267023505],[-48.69161298424815,-26.932262680258443],[-48.69149153958851,-26.932277397667157],[-48.69136595451402,-26.932190424213562],[-48.691333696965344,-26.93209662527849],[-48.69134908756371,-26.932027271611677],[-48.69158516111179,-26.931798654016585],[-48.69184908617907,-26.93203267023505]]]}},{"type":"Feature","id":42,"properties":{"nome":null},"geometry":{"type":"Polygon","coordinates":[[[-48.695879460242715,-26.934935676646962],[-48.69576009920411,-26.93500054835984],[-48.69575859927225,-26.93507430509023],[-48.69567878758367,-26.935180193240644],[-48.69459341534881,-26.93569981002214],[-48.69423754297653,-26.935709305130676],[-48.693722899488286,-26.935354256967514],[-48.694233499730196,-26.935373742115967],[-48.694623336269,-26.935297980497094],[-48.69525861908971,-26.9349909623288],[-48.69527347484436,-26.934871483637348],[-48.69533552782184,-26.93479871637099],[-48.69549655630699,-26.934747055217656],[-48.695653350039926,-26.93467444325661],[-48.69573824398795,-26.93454775669596],[-48.695793731960094,-26.934797849719033],[-48.695879460242715,-26.934935676646962]]]}},{"type":"Feature","id":43,"properties":{"nome":null},"geometry":{"type":"Polygon","coordinates":[[[-48.69476316295737,-26.939418112931143],[-48.694671971932195,-26.939472306963594],[-48.69457553329899,-26.939479083413044],[-48.69429706353212,-26.93942441517992],[-48.69443575241234,-26.93917331895239],[-48.69476316295737,-26.939418112931143]]]}},{"type":"Feature","id":44,"properties":{"nome":null},"geometry":{"type":"Polygon","coordinates":[[[-48.69476316295737,-26.939418112931143],[-48.69485947856501,-26.939570035413634],[-48.69480396731243,-26.93970276944474],[-48.694650724221,-26.939753165142186],[-48.69454813155912,-26.939757056052414],[-48.69439402825496,-26.940002331428644],[-48.69406113226851,-26.93987438327646],[-48.69429706353212,-26.93942441517992],[-48.69457553329899,-26.939479083413044],[-48.694671971932195,-26.939472306963594],[-48.69476316295737,-26.939418112931143]]]}},{"type":"Feature","id":45,"properties":{"nome":null},"geometry":{"type":"Polygon","coordinates":[[[-48.69439402825496,-26.940002331428644],[-48.6943641531445,-26.940096506460264],[-48.69460292415213,-26.94027024610273],[-48.694506927757274,-26.94040788705664],[-48.69408078799946,-26.940587462692424],[-48.69402636267979,-26.940514183179054],[-48.693705684591535,-26.94085418122599],[-48.693405825121744,-26.94062932431215],[-48.69406113226851,-26.93987438327646],[-48.69439402825496,-26.940002331428644]]]}},{"type":"Feature","id":46,"properties":{"nome":null},"geometry":{"type":"Polygon","coordinates":[[[-48.65972342355221,-26.902354386275185],[-48.65939546576771,-26.90274708646187],[-48.659043579431355,-26.902643804766022],[-48.6583376920238,-26.90314160138216],[-48.6585340746574,-26.903256226282462],[-48.658754727064014,-26.903850131861812],[-48.6585371984465,-26.904308698104447],[-48.65858853646582,-26.904379153637354],[-48.658441945522426,-26.90471082348053],[-48.65839497764035,-26.904729533957724],[-48.658042394192236,-26.904509302848506],[-48.65755534575604,-26.904183824283148],[-48.657277672890466,-26.90394534489995],[-48.65713826300097,-26.90392911026004],[-48.656953148072084,-26.90356966261012],[-48.65572760507712,-26.90441797720216],[-48.65534168570436,-26.904158207638183],[-48.65687904370134,-26.903097906422314],[-48.658069152738086,-26.902310244713004],[-48.65887190387342,-26.901933775782503],[-48.659359682299666,-26.901772029363077],[-48.659923690461305,-26.901678365806116],[-48.66008701475696,-26.90173954127247],[-48.66011875139273,-26.90185700260221],[-48.66009081717778,-26.90200688527945],[-48.65998119040961,-26.90205239929055],[-48.65980665811498,-26.90208291640404],[-48.65947271794604,-26.902314035168846],[-48.65972342355221,-26.902354386275185]],[[-48.65840835374984,-26.90363000474755],[-48.65795430630277,-26.903360759141393],[-48.65758764884734,-26.903672071806067],[-48.657616968601246,-26.90375608304852],[-48.65819944842303,-26.904122123008257],[-48.65840835374984,-26.90363000474755]],[[-48.6576602518433,-26.903163771995207],[-48.6575716038084,-26.90309548010184],[-48.657237196608506,-26.903348859036047],[-48.657278991067194,-26.903430294305934],[-48.6576602518433,-26.903163771995207]],[[-48.65795688793455,-26.90293482288814],[-48.65806950652387,-26.902894928128035],[-48.65850244198131,-26.902531815140005],[-48.657914116460205,-26.902900702800228],[-48.65795688793455,-26.90293482288814]]]}},{"type":"Feature","id":47,"properties":{"nome":null},"geometry":{"type":"Polygon","coordinates":[[[-48.669893719587414,-26.886468959707887],[-48.669314634613976,-26.887149884850267],[-48.671735254782334,-26.888726694148954],[-48.671500420809416,-26.888973399776752],[-48.66908014206473,-26.887379887158794],[-48.66900945500586,-26.887495656253126],[-48.668823939249926,-26.887759877154085],[-48.66851179232641,-26.88753755599978],[-48.669059616263375,-26.886867255395195],[-48.66862007786603,-26.88649805410355],[-48.667489150934365,-26.88592810842099],[-48.667356466560726,-26.885736591726097],[-48.667415081330795,-26.88560391829707],[-48.66752819405219,-26.88553896532311],[-48.66765189293961,-26.885563282108667],[-48.6680257687244,-26.885803329098334],[-48.66876960148094,-26.886171987702728],[-48.66927719736238,-26.886553448668217],[-48.66959364679452,-26.886263545989486],[-48.669893719587414,-26.886468959707887]]]}},{"type":"Feature","id":48,"properties":{"nome":null},"geometry":{"type":"Polygon","coordinates":[[[-48.66900945500586,-26.887495656253126],[-48.66975665435967,-26.88800357552864],[-48.669552772873054,-26.8882549650139],[-48.668823939249926,-26.887759877154085],[-48.66900945500586,-26.887495656253126]]]}},{"type":"Feature","id":49,"properties":{"nome":null},"geometry":{"type":"Polygon","coordinates":[[[-48.669552772873054,-26.8882549650139],[-48.66975665435967,-26.88800357552864],[-48.67100709106728,-26.888803780432102],[-48.6710389725195,-26.889066020889423],[-48.67124109702564,-26.889202996194705],[-48.67116363229777,-26.889346496390246],[-48.669552772873054,-26.8882549650139]]]}},{"type":"Feature","id":50,"properties":{"nome":null},"geometry":{"type":"Polygon","coordinates":[[[-48.668823939249926,-26.887759877154085],[-48.66873838913955,-26.887843382527645],[-48.66905369824816,-26.88806297053438],[-48.66920640219322,-26.888338342444086],[-48.67007064537923,-26.88889273973822],[-48.669931041688294,-26.889037998788854],[-48.6683200565159,-26.88795341151705],[-48.66827544071015,-26.88785801271168],[-48.66851179232641,-26.88753755599978],[-48.668823939249926,-26.887759877154085]]]}},{"type":"Feature","id":51,"properties":{"nome":null},"geometry":{"type":"Polygon","coordinates":[[[-48.67016633593854,-26.888769029772675],[-48.670634851923985,-26.889088589286178],[-48.670402605687805,-26.889360393377352],[-48.669931041688294,-26.889037998788854],[-48.67007064537923,-26.88889273973822],[-48.67016633593854,-26.888769029772675]]]}},{"type":"Feature","id":52,"properties":{"nome":null},"geometry":{"type":"Polygon","coordinates":[[[-48.669179178225264,-26.885278060472903],[-48.66892261999151,-26.885524403422945],[-48.66843049194572,-26.885145980781946],[-48.66790831729841,-26.884870076298533],[-48.667751202175,-26.8846586667727],[-48.667799932248634,-26.88455367162286],[-48.667916662758984,-26.884463721161357],[-48.66809796228665,-26.884555809059265],[-48.66828190856176,-26.88467021420009],[-48.6686176038368,-26.88480382922936],[-48.669179178225264,-26.885278060472903]]]}},{"type":"Feature","id":53,"properties":{"nome":null},"geometry":{"type":"Polygon","coordinates":[[[-48.67121667359138,-26.885397984454222],[-48.67052982837845,-26.88482424747972],[-48.67154344899064,-26.8838470038086],[-48.67171842945791,-26.883944551864527],[-48.67182156379783,-26.88406318820821],[-48.671085710510006,-26.884819494780928],[-48.671438342439046,-26.88518725557747],[-48.67121667359138,-26.885397984454222]]]}},{"type":"Feature","id":54,"properties":{"nome":null},"geometry":{"type":"Polygon","coordinates":[[[-48.673056467792236,-26.886377723968387],[-48.67287664405742,-26.88621327705177],[-48.67289507276059,-26.886071586825853],[-48.673379498064726,-26.88561460638083],[-48.67327297087246,-26.885509836057583],[-48.67323165030974,-26.885556486874094],[-48.672963240503535,-26.885320975105667],[-48.673227366162806,-26.88500792850985],[-48.674189480215446,-26.884118910562684],[-48.67443513848815,-26.8844041601086],[-48.67355136212658,-26.885258275503467],[-48.67366173432603,-26.885326915143526],[-48.67430804416076,-26.884697193025183],[-48.674591634016345,-26.884949657187136],[-48.673056467792236,-26.886377723968387]]]}},{"type":"Feature","id":55,"properties":{"nome":null},"geometry":{"type":"Polygon","coordinates":[[[-48.67393796170261,-26.886241899389045],[-48.67355371726474,-26.88665876853793],[-48.673364776279534,-26.886636166827603],[-48.67324571827357,-26.88653675799736],[-48.673232651173855,-26.886416821673713],[-48.67366012263476,-26.88601180240993],[-48.67393796170261,-26.886241899389045]]]}}]}
