{"type":"FeatureCollection","features":[{"type":"Feature","id":1,"properties":{"nome":null},"geometry":{"type":"MultiPolygon","coordinates":[[[[-48.670340412132425,-26.89696492408866],[-48.67131993493315,-26.895214935249637],[-48.67137880025266,-26.892345774752037],[-48.67129015491652,-26.892222557851348],[-48.67117977798555,-26.892023808273],[-48.67116261016569,-26.891962911617703],[-48.671231070265236,-26.89187092172978],[-48.671104681674684,-26.891798958401232],[-48.67104294070224,-26.891878777887758],[-48.67101836134611,-26.891878372465154],[-48.67066142890964,-26.891299277554904],[-48.67074208583918,-26.891229569754234],[-48.670752037107576,-26.891143998581985],[-48.67073119337981,-26.891094662736272],[-48.6706601198627,-26.891145195881702],[-48.670747556715405,-26.891036805368504],[-48.670687162711616,-26.890995218707236],[-48.6705916913921,-26.891105864464862],[-48.670575817413315,-26.891100826929936],[-48.670671440564966,-26.890982781960233],[-48.670600497975165,-26.890936245590584],[-48.67052129142696,-26.891032833551062],[-48.670500045174386,-26.89103009520667],[-48.67058215776774,-26.890921616959055],[-48.6705190537976,-26.89088237154801],[-48.670417817263065,-26.891014412530577],[-48.67040209024,-26.891002214818222],[-48.670500615646084,-26.8908725169483],[-48.67042962320928,-26.890828367504962],[-48.67035031966039,-26.890929728521535],[-48.67032907242702,-26.890926990136272],[-48.670419123549586,-26.890821031694973],[-48.67035597071018,-26.89078417323816],[-48.670276567129044,-26.890890309121076],[-48.67025546787271,-26.890880409681248],[-48.67034019473932,-26.890774362541418],[-48.670274575712696,-26.89072791385182],[-48.67018718768157,-26.89083391704238],[-48.67016618539703,-26.89081924443565],[-48.67025352446618,-26.890715627376586],[-48.67019042069336,-26.890676383636453],[-48.67011106603813,-26.890780132402575],[-48.67008464250158,-26.890770145987826],[-48.67016936944757,-26.890664098051893],[-48.67011154105426,-26.89062732824869],[-48.67002691207015,-26.890728602108922],[-48.67000837600679,-26.890723521488745],[-48.670085242902864,-26.89061113609214],[-48.669861032332044,-26.89050715293546],[-48.66971895052307,-26.890423626566868],[-48.6695248551525,-26.890279549530074],[-48.66949408749464,-26.890221737464287],[-48.66941960074642,-26.89021812024036],[-48.66935930670157,-26.89017175904442],[-48.66924311195388,-26.890124475118082],[-48.66922762921195,-26.890100342179235],[-48.66906730757516,-26.88999741240283],[-48.668972261113566,-26.889957640853563],[-48.66893814555529,-26.889933201192992],[-48.66883959330115,-26.88980478744048],[-48.66867247673938,-26.889773376276477],[-48.66859408861555,-26.889700449939305],[-48.66829903861654,-26.889545154955787],[-48.66823117271472,-26.88946778987065],[-48.66803112402988,-26.889404304195892],[-48.66779918725485,-26.889188529234385],[-48.66764289742663,-26.889219514568936],[-48.667460040195536,-26.88908613380914],[-48.66752380965184,-26.889043114364586],[-48.6673408083036,-26.88887772826142],[-48.66730378613077,-26.888865178447034],[-48.66726302396353,-26.888905094499375],[-48.667228516771104,-26.888899748787924],[-48.66697191335574,-26.88868778122426],[-48.66684295032297,-26.88861402019729],[-48.66668973533441,-26.888554184377885],[-48.666661287286225,-26.88851312307597],[-48.66645872261287,-26.888439970214893],[-48.666327752818646,-26.88834072800627],[-48.666183829618674,-26.88811923171875],[-48.666032681877475,-26.887797764019385],[-48.6658790266842,-26.887532607772062],[-48.66574541559346,-26.887216308210103],[-48.66573024931902,-26.88681820670191],[-48.66573799533836,-26.886441423858102],[-48.66581749514891,-26.885982069947026],[-48.66614162197049,-26.884982331942798],[-48.66623886930461,-26.88479548306575],[-48.66643164223662,-26.88450551732962],[-48.66681503567206,-26.88403024372435],[-48.667144164147466,-26.88374488484477],[-48.66720675858364,-26.8836790623409],[-48.66724554524944,-26.883605684877804],[-48.66728606872797,-26.8836068794441],[-48.66734281036032,-26.883580816884436],[-48.66743027391733,-26.883520103981745],[-48.66752435353524,-26.883403474773537],[-48.66741101705606,-26.883291780866507],[-48.667808617616444,-26.882952954149516],[-48.667867293879596,-26.882997467114482],[-48.66834186980757,-26.882826594008595],[-48.66849908043567,-26.88272742332517],[-48.66866814571616,-26.88266335863678],[-48.668778971304896,-26.882582813328927],[-48.66889189325916,-26.882529759858965],[-48.66987412170692,-26.882139488917133],[-48.669888497583585,-26.8822334209226],[-48.66994679862736,-26.88224871789456],[-48.66997030251224,-26.88224110742146],[-48.67000368991058,-26.882199505718656],[-48.67029568482317,-26.882113590483588],[-48.670549583812864,-26.882067637610252],[-48.67098147926053,-26.882041333577163],[-48.67092469107305,-26.881929006459384],[-48.67108625415677,-26.881929000412033],[-48.6712349232511,-26.882085032958845],[-48.671333949797685,-26.88207281164169],[-48.671259073473635,-26.882008008918465],[-48.671309520413566,-26.882004681408528],[-48.67122593288634,-26.88189233034536],[-48.67141867647352,-26.881869682567135],[-48.671932006362695,-26.881896145040784],[-48.67194268068851,-26.88196292040981],[-48.67196923640541,-26.881994402679087],[-48.672384665885566,-26.88194312786527],[-48.67348646384023,-26.88245935200991],[-48.673488229677666,-26.882404840837737],[-48.67358548139378,-26.88241299358663],[-48.674474000177916,-26.882690535003874],[-48.67440489958509,-26.882863319265166],[-48.674504856804695,-26.882868234709274],[-48.67454424673285,-26.8828951476799],[-48.67462114667168,-26.882910739982755],[-48.67468183042448,-26.88293800352289],[-48.6747207316756,-26.882988785850767],[-48.67512515464265,-26.883133930252793],[-48.67537619522826,-26.883322689407205],[-48.67552761880257,-26.883398669534262],[-48.675672779823486,-26.883437824661073],[-48.67575436821082,-26.883484533596445],[-48.67576679780464,-26.88352771649758],[-48.675842893730426,-26.883477346070492],[-48.67594674205217,-26.8833418789903],[-48.67617123869481,-26.883476171363018],[-48.67624327665309,-26.883535377690457],[-48.67628251048497,-26.883487031075013],[-48.676747798564996,-26.883748459123897],[-48.67678360928898,-26.883799198216085],[-48.67767432451252,-26.884376477911964],[-48.67786304871889,-26.884482835791196],[-48.67827275726904,-26.88466950725009],[-48.680619080160916,-26.88620045902661],[-48.68288478775396,-26.88780111844322],[-48.68317333614221,-26.887811136602963],[-48.683252493217736,-26.88776398987657],[-48.68336247453157,-26.887730624504076],[-48.6836108862018,-26.887766615058652],[-48.683617442535436,-26.887748683833916],[-48.68363603411769,-26.88774760175663],[-48.68363400667892,-26.887771157246295],[-48.683895716838634,-26.88782153367618],[-48.683920838608685,-26.887640050903833],[-48.68398665232141,-26.8876284682506],[-48.68415735443981,-26.88765748714903],[-48.68414354659169,-26.887840285375987],[-48.68501185868843,-26.887818730435725],[-48.685449455842246,-26.887835617372087],[-48.685592401166005,-26.887807432653943],[-48.68629459093261,-26.88782587827052],[-48.68662615314857,-26.887806335451543],[-48.68672111276399,-26.88777875049971],[-48.68725001978143,-26.887719422432216],[-48.6873774940171,-26.887690983395583],[-48.68758465566848,-26.887624995670855],[-48.68765213570832,-26.8875789212819],[-48.68774277054681,-26.88754509845401],[-48.68778295870072,-26.88753804697947],[-48.68786773276701,-26.887554698843548],[-48.687915914906455,-26.887544386861585],[-48.68883537233007,-26.887242317211644],[-48.68885454047213,-26.887216366396107],[-48.68888604177689,-26.887206855871952],[-48.690212898227834,-26.886002381436356],[-48.69130513879904,-26.884671810775554],[-48.69130653735159,-26.884620446102648],[-48.69134656206881,-26.884616324704382],[-48.69137557711564,-26.884586000610593],[-48.69128657087005,-26.884549291837377],[-48.69144943536562,-26.88433423828307],[-48.691540216381405,-26.884181507236175],[-48.69160761818746,-26.88421826429553],[-48.69163066254568,-26.884186830010766],[-48.69166717529773,-26.884053217084432],[-48.69164141829053,-26.884013826994558],[-48.69170538735425,-26.883913385238277],[-48.69219379203463,-26.882126098974375],[-48.69268616591091,-26.879745271019274],[-48.69264176629035,-26.879204921349068],[-48.69243163722504,-26.878221310499136],[-48.6923147522051,-26.87792165460728],[-48.69220100718026,-26.87770290037389],[-48.69222496682998,-26.87769146988084],[-48.69211666733623,-26.877434930090292],[-48.69203725804033,-26.87728081806173],[-48.69192902271503,-26.877122934757868],[-48.69197198275586,-26.87708634703268],[-48.69189804793061,-26.876924923487586],[-48.69188532259166,-26.876836137533804],[-48.691787155119094,-26.8766490370384],[-48.69181091772243,-26.876629960628172],[-48.691678393233616,-26.87629019793605],[-48.69146689965563,-26.875901448867104],[-48.69141318813183,-26.87584084673114],[-48.69116012917542,-26.875633765694054],[-48.69096632085537,-26.875344310730405],[-48.690853381118146,-26.875137120873976],[-48.69077805699664,-26.874960065544645],[-48.690530114729555,-26.87453634102262],[-48.6904306766089,-26.874319820205603],[-48.690408905055904,-26.874212017162225],[-48.6903080135695,-26.874067105406738],[-48.69032843236364,-26.874021227167045],[-48.690218645546096,-26.873606953438394],[-48.68984498561022,-26.872920084978688],[-48.6891768120578,-26.870706085345216],[-48.689379397119865,-26.870058247655212],[-48.689410824718045,-26.869802270440825],[-48.68950622321711,-26.869358541928154],[-48.6896399968543,-26.868945926141762],[-48.68974472942567,-26.868728242267213],[-48.68978631504238,-26.86860148250364],[-48.69011932574192,-26.867982224533595],[-48.69070175660169,-26.86715464245537],[-48.69091882028258,-26.866893314987],[-48.69105485099556,-26.866780592489775],[-48.69124253816546,-26.86659375096679],[-48.69144542460501,-26.866455914540225],[-48.691726884464124,-26.86616499816248],[-48.69194001130238,-26.865917897424463],[-48.692162068057435,-26.865705503838385],[-48.69275484875337,-26.86526586416333],[-48.6930821469336,-26.86508975093935],[-48.6932734804055,-26.86496671886174],[-48.69380117788033,-26.86469537118361],[-48.693817744914526,-26.864638612712454],[-48.69405737339972,-26.864604504662655],[-48.694149064044325,-26.864548972127476],[-48.69425819191092,-26.864545740799656],[-48.694395587346335,-26.864516875645457],[-48.694571296055884,-26.864459811500534],[-48.694666176052884,-26.86447635902376],[-48.694894245394586,-26.86444206092974],[-48.694979982531905,-26.864395071582425],[-48.694999350398106,-26.864356960662036],[-48.69511935737421,-26.86434697988817],[-48.69521836879346,-26.864359365589625],[-48.69521569534625,-26.86427193222423],[-48.69535298372169,-26.86426266179019],[-48.69537902462817,-26.86424638774351],[-48.69538951724887,-26.864185163954676],[-48.69559837525972,-26.8641952763645],[-48.69560463346339,-26.86425172690408],[-48.69563957333332,-26.864262252463934],[-48.69563607554532,-26.864343502734403],[-48.69567739416098,-26.864382253308573],[-48.69576418162353,-26.864378484104375],[-48.695756429526476,-26.86424756586238],[-48.696277933263474,-26.864224414427344],[-48.69627055304766,-26.864335295394987],[-48.6965498990973,-26.864303214037104],[-48.69690619002239,-26.864325735992423],[-48.69697746824536,-26.864355551226346],[-48.69705706880725,-26.86436878793012],[-48.69716657452583,-26.864351470662275],[-48.69739471702402,-26.86441742562895],[-48.697668908085255,-26.864471879909974],[-48.69780880263541,-26.864531465325776],[-48.69797303843189,-26.864572344271206],[-48.698121788252884,-26.86458909391553],[-48.698422435240325,-26.864677562174148],[-48.698749795292734,-26.864814219462776],[-48.69903287550455,-26.864902400363007],[-48.69909748831486,-26.864952898313895],[-48.69917015913982,-26.864959553198968],[-48.69925445649213,-26.865003906515646],[-48.69939110855692,-26.864999714303575],[-48.69951199797834,-26.865063779724302],[-48.70027105479916,-26.865392103336745],[-48.700519977882195,-26.865469210144774],[-48.70066940464013,-26.865531912503144],[-48.700720262293785,-26.865534566665126],[-48.70080898625929,-26.86557801829825],[-48.70096662470228,-26.865605578351786],[-48.7017724860216,-26.86586865464731],[-48.70210517893812,-26.866079261697447],[-48.70247318120331,-26.866255817197633],[-48.70251050730655,-26.866198396073738],[-48.70318229403337,-26.86654407272821],[-48.703676793386904,-26.866838958811027],[-48.703974587670544,-26.86699903518185],[-48.70395437538872,-26.867145747466438],[-48.70405416952839,-26.867219686577936],[-48.70442657999856,-26.86746563382641],[-48.705006472181545,-26.867730584509154],[-48.70537175908158,-26.868299701174777],[-48.705746997640865,-26.868723223789793],[-48.705862632036634,-26.86874402487209],[-48.705998927330576,-26.868960705905415],[-48.705937825999655,-26.869025946057306],[-48.706097648017746,-26.86929662420779],[-48.706379310293435,-26.8696292062695],[-48.706585919999995,-26.86984702832483],[-48.707008624881375,-26.870509907058928],[-48.70690124618309,-26.87060278110976],[-48.707091719154924,-26.87093652325525],[-48.707237704519876,-26.87115071818033],[-48.707269993692364,-26.87115124220248],[-48.70741730550904,-26.871414232971702],[-48.708774891832896,-26.873406073243455],[-48.71026167269461,-26.875285817144203],[-48.71047760687141,-26.87543659459123],[-48.71074461021021,-26.87581021383038],[-48.71105461266399,-26.876196074400127],[-48.71282283594285,-26.87702504756209],[-48.71550928056319,-26.8774238607426],[-48.71709089603383,-26.87759156901164],[-48.71843199381668,-26.877897508907424],[-48.72074660050644,-26.8770820697688],[-48.723691910610334,-26.876442659887996],[-48.72425558626353,-26.875746631671664],[-48.72431584215429,-26.87559840280907],[-48.72436630755898,-26.87560991345621],[-48.72621061153996,-26.87333247318575],[-48.72754297536545,-26.871086371509964],[-48.72759194615713,-26.87096674307043],[-48.727653961084116,-26.87087782372487],[-48.72769690037242,-26.87074177013611],[-48.7277277474931,-26.870691183811296],[-48.72772285923877,-26.870664348351568],[-48.72777005447586,-26.870656082888875],[-48.72775508905273,-26.870610939724806],[-48.72777177924535,-26.870489672062863],[-48.727801132559804,-26.870448564524178],[-48.72782527260676,-26.870311425192718],[-48.72785863131762,-26.870222286704788],[-48.72786837792273,-26.870154212562955],[-48.72785071865509,-26.86996730931051],[-48.72790542935578,-26.86989539097752],[-48.72819815303141,-26.867850597131245],[-48.72818539983098,-26.867849731472333],[-48.728186577314446,-26.867790831905168],[-48.72821678947087,-26.86772040828792],[-48.72831941493533,-26.86700350202978],[-48.72831170646124,-26.866957569531078],[-48.72826852606486,-26.86693128798999],[-48.72828602737014,-26.86680456072367],[-48.72808433535526,-26.865602759652294],[-48.72805396136087,-26.86565025112878],[-48.727961068284515,-26.86543389307626],[-48.72796274856878,-26.86534984206912],[-48.727906230702565,-26.86522437385324],[-48.72786210400965,-26.865173839795112],[-48.7278532466134,-26.86509584807535],[-48.72780602197998,-26.865026580681647],[-48.72780057381506,-26.864951757249006],[-48.72777330339848,-26.864926407374938],[-48.727706499183675,-26.864794545842287],[-48.72769076236007,-26.86471332821273],[-48.72769851326836,-26.86467297058047],[-48.727750018176245,-26.864701825457857],[-48.72777277290672,-26.864605657681768],[-48.7278219266284,-26.864578422403042],[-48.72790560364516,-26.864561083546167],[-48.72789234237149,-26.864529730225602],[-48.727819514214815,-26.864525445658252],[-48.72758969706994,-26.864384734808716],[-48.72754538409467,-26.86434353987546],[-48.72747845396678,-26.864217903161084],[-48.727409486192684,-26.864020613101292],[-48.726880359703195,-26.863221148230515],[-48.72685408601438,-26.86314598976281],[-48.7268128705654,-26.86312352886091],[-48.72668402592527,-26.862968870986027],[-48.72660724681007,-26.8628150497691],[-48.726528785754454,-26.862745278557444],[-48.72646811432926,-26.862653996567467],[-48.726425421337396,-26.862531864658166],[-48.726506933167514,-26.862449099029114],[-48.7264936724912,-26.862417745608383],[-48.7261609958786,-26.86203871376726],[-48.72614804668837,-26.861991796200982],[-48.72603978096401,-26.861849923722318],[-48.7260075628842,-26.861724845905496],[-48.72593963937432,-26.861649017052006],[-48.72586756157204,-26.861607375744597],[-48.7257111850313,-26.861614199450024],[-48.725680258696016,-26.861598132579815],[-48.725565799772525,-26.86141879220716],[-48.72542877027395,-26.86132628080277],[-48.72536325970916,-26.8613034284553],[-48.72526465990793,-26.86119907982582],[-48.72518248026371,-26.861141705549965],[-48.725155399223304,-26.861107016079547],[-48.72515789214792,-26.86098249598439],[-48.725029488182194,-26.86080604601326],[-48.725006874364595,-26.860721603985596],[-48.724883481045715,-26.86064176729239],[-48.72486674972664,-26.860610357866186],[-48.72486186424357,-26.860507516849655],[-48.724841661658886,-26.86047605243665],[-48.72480770165051,-26.860438137791014],[-48.72474894635473,-26.860424735241043],[-48.72470338871492,-26.860445800484772],[-48.724648913711675,-26.860391985464233],[-48.72460751278672,-26.86037886228498],[-48.72458627118513,-26.860225935267348],[-48.72456284772687,-26.86018196239533],[-48.724419877067945,-26.86003953090186],[-48.724376003103835,-26.85997654429923],[-48.72432121688407,-26.85993829418038],[-48.72425360812357,-26.85984690054793],[-48.72417336293723,-26.859693022384782],[-48.72403820739378,-26.85950711979682],[-48.72397901639007,-26.85951550868922],[-48.723927328816366,-26.859495991824332],[-48.72394530626631,-26.859465141322936],[-48.72391884825064,-26.859399321632306],[-48.72394420343151,-26.859346792103814],[-48.72391737146855,-26.859299650779825],[-48.723767896568965,-26.859135315188922],[-48.72372761815322,-26.859066159398623],[-48.72366285826357,-26.859005950550355],[-48.723510724261814,-26.858801090549715],[-48.72320086797259,-26.858497154963022],[-48.72310837216931,-26.858325022635547],[-48.7230071548538,-26.858246141878176],[-48.72297124733179,-26.858235595736],[-48.722913686319664,-26.85805774510465],[-48.72259309085541,-26.857696238390158],[-48.72245315858852,-26.85746971300104],[-48.722304245666884,-26.857275437198457],[-48.722277919611805,-26.857202748103116],[-48.72221003341385,-26.857124405829282],[-48.72217685007907,-26.857044652799438],[-48.72211436668748,-26.856972761661552],[-48.72207383337303,-26.85684239069762],[-48.721999360281686,-26.856698810352988],[-48.72200004138697,-26.856664766377158],[-48.72202529733499,-26.856628295638203],[-48.722009468401296,-26.856606148803024],[-48.722005458857495,-26.856535542155488],[-48.72196784465701,-26.856517908389023],[-48.72169919643901,-26.85652574382294],[-48.72170036801378,-26.856467378539353],[-48.72172278776675,-26.856431252896922],[-48.72169408650798,-26.85637484176565],[-48.721695158517164,-26.8563213445103],[-48.72187395744534,-26.856313546216285],[-48.72188762484964,-26.856175517091007],[-48.721835087951405,-26.856079422666628],[-48.72181989374996,-26.856079885265597],[-48.72176933802434,-26.856017536582772],[-48.72168379252343,-26.855954622029603],[-48.72158250732912,-26.85583871074586],[-48.721561572647225,-26.855765536301906],[-48.72147958199086,-26.855678682731565],[-48.72140593786713,-26.8555434622732],[-48.7212707825909,-26.855348059979562],[-48.72125854298363,-26.85530743456804],[-48.72107179460244,-26.855072139396462],[-48.72099671056115,-26.854872813288807],[-48.72094088548312,-26.854800983043248],[-48.72091484993185,-26.85473941754151],[-48.72088205839086,-26.85460681213093],[-48.72087168868461,-26.854443994997542],[-48.72081912976991,-26.85434531256662],[-48.72073239271744,-26.85435954610027],[-48.720665391622326,-26.854126307887658],[-48.72059624353431,-26.85400018410604],[-48.72057805729514,-26.853914171362426],[-48.72059761582236,-26.85383300165194],[-48.72052317485575,-26.853737635599348],[-48.72049841516553,-26.853612497495437],[-48.72027482917475,-26.85319569177427],[-48.720229893031224,-26.85292686821887],[-48.72008073921111,-26.85227631923171],[-48.720000563284174,-26.852282139071338],[-48.71987923206849,-26.851743662155222],[-48.719845140421384,-26.851667808862622],[-48.71984117579815,-26.851565069284746],[-48.71989441550114,-26.851553175570142],[-48.719926478688286,-26.851476336370403],[-48.71990185433689,-26.851373550503162],[-48.719763293732996,-26.851334082797838],[-48.719810379074715,-26.851208126326757],[-48.719855679471706,-26.85116270748417],[-48.719815857281155,-26.850930691615208],[-48.71976606346983,-26.85083441790134],[-48.71971595353743,-26.850477737312612],[-48.71964181071205,-26.850390820854937],[-48.71968569199539,-26.850350982483775],[-48.71966544710043,-26.850299301825086],[-48.71970835334481,-26.850176774039415],[-48.71968484990391,-26.850125032694056],[-48.71969751847373,-26.85003718567575],[-48.71965225685324,-26.849982645866735],[-48.71959679314873,-26.849753003743707],[-48.719626152014094,-26.849376732315903],[-48.7195717495777,-26.849378073794615],[-48.71956002840611,-26.84936167304134],[-48.719621922235454,-26.84932194567215],[-48.719617494816305,-26.849264572117928],[-48.71955725645925,-26.849199510841153],[-48.71952855187735,-26.849128796332778],[-48.71953576594493,-26.849069469970917],[-48.719512867322955,-26.849009655996788],[-48.719572118625656,-26.84896327193242],[-48.71958150813289,-26.848887472095274],[-48.71958658696296,-26.848770153065438],[-48.71955098966518,-26.848679470701015],[-48.71958665674923,-26.84863074060076],[-48.71950519949669,-26.848490754706802],[-48.71953975408716,-26.84826975101721],[-48.71960910632907,-26.848055103314834],[-48.71961506810298,-26.847636716813593],[-48.71957138350345,-26.847593688868557],[-48.71961446665426,-26.847487771721006],[-48.71959703362598,-26.847215826938783],[-48.719612652689925,-26.847037748809335],[-48.71969360720633,-26.84681219700713],[-48.71970910934844,-26.846733983302812],[-48.71970525295242,-26.846625842434925],[-48.71977355921681,-26.84652426946882],[-48.71977594174929,-26.846405421455657],[-48.71982542053897,-26.846341371981943],[-48.71982058937956,-26.846281850381242],[-48.71984587018928,-26.84622281537806],[-48.719882870908,-26.846180180166115],[-48.72002419103832,-26.845891143116557],[-48.720075673184226,-26.845578048777657],[-48.72015630363651,-26.845462624936104],[-48.72015749465906,-26.84540320045392],[-48.720182558524236,-26.845354969647897],[-48.720227463377455,-26.845324786593853],[-48.72036082781237,-26.844953203337624],[-48.722494028998725,-26.841292052611266],[-48.7245031080525,-26.839096036707442],[-48.72839484868426,-26.83750799347407],[-48.73110193134583,-26.837762594376166],[-48.73298087457811,-26.839826035597145],[-48.73350554007961,-26.841326883615025],[-48.734175881352414,-26.843469677903425],[-48.73459731916578,-26.846177031001286],[-48.73594801052389,-26.849965292413373],[-48.73920967385225,-26.853286648839113],[-48.741692121430226,-26.85595587077567],[-48.74491718840207,-26.857144467823876],[-48.747446313573235,-26.8574690793117],[-48.75228805253056,-26.857048693080277],[-48.75475904023829,-26.85630621584106],[-48.75649159051977,-26.855875553785257],[-48.75664295753798,-26.855805242136793],[-48.75690895319695,-26.855771805005702],[-48.75884777546689,-26.85475743069206],[-48.76047484065952,-26.85575729020189],[-48.76089821145701,-26.85644462444483],[-48.761153346319965,-26.856719756619444],[-48.761347117547665,-26.85700382187286],[-48.76151091012943,-26.857364047779157],[-48.76157187838098,-26.857538294371363],[-48.76193369434433,-26.858125679213913],[-48.76233624553112,-26.86182764338644],[-48.76189540044692,-26.864094868234183],[-48.7612757419368,-26.865855712666065],[-48.76119494582116,-26.866573734119747],[-48.76109426629663,-26.86855951868508],[-48.76129867576758,-26.871423877452596],[-48.76141451443305,-26.872119985229258],[-48.7614547602401,-26.873025196659984],[-48.761417642880836,-26.873525675379348],[-48.761526684099245,-26.875452125424594],[-48.761576041358154,-26.87571305940105],[-48.76161656068414,-26.876113033312993],[-48.76167165984122,-26.87698857567092],[-48.762062834937915,-26.87973268051143],[-48.7617453380232,-26.883778570824614],[-48.76217089368429,-26.88759120169916],[-48.7640169058137,-26.89089180032776],[-48.76388840823453,-26.891665627737403],[-48.75791558826871,-26.889083505732092],[-48.75705945486895,-26.888288153962595],[-48.75557228047349,-26.887340631840217],[-48.75273959449345,-26.886300619880465],[-48.749784267804955,-26.884920757946823],[-48.74548555931521,-26.884408283490558],[-48.742167790129656,-26.883857798977207],[-48.740093684447345,-26.88453530442744],[-48.73825441850834,-26.88535867699586],[-48.73744229395058,-26.886340618977144],[-48.73845390060684,-26.88728071059809],[-48.73985037050908,-26.888795498595996],[-48.74196139573457,-26.89025063757886],[-48.74288960118181,-26.89140256835195],[-48.74333372482576,-26.892573402050658],[-48.74299862969919,-26.89389169808134],[-48.74170964189751,-26.894937107463086],[-48.74027771494495,-26.895198468758633],[-48.739476851568554,-26.89561205517721],[-48.73813547777327,-26.89530629932517],[-48.7357654491226,-26.894912967569745],[-48.73411707720067,-26.894104775272844],[-48.732293226453244,-26.89414655963269],[-48.729989697700944,-26.894393812470046],[-48.72718798025585,-26.895770090679008],[-48.72576883440412,-26.895391896853173],[-48.7231583032372,-26.895136616560976],[-48.72119023508184,-26.89446525608199],[-48.72072908761503,-26.893747136330184],[-48.72091608859434,-26.89232880507442],[-48.72165486302524,-26.8910615128156],[-48.722477130655136,-26.88958235874225],[-48.723225842504355,-26.8878177419225],[-48.72349202649842,-26.886400680902856],[-48.72351196911489,-26.88540605565725],[-48.72297163301172,-26.88491339945494],[-48.72253053895021,-26.88623229782863],[-48.72204450191297,-26.88744335203552],[-48.721063784204084,-26.88891994556319],[-48.72071832768788,-26.890335721219394],[-48.72070263659274,-26.8911172103744],[-48.72009805944645,-26.89359481277144],[-48.71507019145817,-26.90317868528072],[-48.71373217537459,-26.90663931360004],[-48.71410835197897,-26.90764034665903],[-48.71573186926311,-26.905747818240318],[-48.71648080972331,-26.90398325337701],[-48.71762593027212,-26.90222509190366],[-48.718340527485225,-26.902165577188544],[-48.72037652780504,-26.90340662014164],[-48.722014933460564,-26.904712286509433],[-48.72382184418901,-26.90552318009095],[-48.727703362396454,-26.905656792420757],[-48.729203310626716,-26.90596520370581],[-48.73053767063174,-26.906626274264873],[-48.7359289958529,-26.91055052621443],[-48.740079589309005,-26.91310443333554],[-48.742288684447345,-26.91363726928986],[-48.74348309307661,-26.913372101113243],[-48.744768051622906,-26.912539826497074],[-48.745653920422036,-26.91184329987438],[-48.74709028579083,-26.911368761933126],[-48.7483540388081,-26.91160213595277],[-48.75041451871103,-26.91163499789743],[-48.75199105805311,-26.912086529873676],[-48.753634194528175,-26.913178719445476],[-48.75717518574923,-26.914514275729253],[-48.760251973511394,-26.91527382875653],[-48.76282945983336,-26.91723356812248],[-48.762133044619205,-26.932431174689555],[-48.761119186492834,-26.947623701435703],[-48.75906787806308,-26.94709363621125],[-48.75654094456354,-26.946555973601836],[-48.75472891187345,-26.9459585852808],[-48.75189622199033,-26.944847428179685],[-48.75023149847314,-26.944820876582494],[-48.7484973894721,-26.944295721169524],[-48.747635288271134,-26.94378447764234],[-48.74511415780255,-26.9429624376813],[-48.74352873890815,-26.94293707529661],[-48.74139126220241,-26.942760719149863],[-48.74037066662537,-26.94224689450295],[-48.738623886526916,-26.942361027560064],[-48.73751410445202,-26.94234322517242],[-48.73622874559644,-26.943175406070047],[-48.73416344719634,-26.943355436184852],[-48.72958712193903,-26.942215813822912],[-48.727219017294836,-26.941680194721688],[-48.7250277679452,-26.94172314237649],[-48.72340982427618,-26.94183194776629],[-48.72149164988853,-26.942582704645094],[-48.7195720223751,-26.94340447797025],[-48.716881145308655,-26.9431477333181],[-48.71515728237491,-26.942124872499512],[-48.71277572146835,-26.940920496277986],[-48.71164042995478,-26.939580503485328],[-48.70967743729877,-26.938624766702006],[-48.704503477126266,-26.935697974520654],[-48.70302195492177,-26.9344657195724],[-48.70262374648913,-26.933137336934497],[-48.704114269187706,-26.931427636585127],[-48.705584113861256,-26.929319552040095],[-48.707977457098345,-26.924668049665996],[-48.70950455184529,-26.919718165529126],[-48.71074354895733,-26.917250929344473],[-48.711931909397336,-26.913361516072836],[-48.71275591562935,-26.911811396973587],[-48.71342570210748,-26.910045572686236],[-48.713527862132416,-26.908910153050435],[-48.71297744228655,-26.908688032765443],[-48.71207565048068,-26.91016582567874],[-48.71092175457303,-26.912350193448805],[-48.71026482463596,-26.913476608304286],[-48.70951141098995,-26.915454257176382],[-48.7087902671507,-26.915833417429674],[-48.70766927790336,-26.916383746992057],[-48.7040482247918,-26.9151167362218],[-48.698611760486045,-26.913464706156777],[-48.69420278409482,-26.911971399303493],[-48.69332240289404,-26.912383410741956],[-48.69291171764635,-26.91308736117621],[-48.69408020107852,-26.914101393744478],[-48.69604408068434,-26.91498627127634],[-48.69744747572983,-26.916146246102922],[-48.69947913968204,-26.917600718462783],[-48.70207425631318,-26.918637941501657],[-48.705290504050026,-26.92032482485357],[-48.70613066173156,-26.92190195766718],[-48.70687865128148,-26.924117190677908],[-48.70572881011699,-26.926088366452674],[-48.705371508120415,-26.928072425004316],[-48.70390311800743,-26.930109465801824],[-48.70276179887987,-26.931654348591007],[-48.70090420790071,-26.933329680004864],[-48.698413904080034,-26.93492359389735],[-48.69671617035428,-26.936530404795594],[-48.696376001431766,-26.937661913835722],[-48.69731706737412,-26.93817474715088],[-48.70048478694729,-26.93836856813998],[-48.703411842947084,-26.9387005342576],[-48.70646724691787,-26.940526928071147],[-48.70907156933211,-26.941137796222954],[-48.7112709689582,-26.94216844803014],[-48.7121275629344,-26.943630182422986],[-48.712388249369646,-26.945739920636935],[-48.71108401275124,-26.947495423079477],[-48.71001468321686,-26.94939686068312],[-48.70943522120121,-26.951525706046148],[-48.70962860579693,-26.952801791346953],[-48.70966763804811,-26.954792291419114],[-48.710323652943345,-26.957645617284484],[-48.710560899318935,-26.959472974600693],[-48.71114808292966,-26.95959713263902],[-48.71125802746455,-26.96242225931879],[-48.71186355897365,-26.96385342529003],[-48.71151337789818,-26.965482271890448],[-48.71062985801476,-26.967190744703828],[-48.709155144056204,-26.968357686581438],[-48.707410836488755,-26.968329318179713],[-48.70598511915864,-26.968235048781487],[-48.70391790596888,-26.968485646300653],[-48.701777170280195,-26.968450749373666],[-48.70052447386617,-26.967648583264758],[-48.70027248392751,-26.967066652786446],[-48.70016270292055,-26.965937088439127],[-48.69931512992309,-26.964715125889413],[-48.69813165781181,-26.964411535707733],[-48.69735617206727,-26.96354607259879],[-48.69655177492111,-26.964101456793724],[-48.69520541153886,-26.96400837879512],[-48.69498058712466,-26.963365105851015],[-48.694917223585136,-26.962582341315155],[-48.69306723678449,-26.96202741685225],[-48.69170144689943,-26.96082412235042],[-48.69006871811557,-26.959795800338192],[-48.68859262060794,-26.957717333683874],[-48.68861293022023,-26.956722741934342],[-48.68935543169642,-26.95531359401816],[-48.690247766999335,-26.954333292549652],[-48.69129718896146,-26.95342662539354],[-48.69235093809285,-26.952306819149467],[-48.69286567320406,-26.950396457427882],[-48.69328085407218,-26.94947938975524],[-48.69235998866012,-26.94797192982837],[-48.6909548315688,-26.94688293011496],[-48.68937956608537,-26.946359659712677],[-48.68558040977166,-26.94601308281409],[-48.68365613979067,-26.947047471632327],[-48.682205793519216,-26.947473731167737],[-48.6806794847862,-26.949130512799986],[-48.679064444535825,-26.949733259664054],[-48.677406034391325,-26.95021367439664],[-48.67597621799307,-26.95033224215296],[-48.67326928549568,-26.95085611740519],[-48.67168383603549,-26.950829941568905],[-48.670086694039114,-26.951372078465702],[-48.66914025665882,-26.951017695595468],[-48.66908395542412,-26.95043471568596],[-48.66917369825377,-26.949328638712835],[-48.668721223570145,-26.948364753038007],[-48.66912927557972,-26.94780297562959],[-48.66963148711993,-26.94651075241488],[-48.670491187375816,-26.945781728468273],[-48.67149214944179,-26.946155135224757],[-48.673271102125945,-26.946610154488585],[-48.67480078201977,-26.946010958599484],[-48.676684397249325,-26.945667992543108],[-48.67892904669992,-26.945548413643436],[-48.67997264366495,-26.944925995594676],[-48.68143584200967,-26.94317341696909],[-48.68288736733314,-26.941989155395216],[-48.68480864988357,-26.941096855452667],[-48.686716845934164,-26.94084390795857],[-48.68892905385615,-26.941235512932547],[-48.68980533395223,-26.941036673114297],[-48.690621174549534,-26.939912976870147],[-48.69150612923703,-26.939287869468966],[-48.69183621815436,-26.938653676848602],[-48.69311747988836,-26.938035044794194],[-48.694162380472825,-26.937341470474298],[-48.6943411509903,-26.936349463580353],[-48.693570210644225,-26.935270862419816],[-48.69145038618708,-26.934241250403986],[-48.690569816824556,-26.93465323180219],[-48.6887163541321,-26.936115260867158],[-48.68783141165489,-26.93674034980198],[-48.686462172661635,-26.937783885788242],[-48.68535247693044,-26.937765676894262],[-48.684567095763114,-26.937397454119605],[-48.68418965739092,-26.936467396260028],[-48.68357588808859,-26.93546239270829],[-48.68439174411925,-26.93433873220752],[-48.68581279001574,-26.933354519826427],[-48.684766855211166,-26.93150224565517],[-48.684337753852844,-26.929221084840766],[-48.683268805915,-26.927213680448553],[-48.682348235590375,-26.92570616985915],[-48.68140879762385,-26.925122204211704],[-48.68045628442026,-26.92517761122047],[-48.679732810380685,-26.925663174955236],[-48.679072582803876,-26.92693150253745],[-48.67857231009248,-26.928131393106558],[-48.67795803978688,-26.929027664302442],[-48.67703293670821,-26.929740565404032],[-48.67669551453218,-26.930729931412245],[-48.676684930739775,-26.93175539588572],[-48.67664744581252,-26.93307431427538],[-48.675742065660764,-26.934693910862055],[-48.67426614030695,-26.934863657231592],[-48.67313323398669,-26.935106177885253],[-48.671771708034704,-26.934983751283273],[-48.67090239887063,-26.933773289249963],[-48.67063618476285,-26.93111209362627],[-48.670683559442416,-26.930062249700345],[-48.67006118205736,-26.929483444030367],[-48.669921658057575,-26.928557285128022],[-48.66990292089532,-26.927624576169983],[-48.670269352737485,-26.92707064784514],[-48.67162545520219,-26.926666643162324],[-48.672818665090404,-26.9264731362311],[-48.67323244222124,-26.925627172507827],[-48.67381347096617,-26.924357569036435],[-48.67367974832128,-26.92314724317141],[-48.67308947142964,-26.92100553363186],[-48.67249483893707,-26.91907694604925],[-48.67156863886103,-26.917853543383604],[-48.67063808019494,-26.916843262709897],[-48.66977510637237,-26.916402618700737],[-48.668267931189334,-26.91644878594842],[-48.66700580919355,-26.91614365870019],[-48.66582879178937,-26.915555667006352],[-48.66504802120147,-26.914974224004784],[-48.664029517445634,-26.914388840084484],[-48.66316366382906,-26.914090240814424],[-48.66247314534709,-26.91297728659848],[-48.662412936520674,-26.91205243611268],[-48.66393175719981,-26.911437995727166],[-48.66386860885429,-26.91065522844013],[-48.66309959187726,-26.909505445159866],[-48.66248175221493,-26.908713490958398],[-48.662042905053056,-26.906929579975483],[-48.66064879635726,-26.90534303402533],[-48.65970084860392,-26.905185188045092],[-48.658108721655914,-26.90551410656729],[-48.65659435876568,-26.905915363536522],[-48.655467378432945,-26.906749431668572],[-48.65370645223125,-26.90757295266862],[-48.65308281216276,-26.90706512607822],[-48.65338238505549,-26.906403709522163],[-48.653250340529546,-26.906405165322873],[-48.65323255731488,-26.90646516402605],[-48.65311450535371,-26.90660596149048],[-48.65301032031805,-26.90654992409159],[-48.653073118407406,-26.90644235739769],[-48.653203494563144,-26.906250914333103],[-48.65332961862426,-26.906264816807738],[-48.653429361269765,-26.906299991930997],[-48.65349811992453,-26.906148180025856],[-48.65392374689536,-26.90574182980788],[-48.65372697955984,-26.9056433698478],[-48.6535942686582,-26.90582060846075],[-48.65351606716875,-26.905781530348378],[-48.65378554050791,-26.90535864922945],[-48.65394553687276,-26.90542983315545],[-48.65386290754336,-26.90556535167883],[-48.65398419710594,-26.9056841176029],[-48.65405453471435,-26.905616965228965],[-48.65396860523965,-26.905548219952042],[-48.654001515435205,-26.905485016273857],[-48.65407230613311,-26.90550035998278],[-48.65413630300245,-26.905538900298563],[-48.65457978506782,-26.9051154964356],[-48.6548494969454,-26.904648371186187],[-48.65478855967599,-26.904612682254044],[-48.654802893920774,-26.90455625372058],[-48.654579705052946,-26.904396711440917],[-48.654353632010725,-26.904631426972998],[-48.65428123432858,-26.904566474051276],[-48.65476346811749,-26.90407290568419],[-48.654835096497166,-26.904130373522573],[-48.65463879467863,-26.90434102659028],[-48.65484379866706,-26.90448846115703],[-48.65495910529957,-26.90444759213667],[-48.6550644342537,-26.90445384508826],[-48.65515595799662,-26.904399086874726],[-48.656332608635715,-26.903594718624166],[-48.65657933509837,-26.903441235667852],[-48.65658783444832,-26.903416818233854],[-48.65640337140523,-26.90320642946603],[-48.65647189779242,-26.903159424729992],[-48.656499153670715,-26.90318161931706],[-48.65646156317318,-26.90320817530151],[-48.656584322422916,-26.90333553825276],[-48.65661388898182,-26.90328757530837],[-48.65665078188851,-26.903304493661178],[-48.65667601796939,-26.903298700328758],[-48.65677766961906,-26.903241373860617],[-48.65681477023363,-26.903206270929825],[-48.656780089953116,-26.90316609329933],[-48.65708937790261,-26.902973512614782],[-48.65716610454511,-26.90289197884313],[-48.65711630817544,-26.902822248722615],[-48.657065942278656,-26.902814272782482],[-48.65699332229726,-26.902726619784396],[-48.657291792800024,-26.90254795938112],[-48.65735559236656,-26.902643130131285],[-48.65717328968341,-26.902776623117834],[-48.65722416169431,-26.90283028447475],[-48.65753292939148,-26.90250217536666],[-48.657397317726485,-26.9025771154631],[-48.65733778567039,-26.902510913857327],[-48.65775015557593,-26.902271338482073],[-48.65777998963031,-26.90223963504346],[-48.658148479222675,-26.902064014229516],[-48.6581439219415,-26.902055658886468],[-48.65922092457616,-26.90155288320041],[-48.65956031878463,-26.901522353279056],[-48.65984420477182,-26.901458133502533],[-48.659859106412135,-26.901495474693352],[-48.66214765912574,-26.90128958504056],[-48.66213935725556,-26.901246006600644],[-48.66255056945468,-26.901181023804163],[-48.66256244715425,-26.901252284681217],[-48.66265140145471,-26.901244570904968],[-48.66263780052315,-26.9011629992635],[-48.66417876296451,-26.900928876993497],[-48.664772177345434,-26.90086487910445],[-48.66523810465928,-26.9007412648723],[-48.665723874504735,-26.90058718004348],[-48.667347762767896,-26.899860166610562],[-48.66806576861604,-26.89945111870074],[-48.66837107829941,-26.89925581004743],[-48.668430210045685,-26.899233677304153],[-48.66842452664978,-26.89922067510832],[-48.668589706447854,-26.89912435172301],[-48.668882926596496,-26.89890633294711],[-48.668975718978494,-26.898865432086996],[-48.6690192938685,-26.898818398696427],[-48.66913501738157,-26.898759423500284],[-48.66941883182461,-26.89856752150879],[-48.669424927158,-26.898575368579685],[-48.66958357796109,-26.898255684376622],[-48.669552221388486,-26.89824905551295],[-48.66950956683999,-26.898182821541333],[-48.66953372972964,-26.89813568860794],[-48.66961234176263,-26.89811021755198],[-48.669648117489956,-26.89812563951377],[-48.670254897985636,-26.89690294734342],[-48.670337829386646,-26.896966104260684],[-48.6703326736138,-26.896975297054052],[-48.670461764857436,-26.89706048765864],[-48.67048752276794,-26.897026624890977],[-48.670340412132425,-26.89696492408866]],[[-48.67210443279359,-26.891745636249354],[-48.67272225907788,-26.89253754840403],[-48.672932280419126,-26.893891265856563],[-48.67273739696301,-26.895664705605572],[-48.67119842555446,-26.897273845824426],[-48.67090172798555,-26.89717153321319],[-48.670799104070646,-26.89731738817998],[-48.67111335708346,-26.89755670592381],[-48.669738643248486,-26.8988842730941],[-48.66923258422387,-26.90036830319603],[-48.66865311077886,-26.901566854294014],[-48.66932976765529,-26.903354677456544],[-48.67073419312642,-26.904443850105014],[-48.67190967168253,-26.90510283814455],[-48.673717633816565,-26.90584330969368],[-48.67585714300058,-26.905878557951365],[-48.67690328256294,-26.905114054007633],[-48.67764262619938,-26.903847030107123],[-48.67838485965601,-26.90243791684004],[-48.679121262405054,-26.901312968695738],[-48.67986055501413,-26.900045929381893],[-48.681302795880015,-26.899287898630543],[-48.68147723601437,-26.898509033845198],[-48.681179163743984,-26.897580276183284],[-48.681198033154395,-26.896656723936577],[-48.681317908866475,-26.89466883568195],[-48.68142471687687,-26.893320328223176],[-48.68064690754274,-26.89259688903899],[-48.67970628793987,-26.892083969507496],[-48.679252683995266,-26.891010519498636],[-48.67982036879393,-26.890380252803777],[-48.680395306800655,-26.88939477033522],[-48.679954772163725,-26.8876819400929],[-48.67863112512331,-26.886523124160732],[-48.67720357117587,-26.886570715141872],[-48.67545328935011,-26.886897243842892],[-48.67378368196689,-26.887154012820414],[-48.67297684197784,-26.887851380220596],[-48.67311636870459,-26.88877753849512],[-48.67348339625388,-26.890204910153404],[-48.67275284743073,-26.89104566468927],[-48.67210443279359,-26.891745636249354]],[[-48.67065981559571,-26.89708811023863],[-48.67057780467767,-26.8970598286155],[-48.67053640473444,-26.89711732872189],[-48.67059950038292,-26.89716537912474],[-48.67065981559571,-26.89708811023863]]],[[[-48.64831225056919,-26.92665572734239],[-48.64724316526356,-26.925783214159104],[-48.64695802960116,-26.92452276791138],[-48.64718286105554,-26.923689393133667],[-48.64797530401471,-26.92300500164565],[-48.64855545627055,-26.92254960128448],[-48.648414330005956,-26.921849643120073],[-48.6488437058932,-26.92115919293129],[-48.64875154970776,-26.920599572071264],[-48.6488774524638,-26.91953200764245],[-48.649350002661045,-26.91926083973422],[-48.650373770366535,-26.919928992355466],[-48.650408290134834,-26.920766695079603],[-48.650578166773315,-26.922583301582762],[-48.65004024696167,-26.923504483517075],[-48.64919980425895,-26.924002059174608],[-48.64877041827981,-26.924692509635285],[-48.649273644764854,-26.925445008593687],[-48.64998144884857,-26.92634043689982],[-48.65024783970511,-26.927027346857102],[-48.649027608305886,-26.927301191156417],[-48.64831225056919,-26.92665572734239]]],[[[-48.646982404319054,-26.920849119026716],[-48.64575505892863,-26.91999151694428],[-48.64485339596167,-26.918441737222487],[-48.644245537863654,-26.917733983986533],[-48.64420526868882,-26.917175227404364],[-48.644675887170536,-26.9169970568415],[-48.6459637416606,-26.917437111537154],[-48.6473946532082,-26.918484133974406],[-48.64789495050139,-26.919376110636353],[-48.64787180084138,-26.920491894682588],[-48.647702704721624,-26.92114017269006],[-48.646982404319054,-26.920849119026716]]],[[[-48.65175013974909,-26.918603200504737],[-48.650725411233225,-26.917981549049664],[-48.65042194470095,-26.91760443781661],[-48.65048536750286,-26.917047409016565],[-48.650908931112106,-26.916635896387685],[-48.651581208868734,-26.916740102588946],[-48.65245130834666,-26.917312667107606],[-48.65279798099416,-26.918109057928167],[-48.65293528139781,-26.918994978798118],[-48.652363827267244,-26.919031978151107],[-48.65175013974909,-26.918603200504737]]],[[[-48.652977729395104,-26.914437979420327],[-48.6526819626568,-26.913688943980755],[-48.6530065964307,-26.913043243474707],[-48.65347814868003,-26.912818549382415],[-48.65492830652789,-26.91293567186294],[-48.65570332620153,-26.91308807112946],[-48.65637270625376,-26.913331726290856],[-48.65631411958227,-26.91365630466636],[-48.65640438912322,-26.914308905640457],[-48.65582334867664,-26.91481083386978],[-48.654887926552725,-26.91488830502649],[-48.654217580672764,-26.91469113366862],[-48.65359428749796,-26.914727277353233],[-48.652977729395104,-26.914437979420327]]],[[[-48.65596169705508,-26.91062747720443],[-48.655246241986674,-26.91010401300277],[-48.65500521072254,-26.909216368713274],[-48.65481027364673,-26.90860853506977],[-48.654977382162755,-26.908053225207684],[-48.65545371183935,-26.907596066441833],[-48.65628535796965,-26.907516864420497],[-48.656544646336734,-26.907521169819105],[-48.657370530114115,-26.907720911927196],[-48.65834623276575,-26.908202176938964],[-48.6589070766228,-26.908676555610334],[-48.65853159199192,-26.909274921366073],[-48.65836833630143,-26.90964427186561],[-48.6585085559975,-26.91039071551644],[-48.65808792410314,-26.910662779729382],[-48.65761735019124,-26.91084099917516],[-48.656785679800045,-26.91092020659753],[-48.65596169705508,-26.91062747720443]]]]}}]}
