{"type":"FeatureCollection","features":[{"type":"Feature","id":1,"properties":{"nome":null},"geometry":{"type":"MultiPolygon","coordinates":[[[[-48.71300183425208,-26.926874427295715],[-48.714702315636146,-26.926702489209138],[-48.71742325952027,-26.926970970395423],[-48.718531180878536,-26.927213322712298],[-48.7198858967521,-26.92763421268834],[-48.72074202680519,-26.927947288192755],[-48.72160267193307,-26.928036001711977],[-48.72251894148202,-26.928125607155863],[-48.72435649040068,-26.92805551281564],[-48.72627547314998,-26.928086455247026],[-48.72805690041486,-26.928040345240472],[-48.73013826348232,-26.92829828078875],[-48.731111167367104,-26.928338869071023],[-48.732558363945785,-26.92831226271709],[-48.733868498245094,-26.928183692954573],[-48.73512450082027,-26.927979430508277],[-48.7361008919056,-26.92784548110824],[-48.73696454099752,-26.927784526758288],[-48.737632017682394,-26.927795232583936],[-48.738492184528305,-26.927908772281256],[-48.73993341578889,-26.928181238095227],[-48.74088000586667,-26.928146525956027],[-48.74141041452915,-26.92805527087231],[-48.74395219319024,-26.927547327493702],[-48.7455349755627,-26.9276973151832],[-48.7469782078079,-26.927869993258714],[-48.74902538503965,-26.928451288056696],[-48.75273488458693,-26.929383226212874],[-48.75508756566765,-26.929994239506886],[-48.75632974736081,-26.930487806597217],[-48.757346479053176,-26.931127402990022],[-48.75822366435003,-26.931789711583274],[-48.75868169203408,-26.932545104280457],[-48.758970381721454,-26.933422491725235],[-48.75936096259442,-26.93477530223325],[-48.7595876262087,-26.93597588610454],[-48.760444165966575,-26.937685215341528],[-48.760957366342524,-26.938466415595286],[-48.76177555187889,-26.93930232819237],[-48.761562997623656,-26.948650383754103],[-48.76092074016914,-26.948764872331996],[-48.758928270800524,-26.9482095384682],[-48.75790398002243,-26.94794388439388],[-48.75678669858946,-26.946754071140862],[-48.75544839156919,-26.945485921043662],[-48.753426090563124,-26.943633311550975],[-48.75173318544287,-26.94201036061703],[-48.7505768254741,-26.94139343192],[-48.74888159198839,-26.94129157116141],[-48.746568978179155,-26.941454133221022],[-48.7449775672192,-26.941727939144506],[-48.743161643178695,-26.942097881857094],[-48.741658632910934,-26.942123695331475],[-48.73879616870612,-26.941953142127964],[-48.737346801194015,-26.942079517425956],[-48.735455880662315,-26.94202422898917],[-48.73407161589406,-26.941677814323704],[-48.73307826391627,-26.94126286057345],[-48.732030288593506,-26.940797147034505],[-48.730587925594904,-26.94057444966565],[-48.72958460523298,-26.940658047982534],[-48.72824101044834,-26.941060337406327],[-48.72692772334409,-26.941338417493004],[-48.72528916442897,-26.94118731347221],[-48.72429184727462,-26.940971728895637],[-48.72359748708771,-26.940910649657418],[-48.7228981168729,-26.94109885305267],[-48.721944904915354,-26.941457509545078],[-48.7212976480669,-26.941821103406628],[-48.71993824433104,-26.941624574969946],[-48.71902789333532,-26.94123580270352],[-48.71847260815815,-26.94117694672255],[-48.717300887491604,-26.941332542881284],[-48.716465951343075,-26.941343961796775],[-48.71593647210995,-26.941385260549854],[-48.71551372575976,-26.941652717139732],[-48.71553148587214,-26.942151738017397],[-48.715107227108255,-26.942493978324624],[-48.71451859205177,-26.942708870251433],[-48.71357792392922,-26.94244425485565],[-48.71120500782413,-26.941458170125884],[-48.70916439128039,-26.940552254990322],[-48.70817216257768,-26.940087274195495],[-48.707183978660694,-26.93942286042619],[-48.70602286662117,-26.939054866891667],[-48.704943184992565,-26.938787935701118],[-48.70413709659939,-26.938749878558628],[-48.70234033979704,-26.938172014625984],[-48.701369400718455,-26.938031509825034],[-48.70067710339418,-26.93787060628508],[-48.700073815098506,-26.9374368483962],[-48.69994233985942,-26.93706065641993],[-48.70026649890738,-26.936168227169983],[-48.701198484814206,-26.935485196526244],[-48.70160404309913,-26.934693836316757],[-48.70195700402727,-26.933751998136216],[-48.70274787683922,-26.933166402895235],[-48.703845684885884,-26.932535926379067],[-48.70438118322201,-26.932195529887164],[-48.70472502405181,-26.931702393826836],[-48.70515885982933,-26.930886544261966],[-48.70570242093062,-26.930147288009838],[-48.706937222581935,-26.929618759637563],[-48.70920254135617,-26.929032147881095],[-48.710328086185655,-26.928402067342972],[-48.71165383178563,-26.927500921497664],[-48.71300183425208,-26.926874427295715]]],[[[-48.729354160578666,-26.857450716999743],[-48.72928236865538,-26.856245941634153],[-48.7289282643673,-26.85477871091887],[-48.72856472632835,-26.85378418024873],[-48.72765203940081,-26.851491226196146],[-48.72739292471436,-26.85006850613805],[-48.72668804422931,-26.849369387888874],[-48.72588993434796,-26.84853980763196],[-48.7245186685419,-26.84761502512365],[-48.722818100293,-26.846384021628037],[-48.72149651434485,-26.845374039894793],[-48.720654869768644,-26.844328799130302],[-48.720469274218694,-26.844024901591347],[-48.72096038230296,-26.843431009210267],[-48.72234474900628,-26.841303996843212],[-48.724239669702605,-26.840001929327244],[-48.725254244695364,-26.839588391227913],[-48.72670853134008,-26.838752049730157],[-48.72801136569998,-26.83830013832694],[-48.72969055660205,-26.838198150092897],[-48.73154850962994,-26.83874380895301],[-48.73281964655976,-26.839881849383765],[-48.733698155649165,-26.84148643955194],[-48.73379222255203,-26.843981172365112],[-48.73395131647197,-26.845617214660773],[-48.73453387764961,-26.84764692314989],[-48.73530980076483,-26.849593754184614],[-48.73656655188689,-26.851462309485584],[-48.73835718981389,-26.852995505241914],[-48.7412242114661,-26.855835487499135],[-48.74307057084252,-26.856982638147322],[-48.74492123044074,-26.85791490199257],[-48.74721676002965,-26.858166445542615],[-48.74908874750183,-26.85802432661347],[-48.751154081549394,-26.857799284416735],[-48.75201650343808,-26.857813005109673],[-48.75340086855929,-26.858092939299986],[-48.75478014935729,-26.85863070202017],[-48.75605852812819,-26.85942477059042],[-48.75747134136062,-26.86069381837561],[-48.758697611991415,-26.861701972692746],[-48.759594431460066,-26.86240398593071],[-48.76043911343637,-26.863320102564572],[-48.76070459075156,-26.864441971865958],[-48.76111720708265,-26.865394224482195],[-48.76173970590646,-26.866094871413928],[-48.761726705109254,-26.86850301752359],[-48.76217320045066,-26.87554988717384],[-48.76200827879477,-26.880425726817812],[-48.762100349200345,-26.88274290583297],[-48.76167592180368,-26.885692921436643],[-48.76117803737535,-26.886630741309272],[-48.76068904313681,-26.887117338117985],[-48.758039183785485,-26.885355821558864],[-48.75723550625251,-26.884784232607704],[-48.755735062162714,-26.883083911861352],[-48.754322010397075,-26.881814833408026],[-48.75289963884813,-26.881018449332352],[-48.75161254602855,-26.880654072724074],[-48.750041336524866,-26.88011321245382],[-48.74860964802713,-26.879789492781562],[-48.74694603385157,-26.87907517886378],[-48.74518660076848,-26.878359317583705],[-48.743580341980504,-26.877173028306444],[-48.74311479998964,-26.876477804863107],[-48.74258938848326,-26.87638343665387],[-48.7417319559738,-26.876111811846606],[-48.74068626835534,-26.875665225027824],[-48.739693638919476,-26.87496156111839],[-48.739175933816405,-26.874480424177225],[-48.738271462597694,-26.874165039764772],[-48.73688609742015,-26.873927920901078],[-48.736222942983225,-26.873530417046233],[-48.735704404202785,-26.87309224159245],[-48.73533304947833,-26.872484477200057],[-48.73507466670171,-26.87101879402818],[-48.734952757967335,-26.869920683088235],[-48.735097412293406,-26.867472770236642],[-48.735109401500154,-26.86687115033291],[-48.73480996544594,-26.865060915572265],[-48.73431631084083,-26.863376526394198],[-48.733621589822924,-26.862161762284664],[-48.73155198354674,-26.86019416146264],[-48.72990936330662,-26.858448324969338],[-48.729354160578666,-26.857450716999743]]],[[[-48.70928836794763,-26.94146875796714],[-48.70975563809661,-26.941584259216334],[-48.70987869956971,-26.94788275295087],[-48.70991920891007,-26.948631508810585],[-48.70979685295965,-26.949178127161463],[-48.709468183663624,-26.95029493458674],[-48.70936456286743,-26.951290714772572],[-48.70927203513675,-26.951738070421666],[-48.709205809928086,-26.952260662707328],[-48.70885737716405,-26.95297816174139],[-48.70867735821792,-26.953623586734174],[-48.708789959262965,-26.954934587034085],[-48.70905710856043,-26.956859044281668],[-48.70957816422292,-26.958613072097336],[-48.71017108992256,-26.960941806212677],[-48.71069041112265,-26.96278307905766],[-48.71125404395409,-26.965186143947395],[-48.71146762247162,-26.967009980998],[-48.711522849502515,-26.968407325702405],[-48.71138282439779,-26.9698264354967],[-48.71089321751932,-26.970641389625126],[-48.710157244790956,-26.971252845965285],[-48.709370668045615,-26.97161410993227],[-48.70753140523469,-26.971733819918015],[-48.69977322650708,-26.97140790178858],[-48.68845350284277,-26.971048117428612],[-48.68774187026202,-26.9704629078696],[-48.687392629905595,-26.968487208105337],[-48.687429822081306,-26.966667468120505],[-48.68776099726244,-26.964079523847502],[-48.6882894298966,-26.961370131283168],[-48.68933755431538,-26.956375108906983],[-48.6898496228954,-26.954463401164123],[-48.69035150031898,-26.953050249758533],[-48.69072888007404,-26.952283404312368],[-48.69236967900424,-26.950963703378655],[-48.692993320315935,-26.950400371799272],[-48.693370672483944,-26.949633516409953],[-48.69385928260602,-26.94886848040692],[-48.693844665512295,-26.948219893373],[-48.69403770016155,-26.946938824186507],[-48.694535934524936,-26.945700148751897],[-48.69488899441635,-26.94475833553452],[-48.69529471726128,-26.942595494192677],[-48.695308917951785,-26.941897505362647],[-48.69589714479447,-26.94033611923053],[-48.69666687077509,-26.939426042509822],[-48.69751597069031,-26.938716748996736],[-48.698687679251734,-26.9385613173132],[-48.699829546938595,-26.938505135240053],[-48.70143867974113,-26.93873086287037],[-48.70307108467318,-26.93918137932642],[-48.704486044787124,-26.93937897319138],[-48.70600166646019,-26.94010185886719],[-48.70715976053112,-26.94061942369306],[-48.708067033732874,-26.941157840370668],[-48.70845873968187,-26.94126368351277],[-48.709589003853544,-26.94156908481769],[-48.70928836794763,-26.94146875796714]]],[[[-48.68900995504063,-26.87037226200927],[-48.68902027258429,-26.869327450784375],[-48.689438985952634,-26.868143813261042],[-48.69025710025059,-26.866725389605804],[-48.691570752316636,-26.865636810187368],[-48.69235227582771,-26.86513477018399],[-48.693349953423585,-26.864587991789854],[-48.69531887125071,-26.863912262071047],[-48.696698963206266,-26.86396694023265],[-48.698327497174446,-26.864154354031005],[-48.70032447096784,-26.864749939216672],[-48.702439515217684,-26.865717434579935],[-48.703609251302396,-26.867055916063542],[-48.704539388808485,-26.867723880141288],[-48.70577124928906,-26.869472732007747],[-48.705602701383036,-26.869808509278684],[-48.70527292272989,-26.87011748835606],[-48.70502741884269,-26.87025857845072],[-48.70462019724922,-26.870397040689245],[-48.704453597802306,-26.870636130285757],[-48.70425027637929,-26.87135821403076],[-48.70394793156185,-26.87164345618658],[-48.70324324234995,-26.871825438424903],[-48.70259783387574,-26.871742405638244],[-48.70202790874104,-26.871926572281545],[-48.70159470229113,-26.872016243380568],[-48.70110807895478,-26.8720808647126],[-48.70019020524572,-26.872138464456096],[-48.699483550648566,-26.87241711294111],[-48.698907742212846,-26.872891326703893],[-48.697982515459024,-26.873311484237224],[-48.69640353778178,-26.874059489982827],[-48.69534401482283,-26.874453260082383],[-48.69444032058783,-26.875139719710173],[-48.69394190542134,-26.875784429900396],[-48.693439067182375,-26.87664668193103],[-48.69334544367108,-26.877273819704225],[-48.69352136202397,-26.877905358968686],[-48.69399918091482,-26.878275852931782],[-48.69461962407326,-26.878261800898734],[-48.695028846556255,-26.878026684109745],[-48.69517293727878,-26.877569624660943],[-48.69532045959633,-26.876943365554425],[-48.69567969011507,-26.87651399451915],[-48.696254058959354,-26.87611231128264],[-48.696613283237376,-26.875682938334332],[-48.69696956458418,-26.87539859280155],[-48.69751256084775,-26.875214008063853],[-48.69791833775249,-26.875148083283385],[-48.698112891579896,-26.874861098885404],[-48.69855443444957,-26.874360523490765],[-48.69975214066904,-26.873799721243092],[-48.7009689633874,-26.87362609303836],[-48.70188440443883,-26.873689347738033],[-48.70255971004449,-26.873627792771458],[-48.70304976050834,-26.873393966401864],[-48.70370788111026,-26.872848534595494],[-48.70449685448499,-26.872498662836904],[-48.70555340354452,-26.872249850225327],[-48.706602628830865,-26.872363606029875],[-48.70689277410686,-26.872682651237827],[-48.707096204998486,-26.873290443612348],[-48.70723109770409,-26.87462251248526],[-48.707408067354095,-26.875205695812305],[-48.708547587397256,-26.876191370441276],[-48.71047871110265,-26.878036157549847],[-48.71167463118808,-26.87890182532781],[-48.712040802484886,-26.879463888939615],[-48.71307617725044,-26.881608467392436],[-48.71346737209626,-26.88226765187016],[-48.7134022666709,-26.882822730596427],[-48.71336071001998,-26.883547447064007],[-48.7133407541462,-26.884538490322935],[-48.713298222062555,-26.885311551077404],[-48.713288730009324,-26.885782900316826],[-48.713414751243896,-26.886220174452614],[-48.71381034209989,-26.886661813714724],[-48.71423143369193,-26.88717640249729],[-48.71446528823009,-26.887615421254953],[-48.71440456182694,-26.887952954206007],[-48.71426199042293,-26.88833752083665],[-48.71382580768848,-26.888572256831853],[-48.7132847147423,-26.888660214433784],[-48.71296366117533,-26.8885341162102],[-48.7125107454677,-26.888260805051992],[-48.71184850639732,-26.887669764710097],[-48.71108331924274,-26.886835256251015],[-48.710722006312395,-26.886031471824733],[-48.71046852303197,-26.885229434819834],[-48.71036493218026,-26.88368025922564],[-48.71018939939661,-26.88302456359148],[-48.70998447501873,-26.88248928912713],[-48.70921445869294,-26.881896490653233],[-48.70817489642032,-26.881299315626407],[-48.70731817705157,-26.880995255512993],[-48.706299731656905,-26.880688565003382],[-48.705170541000506,-26.880525145852133],[-48.70449519450983,-26.880586709835995],[-48.704220268297085,-26.880848216682672],[-48.703887519592726,-26.881302219824708],[-48.70401496731868,-26.881666985457617],[-48.704574193031945,-26.882014589076046],[-48.7052755253554,-26.882001806582075],[-48.705971487990375,-26.882254907971113],[-48.7065527978768,-26.88284465920393],[-48.70678075675291,-26.883573748112756],[-48.70692882632456,-26.88425318123689],[-48.706532401396196,-26.88518974824474],[-48.70620453123028,-26.885402039441217],[-48.70582421097389,-26.885540939351177],[-48.704825846535016,-26.885573076487564],[-48.70412791225735,-26.88541665506432],[-48.702727650153044,-26.885321345603806],[-48.70232281629423,-26.88533893963446],[-48.70196798167348,-26.885550781866247],[-48.70174694899315,-26.88581315986683],[-48.70125390447432,-26.88619200740107],[-48.701161779821085,-26.886746637468043],[-48.70058736996279,-26.887148337802866],[-48.69994236779126,-26.887041115586406],[-48.69943263967173,-26.886911915189156],[-48.69865971540677,-26.886464090450996],[-48.698287714594215,-26.886192053209477],[-48.69781229961577,-26.885700713832566],[-48.697311894658164,-26.885112247406617],[-48.69678257616767,-26.884620025996046],[-48.696470381827965,-26.884058806291446],[-48.69635080216034,-26.883307291706096],[-48.69631552317442,-26.882387894918615],[-48.696004806593514,-26.88175416039209],[-48.695363274185866,-26.881477719174935],[-48.695119695879804,-26.88152210340252],[-48.69466047491698,-26.88156296751411],[-48.69446786270271,-26.88175325958771],[-48.69424633096123,-26.88203979638861],[-48.69423995215943,-26.882354025473617],[-48.69406938486881,-26.88278647099279],[-48.69376845608973,-26.882999173327388],[-48.69325531770178,-26.883039152089758],[-48.692879413099,-26.88296047292771],[-48.69250841941661,-26.88264007988532],[-48.69245892865855,-26.88242165537958],[-48.69244916336639,-26.88157521482459],[-48.69241251355615,-26.880716646559105],[-48.692306289560705,-26.878880920219867],[-48.69216902545665,-26.878573012354686],[-48.69169902424602,-26.877865519650893],[-48.69068616020028,-26.876505646697698],[-48.690111078344366,-26.87479095498491],[-48.689241290682695,-26.872572724596182],[-48.689075044450696,-26.871926499633],[-48.68896874469869,-26.871072791828222],[-48.68900995504063,-26.87037226200927]]],[[[-48.68030694744953,-26.914969340665255],[-48.680606505751946,-26.914829188893016],[-48.680718311127194,-26.914637592231234],[-48.68073165763938,-26.9139849722537],[-48.68066510505956,-26.913282680517007],[-48.680840224631915,-26.91263271814458],[-48.68130550353771,-26.91230185432972],[-48.68190213259963,-26.912142400188642],[-48.682364936993274,-26.911932388055156],[-48.68251555198822,-26.911161124405336],[-48.682661720121786,-26.910607401697522],[-48.683392160542596,-26.910498496425518],[-48.68422748673908,-26.910536384350976],[-48.68489561595586,-26.910837497919346],[-48.68510884501824,-26.91096189181976],[-48.685262725183904,-26.911351284299],[-48.68528080875239,-26.911786808090383],[-48.685287053009645,-26.91280244174022],[-48.68543600290832,-26.913433545674557],[-48.68526929340073,-26.913672604652355],[-48.685391281535594,-26.914303267268842],[-48.68548186734269,-26.915151028277077],[-48.68579950464428,-26.91544638880166],[-48.68638776251064,-26.91569782812532],[-48.68690055703731,-26.9156820549145],[-48.68728050650239,-26.91556738618949],[-48.687898689502354,-26.915674232808495],[-48.68932823421827,-26.915673468490375],[-48.68995922114287,-26.91515185390203],[-48.69063488523003,-26.913760510357655],[-48.690938366163955,-26.913426965802067],[-48.691555065373265,-26.913606310369868],[-48.69203105090864,-26.91407350297133],[-48.69209767440965,-26.914775794698247],[-48.692028007563586,-26.915548394192598],[-48.69212454675641,-26.91610609874543],[-48.692379916993204,-26.9168114762247],[-48.6925332474574,-26.918554897311793],[-48.69262831491287,-26.919185115213658],[-48.692983190241556,-26.92030316819856],[-48.69327774893548,-26.921734565997713],[-48.693618456569766,-26.922223722812596],[-48.69456609140514,-26.92337564007619],[-48.69471411989456,-26.92405508115336],[-48.69491657250675,-26.924711231486192],[-48.6951484497833,-26.925246965768313],[-48.69543377032389,-26.925807751719653],[-48.69555631384942,-26.926414238043733],[-48.69544058689164,-26.926799217076812],[-48.69521797843582,-26.927134091023767],[-48.69477423121736,-26.927731324840906],[-48.694112780863094,-26.928421716123154],[-48.69359008988937,-26.928920936756302],[-48.69346992684253,-26.929523455870743],[-48.693783689812676,-26.930012172400005],[-48.69413573215068,-26.92994538891058],[-48.6944667094536,-26.929588108584518],[-48.695181115168424,-26.928946940860452],[-48.69570035875264,-26.92861691209676],[-48.69688246296249,-26.928853830764428],[-48.69728941675817,-26.928739577703652],[-48.69797143468373,-26.928363838323754],[-48.698360255187815,-26.92781405649436],[-48.69891332080628,-26.927146055838307],[-48.699746342329,-26.925974850718998],[-48.70062592192914,-26.92516708898991],[-48.70175455051725,-26.92404904569868],[-48.70271450649357,-26.923266758565674],[-48.704131389768456,-26.92256443828336],[-48.70556152353161,-26.922539342885855],[-48.70633862409647,-26.922793773370866],[-48.706519557828805,-26.923183586089852],[-48.70651271166291,-26.923521987161358],[-48.70644704381283,-26.924101227155194],[-48.706110250983365,-26.92474859799453],[-48.70571414071975,-26.925660976363353],[-48.70520722261267,-26.926716627787275],[-48.70485670919163,-26.92804079634629],[-48.70451842543603,-26.928760675837868],[-48.70395803618108,-26.929791271142385],[-48.70346087701905,-26.930363485425413],[-48.70315591186338,-26.930769569672663],[-48.70306717236088,-26.9311549961182],[-48.70294509499119,-26.931854211186153],[-48.702344461800145,-26.932207120100653],[-48.70192916609796,-26.932732301611896],[-48.70148542833641,-26.93332955697541],[-48.700961763511046,-26.933877148149627],[-48.70052782632001,-26.933990972063114],[-48.69988108914146,-26.933956248016685],[-48.69920885664606,-26.933848566441238],[-48.698132601594985,-26.933710109836145],[-48.69731472844465,-26.934131989204523],[-48.69673612204417,-26.934727025278892],[-48.696569400424565,-26.93496609648056],[-48.69645514003062,-26.935278561958942],[-48.696386461920746,-26.93600282082728],[-48.69640704102046,-26.936317487535536],[-48.69600399091131,-26.936238366281486],[-48.6956828300368,-26.93611222308567],[-48.6954989688371,-26.935867425321096],[-48.695452898497244,-26.935479803507324],[-48.69546174667883,-26.93504472026073],[-48.695144523229736,-26.93472520536851],[-48.69479787444847,-26.934526106217902],[-48.69428646879636,-26.93446938833401],[-48.69382506386311,-26.9346069210344],[-48.69285225342237,-26.9346877290635],[-48.69236978602211,-26.93453476020553],[-48.69144314808838,-26.933673321136602],[-48.69078275130868,-26.93298549132704],[-48.68734391594753,-26.93097063120006],[-48.68622858062638,-26.930106066865903],[-48.68513924107186,-26.9292902795788],[-48.683676341867994,-26.928274917863217],[-48.68303953080004,-26.92775669671766],[-48.68245616323475,-26.927263529740507],[-48.682035088903,-26.926748847576746],[-48.681200369254846,-26.925356915427344],[-48.68056408033385,-26.924814513100397],[-48.680223424674274,-26.92432532800342],[-48.680158851828224,-26.923526352291397],[-48.68019867642237,-26.92289834742603],[-48.68011208571977,-26.921857217020182],[-48.680037366154984,-26.920235980370713],[-48.679886957036324,-26.91967738557546],[-48.67990031123656,-26.919024766448747],[-48.679886443213725,-26.91706602108527],[-48.67980875736402,-26.915589810558778],[-48.679896569420606,-26.915252744526274],[-48.68030694744953,-26.914969340665255]]],[[[-48.72665304255541,-26.872688957810112],[-48.7259630984138,-26.872441140125144],[-48.72606964467399,-26.8715317255278],[-48.72640014939868,-26.87046745876875],[-48.726600550006935,-26.869282254197415],[-48.726894014088465,-26.867860860831062],[-48.72715043924906,-26.866082340837565],[-48.72668452291095,-26.865084486600036],[-48.726704325394124,-26.86409444722204],[-48.725972696194475,-26.863131930949827],[-48.72532859658918,-26.862210434458518],[-48.724941004609946,-26.86116306152062],[-48.723733727247264,-26.860243651236548],[-48.722749125025,-26.858682831514294],[-48.72179679682934,-26.857716738811323],[-48.7207704710383,-26.856036391463828],[-48.71982850516289,-26.854555468932663],[-48.71916656152651,-26.852326389773275],[-48.71909573541057,-26.851453732597548],[-48.718946139932186,-26.850104432992723],[-48.71875001468301,-26.848873225316318],[-48.7186147230472,-26.846811098679797],[-48.71937477751688,-26.84634799126026],[-48.71994413830901,-26.846316205105364],[-48.7205703677025,-26.84615435787271],[-48.72128379879633,-26.846423778218377],[-48.72170118670271,-26.84711828813615],[-48.721977439441375,-26.847681562943304],[-48.722777234294476,-26.848425218673423],[-48.72338540768474,-26.84916578332759],[-48.724220232534776,-26.850554792164537],[-48.724724871254864,-26.851680563348214],[-48.724936044562114,-26.853102514967414],[-48.72559537958775,-26.8560791901751],[-48.72650289634822,-26.858629991581424],[-48.72764657856772,-26.861356530741936],[-48.7282060765013,-26.86213928296902],[-48.72908037274818,-26.863958767094427],[-48.729574809592236,-26.86560019782817],[-48.729454940359794,-26.866801891367754],[-48.72947366529567,-26.86826373144638],[-48.729314461341914,-26.869034928922378],[-48.728961869676745,-26.86988898980367],[-48.72861185035363,-26.87061413200525],[-48.72849711618905,-26.871557988252597],[-48.72819500588432,-26.872283899214956],[-48.727562621285806,-26.872746578553937],[-48.72665304255541,-26.872688957810112]]],[[[-48.6948797565037,-26.93664619534792],[-48.695340057361946,-26.936426739299886],[-48.69601804843809,-26.936710190080642],[-48.696242201459505,-26.936895433179203],[-48.69627160970314,-26.937940010260338],[-48.695975597032735,-26.938797688788],[-48.69528420750363,-26.939172253584964],[-48.694947707854,-26.939529918645256],[-48.694401744815906,-26.940224623147294],[-48.69348747998083,-26.941594234408118],[-48.692971437223896,-26.942062444529565],[-48.692201293061544,-26.942571891147935],[-48.69058919719164,-26.943385313941118],[-48.68951383681432,-26.943957837901127],[-48.68871140268623,-26.944807199440945],[-48.687886880855984,-26.94549730897873],[-48.686790803833034,-26.945842495132084],[-48.68561644884573,-26.9462998753294],[-48.68485134779352,-26.946559686260965],[-48.682729998641236,-26.947500837144872],[-48.68176187391709,-26.947779991605],[-48.68049457463366,-26.947827242918674],[-48.67926142740873,-26.94744379044072],[-48.67866402719604,-26.946934610306144],[-48.67800184426054,-26.945879619381007],[-48.67758679861416,-26.945123764590086],[-48.677247709959346,-26.94436916088137],[-48.677562683289025,-26.94382960717571],[-48.67795034840099,-26.94345013268508],[-48.67894701463004,-26.943012589639817],[-48.67932537482367,-26.943086909480886],[-48.680516205814875,-26.943061106267734],[-48.682187596940715,-26.943065890471544],[-48.68325230706376,-26.94301529310474],[-48.68426684593905,-26.942941166740273],[-48.68513365610573,-26.942660329526397],[-48.68590382862479,-26.942150924492214],[-48.68662475224761,-26.94157261410584],[-48.687391668323166,-26.94122202961476],[-48.68826170011183,-26.940782341111948],[-48.68908201736136,-26.940296437238338],[-48.69005422660892,-26.93981301531726],[-48.69188811105147,-26.93929829625727],[-48.69265361071215,-26.93901575228952],[-48.69298919239533,-26.938703473936023],[-48.693125015041076,-26.93825174116487],[-48.693085008665115,-26.93772903914194],[-48.693287934190856,-26.937301090842105],[-48.69375154098914,-26.937331380537053],[-48.69433473290306,-26.937295520698644],[-48.6948797565037,-26.93664619534792]]],[[[-48.667421447063255,-26.882247735055515],[-48.66845501202982,-26.88170575177672],[-48.66976882905186,-26.881481452056477],[-48.67073168801775,-26.881346391728755],[-48.67189088338071,-26.881365503667908],[-48.67272073592678,-26.881636343634202],[-48.6733246277026,-26.881981723594812],[-48.6740450533223,-26.88211658160031],[-48.67456057792266,-26.8829999407697],[-48.675703842104085,-26.883385787242833],[-48.6764621128642,-26.88383410891404],[-48.676301167866725,-26.884198487399413],[-48.67569468262748,-26.885083135090216],[-48.67481955856217,-26.88534399882328],[-48.67366265457847,-26.885623155208208],[-48.67238257988872,-26.885670880118923],[-48.67187581603581,-26.88543313594202],[-48.671373285749745,-26.884989007199525],[-48.67053061355409,-26.883667580297352],[-48.67017541676593,-26.88352408689661],[-48.669615168644306,-26.883400147226467],[-48.669047861486824,-26.883620176350675],[-48.66857813648104,-26.88407120533174],[-48.66846501601025,-26.884596936935377],[-48.66871415520223,-26.884922196603835],[-48.669520727094884,-26.885508987048624],[-48.669692840938076,-26.887094625007187],[-48.669139790992496,-26.887865426702955],[-48.669419373851674,-26.88920050832507],[-48.67135094797407,-26.891067503635945],[-48.67206815583236,-26.8922721629037],[-48.67213030337785,-26.892984300593454],[-48.67183675041711,-26.89357587724249],[-48.67153361302136,-26.893387365660946],[-48.671171627909445,-26.892326197168895],[-48.66937004035172,-26.89119115146767],[-48.6684599872463,-26.890572354559545],[-48.6671311751011,-26.889700653160574],[-48.66569869842004,-26.88841353092437],[-48.66498038690894,-26.88635553863219],[-48.66521154238003,-26.884816386248634],[-48.66596046046272,-26.88356531536667],[-48.66661016745353,-26.8828940119615],[-48.667421447063255,-26.882247735055515]]],[[[-48.6872438264969,-26.893551495821807],[-48.68703555030482,-26.893185393389967],[-48.68666602099331,-26.892792469868922],[-48.68589508644411,-26.89224789091852],[-48.685258453721616,-26.89172968965254],[-48.68441159102199,-26.890942064566246],[-48.684100923402724,-26.89030830638292],[-48.684297511828404,-26.889924661175623],[-48.68462839044432,-26.88956739658401],[-48.6880747186324,-26.89247703099073],[-48.688677029178756,-26.893357349389383],[-48.688988221271686,-26.893966928476516],[-48.68910283615301,-26.89496015866775],[-48.68871360689055,-26.895534092568855],[-48.68832831198621,-26.895914655178093],[-48.687811175125724,-26.89614798099071],[-48.68681764839913,-26.8959382710795],[-48.686121654462255,-26.895685073041438],[-48.68560845784994,-26.895725020090328],[-48.684718336183494,-26.895734605631723],[-48.68431001426016,-26.89592134305917],[-48.684137906935995,-26.896426286396974],[-48.68406968606625,-26.897126367664473],[-48.68429899956985,-26.897782971691512],[-48.68474497370559,-26.898394769164078],[-48.685385089838455,-26.89874377593972],[-48.6862354624969,-26.899362198934462],[-48.68657115216012,-26.90009308107149],[-48.6868264588776,-26.90079846556876],[-48.68686608929374,-26.901500315750713],[-48.68677880328763,-26.901813216957095],[-48.686483229849514,-26.90176001435076],[-48.68638031846769,-26.90151653481944],[-48.68582747212081,-26.900854631050688],[-48.68531967548398,-26.900628691810983],[-48.684169291470795,-26.90017459696747],[-48.683530652029006,-26.899753070236756],[-48.682977829977965,-26.899091156745314],[-48.682586768731895,-26.898431896774884],[-48.68238837261884,-26.897582364085658],[-48.682353211808774,-26.896662973365483],[-48.682378383208594,-26.89543024090024],[-48.682558886956194,-26.894514390018575],[-48.68254920071118,-26.89366795475063],[-48.68358708926118,-26.8917022802523],[-48.684156155104596,-26.89156653851541],[-48.684795739366365,-26.891939717449002],[-48.68524021717319,-26.892624026002768],[-48.68576606617045,-26.893285489054477],[-48.686431146102755,-26.89373161684475],[-48.68693891548248,-26.893957550453635],[-48.68715851941466,-26.893767712679907],[-48.6872438264969,-26.893551495821807]]],[[[-48.6838340088543,-26.902067172237363],[-48.68348698404836,-26.901892222873887],[-48.68354781113083,-26.901554711064833],[-48.68371697124843,-26.901194797007324],[-48.684151779619135,-26.90103267578973],[-48.68460812181185,-26.90113687799437],[-48.68492374871009,-26.90152892439355],[-48.685075645491466,-26.90201500180208],[-48.68544766073566,-26.902287074610385],[-48.685797648003145,-26.902316991683243],[-48.68666381900471,-26.902161933908147],[-48.6867397708783,-26.90240497147554],[-48.686838248790416,-26.90286599301086],[-48.68672005915967,-26.90337182176642],[-48.68650620239559,-26.904601463577887],[-48.686703159366125,-26.90552350588642],[-48.68708983154223,-26.906400298151844],[-48.68718979140737,-26.906788806076623],[-48.686879912304526,-26.907436569602336],[-48.68670779361126,-26.907941514917695],[-48.68650920515743,-26.908421846229185],[-48.68578157890464,-26.909715600541958],[-48.68506725366575,-26.910356726583466],[-48.68471921560017,-26.910230121184423],[-48.68421384837052,-26.90988331996162],[-48.68411685790806,-26.90934978405196],[-48.68418262455876,-26.908770560069154],[-48.68432779385335,-26.908265176327202],[-48.684422492704165,-26.907589710295245],[-48.6844294000386,-26.907251312831303],[-48.68395742302175,-26.90659072806981],[-48.68337069775026,-26.906266768427965],[-48.68300015557271,-26.905922176516473],[-48.682633072712015,-26.905408384762804],[-48.68272432202578,-26.90490211825053],[-48.68284006310742,-26.904517148984816],[-48.683069073625866,-26.90386806747923],[-48.68339851952104,-26.90358332254579],[-48.68380785818381,-26.903348247302677],[-48.68424218162939,-26.90321029717788],[-48.68454367654793,-26.902973449475503],[-48.68444175510418,-26.902681626235754],[-48.68428640833869,-26.902364746707363],[-48.6838340088543,-26.902067172237363]]],[[[-48.68958914381613,-26.935988402561495],[-48.688512302233036,-26.935809353165915],[-48.68793957778416,-26.93519469414666],[-48.687414334116745,-26.934459757606437],[-48.68625244437503,-26.93403718858302],[-48.68585399279392,-26.933707840545882],[-48.68588035257656,-26.93241702792603],[-48.686175084832065,-26.931211321081832],[-48.686269210553,-26.931011107573617],[-48.68698597346009,-26.931184267902996],[-48.68747360435346,-26.931555425967222],[-48.68818625843562,-26.931930270670957],[-48.689205720576574,-26.93271365301649],[-48.68995599245725,-26.933452268783338],[-48.69017854798874,-26.93357696762424],[-48.69041979931684,-26.934993220520486],[-48.69040746679387,-26.93559828991065],[-48.69021922128564,-26.935998722589154],[-48.68958914381613,-26.935988402561495]]],[[[-48.638854305850096,-26.950889844243427],[-48.63923938808566,-26.950896292949242],[-48.639644584232876,-26.95102491913386],[-48.64003009126507,-26.95101106584487],[-48.64043867219906,-26.950977290702127],[-48.64100454933785,-26.951007067321797],[-48.64143197634499,-26.951156367427448],[-48.64155604923868,-26.95172704116414],[-48.641503556471946,-26.952071382528242],[-48.64131810955093,-26.95227135065073],[-48.641043745042964,-26.9523886027922],[-48.640450556156566,-26.952581746426056],[-48.639971896017364,-26.952715883889834],[-48.639381243488614,-26.952787222653722],[-48.638928197121515,-26.95277963668542],[-48.638207981701285,-26.95254419539293],[-48.637941660547874,-26.952275742280992],[-48.63788175009914,-26.951888904714085],[-48.63797913408033,-26.951565623389126],[-48.63821327665773,-26.951204020056977],[-48.63862651645252,-26.950946949981095],[-48.638854305850096,-26.950889844243427]]],[[[-48.70928836794763,-26.94146875796714],[-48.70845873968187,-26.94126368351277],[-48.70884280651958,-26.941320066067483],[-48.70928836794763,-26.94146875796714]]]]}}]}
