{"type":"FeatureCollection","features":[{"type":"Feature","id":1,"properties":{"nome":null},"geometry":{"type":"Polygon","coordinates":[[[-48.694762544779195,-26.935254065635156],[-48.69527812598327,-26.934932788901673],[-48.695510610963254,-26.935117595181005],[-48.69489572232109,-26.935500754057315],[-48.694762544779195,-26.935254065635156]]]}},{"type":"Feature","id":2,"properties":{"nome":null},"geometry":{"type":"Polygon","coordinates":[[[-48.70037781927686,-26.879753349521515],[-48.70042396870566,-26.87995864119665],[-48.700426858989815,-26.87998080891426],[-48.70043205720619,-26.88011852408741],[-48.70012902611587,-26.88009205420802],[-48.700125595423025,-26.880001155828698],[-48.70007881317255,-26.87979304898739],[-48.70037781927686,-26.879753349521515]]]}},{"type":"Feature","id":3,"properties":{"nome":null},"geometry":{"type":"Polygon","coordinates":[[[-48.699467091103784,-26.879886295359366],[-48.69946579487578,-26.87986185236809],[-48.699483629240675,-26.87972901103205],[-48.69959241728757,-26.87965822025402],[-48.699764507871606,-26.87974371912794],[-48.69976731197137,-26.87984899583332],[-48.69976948802681,-26.87989002559582],[-48.699467091103784,-26.879886295359366]]]}},{"type":"Feature","id":4,"properties":{"nome":null},"geometry":{"type":"Polygon","coordinates":[[[-48.70200560767201,-26.879577446459137],[-48.7020257533634,-26.879960773619878],[-48.7017252361851,-26.879992681963344],[-48.70170245697404,-26.879559218269264],[-48.70200560767201,-26.879577446459137]]]}},{"type":"Feature","id":5,"properties":{"nome":null},"geometry":{"type":"Polygon","coordinates":[[[-48.70170245697404,-26.879559218269264],[-48.701701610657196,-26.87954310311687],[-48.701688572136845,-26.87935994237135],[-48.70182957973585,-26.879216251311682],[-48.70198981640399,-26.87934269881744],[-48.702002934297234,-26.879526984390946],[-48.70200307392087,-26.879529235549878],[-48.70200560767201,-26.879577446459137],[-48.70170245697404,-26.879559218269264]]]}},{"type":"Feature","id":6,"properties":{"nome":null},"geometry":{"type":"Polygon","coordinates":[[[-48.70519717847478,-26.883014784582375],[-48.70538592055109,-26.883003343552538],[-48.70538743890661,-26.883003258123413],[-48.70582251750179,-26.882980832581126],[-48.70598186395429,-26.883108187399966],[-48.70583984081173,-26.883251075529795],[-48.705405521791164,-26.883273461977744],[-48.70529141515815,-26.883280378872612],[-48.70519717847478,-26.883014784582375]]]}},{"type":"Feature","id":7,"properties":{"nome":null},"geometry":{"type":"Polygon","coordinates":[[[-48.69830769113025,-26.87966866272739],[-48.69856063991828,-26.879667724557365],[-48.698582038607384,-26.879834029500543],[-48.698605226920776,-26.880049092728854],[-48.698299979900106,-26.88013270504216],[-48.69828041989647,-26.87987563993635],[-48.69830769113025,-26.87966866272739]]]}},{"type":"Feature","id":8,"properties":{"nome":null},"geometry":{"type":"Polygon","coordinates":[[[-48.683950745990046,-26.905188262730917],[-48.683442839555624,-26.905164175020666],[-48.683300063393986,-26.90502187248124],[-48.68345878892347,-26.904893868412994],[-48.683946710841184,-26.90491700812687],[-48.683950745990046,-26.905188262730917]]]}},{"type":"Feature","id":9,"properties":{"nome":null},"geometry":{"type":"Polygon","coordinates":[[[-48.68474212167585,-26.894818378488313],[-48.684318986818894,-26.89521457820751],[-48.684127847364444,-26.895002172172838],[-48.6845107010406,-26.89464368933662],[-48.68474212167585,-26.894818378488313]]]}},{"type":"Feature","id":10,"properties":{"nome":null},"geometry":{"type":"Polygon","coordinates":[[[-48.68523563093123,-26.895015991638004],[-48.68500767055077,-26.895235979319366],[-48.68476985556034,-26.895067798736285],[-48.68507923075239,-26.894769243875363],[-48.68523563093123,-26.895015991638004]]]}},{"type":"Feature","id":11,"properties":{"nome":null},"geometry":{"type":"Polygon","coordinates":[[[-48.686680853711216,-26.903878634357717],[-48.68622200884703,-26.90385490070986],[-48.68630685707772,-26.903540439512618],[-48.686725251596194,-26.903564336559487],[-48.686680853711216,-26.903878634357717]]]}},{"type":"Feature","id":12,"properties":{"nome":null},"geometry":{"type":"Polygon","coordinates":[[[-48.68554559112176,-26.891667207536628],[-48.6853024208405,-26.89191074222564],[-48.68510044820181,-26.891707210535067],[-48.685394774521136,-26.89141244155095],[-48.68554559112176,-26.891667207536628]]]}},{"type":"Feature","id":13,"properties":{"nome":null},"geometry":{"type":"Polygon","coordinates":[[[-48.6849660357186,-26.892563906523062],[-48.684969868858815,-26.892559982413403],[-48.684970291301155,-26.892559551658792],[-48.68541458868233,-26.892108591695443],[-48.68565081123388,-26.89227768072334],[-48.685196754600604,-26.892738547199205],[-48.68517389661736,-26.89276194620238],[-48.6849660357186,-26.892563906523062]]]}},{"type":"Feature","id":14,"properties":{"nome":null},"geometry":{"type":"Polygon","coordinates":[[[-48.67131960136018,-26.888308601867315],[-48.67102001285188,-26.888107578353633],[-48.67048223516886,-26.88774822297655],[-48.67082848982347,-26.88764201880556],[-48.67120051723304,-26.887890615001883],[-48.67120075746587,-26.88789077688899],[-48.67148875733076,-26.88808402309102],[-48.67131960136018,-26.888308601867315]]]}},{"type":"Feature","id":15,"properties":{"nome":null},"geometry":{"type":"Polygon","coordinates":[[[-48.66850629372809,-26.88559366408941],[-48.66938486918117,-26.886169366643056],[-48.669311298552095,-26.88645641372893],[-48.66832780104386,-26.885811958495495],[-48.66850629372809,-26.88559366408941]]]}},{"type":"Feature","id":16,"properties":{"nome":null},"geometry":{"type":"Polygon","coordinates":[[[-48.67396708119664,-26.88508288994482],[-48.674323331087884,-26.88468806128733],[-48.67458831348574,-26.88492048735346],[-48.67416695547666,-26.885288309418193],[-48.67396708119664,-26.88508288994482]]]}},{"type":"Feature","id":17,"properties":{"nome":null},"geometry":{"type":"Polygon","coordinates":[[[-48.68786233931832,-26.919651612036777],[-48.68759036375375,-26.919680748971455],[-48.68722216550706,-26.919727770065176],[-48.6872938608805,-26.919370312069162],[-48.68783643264174,-26.919381924931812],[-48.68799980982861,-26.919505157203925],[-48.68786233931832,-26.919651612036777]]]}},{"type":"Feature","id":18,"properties":{"nome":null},"geometry":{"type":"Polygon","coordinates":[[[-48.686638345164425,-26.91855032776269],[-48.68729217822129,-26.918499942936215],[-48.6874555340264,-26.918623196169857],[-48.68736574999058,-26.918813993429268],[-48.68705738212954,-26.91884451289524],[-48.68662226325324,-26.91888757575093],[-48.686638345164425,-26.91855032776269]]]}},{"type":"Feature","id":19,"properties":{"nome":null},"geometry":{"type":"Polygon","coordinates":[[[-48.70149683148953,-26.933334533833886],[-48.701817027458844,-26.932995114207696],[-48.70198482711529,-26.93295559960836],[-48.70220561072025,-26.933028970164827],[-48.70223460643795,-26.933069391599705],[-48.70207796078789,-26.933276503808777],[-48.70197921076874,-26.933242426213635],[-48.70177377542141,-26.93346019597199],[-48.70149683148953,-26.933334533833886]]]}},{"type":"Feature","id":20,"properties":{"nome":null},"geometry":{"type":"Polygon","coordinates":[[[-48.687668905783305,-26.915975809637665],[-48.687097830652824,-26.916002084029888],[-48.68705532572724,-26.915732998291784],[-48.68767756432209,-26.915704370491248],[-48.687668905783305,-26.915975809637665]]]}},{"type":"Feature","id":21,"properties":{"nome":null},"geometry":{"type":"Polygon","coordinates":[[[-48.690472008731874,-26.927514027905083],[-48.690373789920606,-26.92740802190154],[-48.690359844969215,-26.927390238559507],[-48.690170007737656,-26.92710133611671],[-48.68993312469184,-26.926748721085026],[-48.6902175491225,-26.926647381127356],[-48.690429085994545,-26.926962264244388],[-48.6904298371705,-26.926963394657115],[-48.690613873492296,-26.927243468964726],[-48.690717025885675,-26.927354798705508],[-48.690472008731874,-26.927514027905083]]]}},{"type":"Feature","id":22,"properties":{"nome":null},"geometry":{"type":"Polygon","coordinates":[[[-48.69169827190747,-26.9316451367387],[-48.69135057301925,-26.931415913719697],[-48.69132981507551,-26.931225416869097],[-48.69154234461391,-26.931206810808003],[-48.69174955005286,-26.931359482170183],[-48.69169827190747,-26.9316451367387]]]}},{"type":"Feature","id":23,"properties":{"nome":null},"geometry":{"type":"Polygon","coordinates":[[[-48.69334637775621,-26.878403091090043],[-48.69337046237026,-26.878712425572996],[-48.69323041318666,-26.878856866963897],[-48.69306934085237,-26.878731278022887],[-48.69304500976927,-26.878418759305692],[-48.69334637775621,-26.878403091090043]]]}},{"type":"Feature","id":24,"properties":{"nome":null},"geometry":{"type":"Polygon","coordinates":[[[-48.691155526336466,-26.871844461684535],[-48.6911555274107,-26.872135233108956],[-48.69100460909466,-26.872270577106004],[-48.69085369054131,-26.87213523334475],[-48.690853691329906,-26.87186005433471],[-48.691155526336466,-26.871844461684535]]]}},{"type":"Feature","id":25,"properties":{"nome":null},"geometry":{"type":"Polygon","coordinates":[[[-48.69119305176654,-26.869861612924225],[-48.69169445902068,-26.869849111434753],[-48.69175008581415,-26.870118516018124],[-48.691164205520735,-26.87013312418968],[-48.69119305176654,-26.869861612924225]]]}},{"type":"Feature","id":26,"properties":{"nome":null},"geometry":{"type":"Polygon","coordinates":[[[-48.69261593109048,-26.8702902485693],[-48.69291166823485,-26.870284551392217],[-48.69306579034929,-26.870416956409247],[-48.69291815104592,-26.870555175466507],[-48.692586609029775,-26.870561562984886],[-48.69261593109048,-26.8702902485693]]]}},{"type":"Feature","id":27,"properties":{"nome":null},"geometry":{"type":"Polygon","coordinates":[[[-48.69265864950602,-26.87084865969961],[-48.692934598832764,-26.870843301752345],[-48.6930887472892,-26.87097568464198],[-48.69294113194035,-26.871113925730672],[-48.69266171396279,-26.871119350642182],[-48.69265864950602,-26.87084865969961]]]}},{"type":"Feature","id":28,"properties":{"nome":null},"geometry":{"type":"Polygon","coordinates":[[[-48.69220185553157,-26.871689240200116],[-48.691466261633224,-26.87170268942873],[-48.69152489188705,-26.871430875193926],[-48.69223579382741,-26.87141787592811],[-48.69220185553157,-26.871689240200116]]]}},{"type":"Feature","id":29,"properties":{"nome":null},"geometry":{"type":"Polygon","coordinates":[[[-48.692288139509934,-26.87198773111177],[-48.69297234579601,-26.87198124821525],[-48.693124849732186,-26.872115153756774],[-48.69297553497131,-26.87225192043227],[-48.69232150544149,-26.87225811650842],[-48.692288139509934,-26.87198773111177]]]}},{"type":"Feature","id":30,"properties":{"nome":null},"geometry":{"type":"Polygon","coordinates":[[[-48.69201633302612,-26.874518508150402],[-48.692751877403786,-26.8744989393743],[-48.69269209389205,-26.87477133627269],[-48.69203889344132,-26.874788713381015],[-48.69201633302612,-26.874518508150402]]]}},{"type":"Feature","id":31,"properties":{"nome":null},"geometry":{"type":"Polygon","coordinates":[[[-48.69304373832239,-26.876254719974487],[-48.69237146577854,-26.876267028170595],[-48.69237413089972,-26.87599623518514],[-48.69305449868401,-26.87598377935244],[-48.69304373832239,-26.876254719974487]]]}},{"type":"Feature","id":32,"properties":{"nome":null},"geometry":{"type":"Polygon","coordinates":[[[-48.69468390366494,-26.877112249628475],[-48.69476423235545,-26.877025264055998],[-48.69493832760315,-26.87704476513154],[-48.695088041986324,-26.877181186310345],[-48.69493591623506,-26.87731544434232],[-48.69466329207189,-26.877304188951914],[-48.69465302916934,-26.87719486860161],[-48.69468390366494,-26.877112249628475]]]}},{"type":"Feature","id":33,"properties":{"nome":null},"geometry":{"type":"Polygon","coordinates":[[[-48.696621866518214,-26.877229160138768],[-48.69660290127069,-26.87675654936429],[-48.69690652876898,-26.8767959879329],[-48.69692142420952,-26.87716716838126],[-48.696621866518214,-26.877229160138768]]]}},{"type":"Feature","id":34,"properties":{"nome":null},"geometry":{"type":"Polygon","coordinates":[[[-48.699778577858595,-26.880061440849303],[-48.699795815944995,-26.880386514007675],[-48.699490771417324,-26.880332878030014],[-48.69947497156895,-26.880034918698197],[-48.699778577858595,-26.880061440849303]]]}},{"type":"Feature","id":35,"properties":{"nome":null},"geometry":{"type":"Polygon","coordinates":[[[-48.705297660007304,-26.876585273179373],[-48.70527597228407,-26.876195918630874],[-48.7054191787961,-26.87605399013584],[-48.70557744547682,-26.87618241313686],[-48.70559700813006,-26.876533589553077],[-48.705297660007304,-26.876585273179373]]]}},{"type":"Feature","id":36,"properties":{"nome":null},"geometry":{"type":"Polygon","coordinates":[[[-48.703946553656024,-26.87842796317851],[-48.703922646707966,-26.878010729542137],[-48.704065629554805,-26.877868617613952],[-48.704224102348995,-26.877996837942124],[-48.704244345991604,-26.878350105488487],[-48.703946553656024,-26.87842796317851]]]}},{"type":"Feature","id":37,"properties":{"nome":null},"geometry":{"type":"Polygon","coordinates":[[[-48.70410848670403,-26.8867871878107],[-48.704135400504065,-26.887299803130286],[-48.703831100217236,-26.88726003659892],[-48.70380520921924,-26.88676688465128],[-48.70410848670403,-26.8867871878107]]]}},{"type":"Feature","id":38,"properties":{"nome":null},"geometry":{"type":"Polygon","coordinates":[[[-48.70256704496221,-26.879182052493228],[-48.70258437415964,-26.879494761924573],[-48.7025844605634,-26.879496560093912],[-48.702588373426565,-26.87959302359775],[-48.702286495253496,-26.879597445207654],[-48.702282839289296,-26.879507298474486],[-48.70226479851514,-26.879181750147],[-48.70256704496221,-26.879182052493228]]]}},{"type":"Feature","id":39,"properties":{"nome":null},"geometry":{"type":"Polygon","coordinates":[[[-48.7024065278921,-26.886799361991876],[-48.70243525918054,-26.887364520849058],[-48.70213208250593,-26.88734515330907],[-48.70210444041471,-26.886801391034712],[-48.7024065278921,-26.886799361991876]]]}},{"type":"Feature","id":40,"properties":{"nome":null},"geometry":{"type":"Polygon","coordinates":[[[-48.69724437301206,-26.881435252507842],[-48.69668210339781,-26.881448469047328],[-48.69668759763024,-26.88117756026513],[-48.69732818877015,-26.881162501743592],[-48.69724437301206,-26.881435252507842]]]}},{"type":"Feature","id":41,"properties":{"nome":null},"geometry":{"type":"Polygon","coordinates":[[[-48.70045388077575,-26.886260056048332],[-48.700429945280334,-26.885746950499552],[-48.700429301233676,-26.885735567444744],[-48.70073171285467,-26.88573900149405],[-48.70075116155439,-26.88615591224852],[-48.70045388077575,-26.886260056048332]]]}},{"type":"Feature","id":42,"properties":{"nome":null},"geometry":{"type":"Polygon","coordinates":[[[-48.694368720017394,-26.935666946040797],[-48.69387625553638,-26.935660239412584],[-48.693744675582494,-26.935712690581436],[-48.6935453399478,-26.935644027112204],[-48.69362194841046,-26.93546536349129],[-48.69378392286844,-26.93540079609953],[-48.69384758179658,-26.93538913252354],[-48.69432260018491,-26.93539560182883],[-48.694368720017394,-26.935666946040797]]]}},{"type":"Feature","id":43,"properties":{"nome":null},"geometry":{"type":"Polygon","coordinates":[[[-48.70196453732799,-26.933546753303023],[-48.70196754212841,-26.933539386031615],[-48.7020682885144,-26.933379109440573],[-48.70210906121775,-26.93331069845003],[-48.702086127657566,-26.9332816462865],[-48.70224518237161,-26.933074647312036],[-48.70226249822771,-26.933062565098783],[-48.702403031780676,-26.933194914470374],[-48.70242684015102,-26.933351992444596],[-48.70233386722534,-26.933507991150268],[-48.70233223650845,-26.93351065475122],[-48.70224281930288,-26.9336529076268],[-48.702238928360714,-26.93367125485924],[-48.70196453732799,-26.933546753303023]]]}},{"type":"Feature","id":44,"properties":{"nome":null},"geometry":{"type":"Polygon","coordinates":[[[-48.69261949745817,-26.876482596439985],[-48.69310357678313,-26.87646872174124],[-48.69325924599701,-26.876599672124474],[-48.69311322064406,-26.876739270027727],[-48.69265334135361,-26.876752451667905],[-48.69261949745817,-26.876482596439985]]]}},{"type":"Feature","id":45,"properties":{"nome":null},"geometry":{"type":"Polygon","coordinates":[[[-48.69155902955554,-26.87369713203579],[-48.69127437774975,-26.87370754909627],[-48.69107239114497,-26.87343050640588],[-48.69113873527075,-26.87341288590262],[-48.69162283480376,-26.873402614026727],[-48.69155902955554,-26.87369713203579]]]}},{"type":"Feature","id":46,"properties":{"nome":null},"geometry":{"type":"Polygon","coordinates":[[[-48.69373153617978,-26.8814991250772],[-48.69348803919548,-26.881493494593478],[-48.69318521225559,-26.881474605247504],[-48.69318174707194,-26.881388753754884],[-48.69332479362934,-26.88124669165813],[-48.69374722202658,-26.88122736882249],[-48.69373153617978,-26.8814991250772]]]}},{"type":"Feature","id":47,"properties":{"nome":null},"geometry":{"type":"Polygon","coordinates":[[[-48.6941236718563,-26.939851797295127],[-48.694184099715514,-26.939677257519357],[-48.694199336783036,-26.939646991765123],[-48.694404051594354,-26.939345589637167],[-48.694659244428514,-26.939490438166384],[-48.69446701809552,-26.939773452910575],[-48.694404908888146,-26.939952851110622],[-48.6941236718563,-26.939851797295127]]]}},{"type":"Feature","id":48,"properties":{"nome":null},"geometry":{"type":"Polygon","coordinates":[[[-48.693737938919355,-26.940333133973727],[-48.69390140978262,-26.940159006112374],[-48.694109431891945,-26.939892929297105],[-48.6941236718563,-26.939851797295127],[-48.694404908888146,-26.939952851110622],[-48.694390881908475,-26.939993367557527],[-48.69437032707012,-26.940030923784473],[-48.694144922777426,-26.9403192343036],[-48.694136800717494,-26.940328704294533],[-48.693927738825394,-26.940551395868678],[-48.693737938919355,-26.940333133973727]]]}},{"type":"Feature","id":49,"properties":{"nome":null},"geometry":{"type":"Polygon","coordinates":[[[-48.69196563559698,-26.93176587872045],[-48.69162289754667,-26.93219896375944],[-48.69140952707246,-26.932206666428904],[-48.691332226916266,-26.932007031123756],[-48.69169827190747,-26.9316451367387],[-48.69196563559698,-26.93176587872045]]]}},{"type":"Feature","id":50,"properties":{"nome":null},"geometry":{"type":"Polygon","coordinates":[[[-48.69161530041524,-26.923329839661],[-48.691553506216124,-26.923207839255188],[-48.69133472648243,-26.922788019830467],[-48.69161605607576,-26.922688305258127],[-48.69182744413129,-26.923093938023413],[-48.69182812681161,-26.923095267648463],[-48.69190782337784,-26.923252611366895],[-48.69161530041524,-26.923329839661]]]}},{"type":"Feature","id":51,"properties":{"nome":null},"geometry":{"type":"Polygon","coordinates":[[[-48.69079633323009,-26.92186723623318],[-48.69062927410816,-26.921581893899603],[-48.6903761628954,-26.92115769398937],[-48.690635268235376,-26.921018017699065],[-48.690895825460665,-26.92145469607217],[-48.690896380177854,-26.921455634657708],[-48.69105854621563,-26.92173261859915],[-48.69079633323009,-26.92186723623318]]]}},{"type":"Feature","id":52,"properties":{"nome":null},"geometry":{"type":"Polygon","coordinates":[[[-48.68705365874823,-26.919376886348207],[-48.68650148143752,-26.919349872697786],[-48.68662226325324,-26.91888757575093],[-48.68705738212954,-26.91884451289524],[-48.68715377035152,-26.91924798865073],[-48.68705365874823,-26.919376886348207]]]}},{"type":"Feature","id":53,"properties":{"nome":null},"geometry":{"type":"Polygon","coordinates":[[[-48.68630451963202,-26.91936097286142],[-48.68603254460914,-26.91939010681109],[-48.68581437301905,-26.919371289352195],[-48.685731639408196,-26.91895425040439],[-48.68662226325324,-26.91888757575093],[-48.68650148143752,-26.919349872697786],[-48.68630451963202,-26.91936097286142]]]}},{"type":"Feature","id":54,"properties":{"nome":null},"geometry":{"type":"Polygon","coordinates":[[[-48.6872938608805,-26.919370312069162],[-48.68722216550706,-26.919727770065176],[-48.686803218219296,-26.919740477043067],[-48.686585046742785,-26.919721660742844],[-48.68650148143752,-26.919349872697786],[-48.68705365874823,-26.919376886348207],[-48.68715377035152,-26.91924798865073],[-48.6872938608805,-26.919370312069162]]]}},{"type":"Feature","id":55,"properties":{"nome":null},"geometry":{"type":"Polygon","coordinates":[[[-48.686585046742785,-26.919721660742844],[-48.686360580082805,-26.919841638786743],[-48.68572853524281,-26.91980566695904],[-48.68581437301905,-26.919371289352195],[-48.68603254460914,-26.91939010681109],[-48.68630451963202,-26.91936097286142],[-48.68650148143752,-26.919349872697786],[-48.686585046742785,-26.919721660742844]]]}},{"type":"Feature","id":56,"properties":{"nome":null},"geometry":{"type":"Polygon","coordinates":[[[-48.68692905717021,-26.920122942486675],[-48.68665708036746,-26.92015207753172],[-48.68643890814599,-26.92013326095732],[-48.686360580082805,-26.919841638786743],[-48.686585046742785,-26.919721660742844],[-48.686803218219296,-26.919740477043067],[-48.68706653044134,-26.919976488702776],[-48.68692905717021,-26.920122942486675]]]}},{"type":"Feature","id":57,"properties":{"nome":null},"geometry":{"type":"Polygon","coordinates":[[[-48.68783643264174,-26.919381924931812],[-48.6872938608805,-26.919370312069162],[-48.68715377035152,-26.91924798865073],[-48.68705738212954,-26.91884451289524],[-48.68736574999058,-26.918813993429268],[-48.68761800951621,-26.918967981226878],[-48.687781386908995,-26.919091212819847],[-48.68783643264174,-26.919381924931812]]]}},{"type":"Feature","id":58,"properties":{"nome":null},"geometry":{"type":"Polygon","coordinates":[[[-48.68567913393251,-26.918624237845368],[-48.686638345164425,-26.91855032776269],[-48.68662226325324,-26.91888757575093],[-48.685731639408196,-26.91895425040439],[-48.68567913393251,-26.918624237845368]]]}},{"type":"Feature","id":59,"properties":{"nome":null},"geometry":{"type":"Polygon","coordinates":[[[-48.68503663416015,-26.91867374159565],[-48.68567913393251,-26.918624237845368],[-48.685731639408196,-26.91895425040439],[-48.68509673066972,-26.918993430484207],[-48.68503663416015,-26.91867374159565]]]}},{"type":"Feature","id":60,"properties":{"nome":null},"geometry":{"type":"Polygon","coordinates":[[[-48.68665328401508,-26.917077135372576],[-48.686734410051436,-26.917123752136966],[-48.68714013301724,-26.917237733703093],[-48.68715501585593,-26.9172369939917],[-48.687109221012534,-26.91750709602745],[-48.68707598251302,-26.917503377350236],[-48.68662481051922,-26.917376628242742],[-48.686588484370766,-26.91736142230063],[-48.68646233254686,-26.91728893176756],[-48.68665328401508,-26.917077135372576]]]}},{"type":"Feature","id":61,"properties":{"nome":null},"geometry":{"type":"Polygon","coordinates":[[[-48.68665328401508,-26.917077135372576],[-48.68646233254686,-26.91728893176756],[-48.68583552272795,-26.916827742150264],[-48.68593470426888,-26.916630114248466],[-48.686097878349365,-26.91676774526984],[-48.68635283378744,-26.916770548683292],[-48.68665328401508,-26.917077135372576]]]}},{"type":"Feature","id":62,"properties":{"nome":null},"geometry":{"type":"Polygon","coordinates":[[[-48.68923865608891,-26.915902070897037],[-48.68890185752579,-26.915919074637785],[-48.688901108841115,-26.915919110205003],[-48.68836788313726,-26.915943647989565],[-48.688395600103085,-26.915671331513728],[-48.68888525410644,-26.915648798996298],[-48.6892254931914,-26.915631621475793],[-48.68923865608891,-26.915902070897037]]]}},{"type":"Feature","id":63,"properties":{"nome":null},"geometry":{"type":"Polygon","coordinates":[[[-48.68559514787494,-26.904292902621727],[-48.685319924958584,-26.904280437454947],[-48.68517677374483,-26.904138439225914],[-48.68533515758732,-26.904010097878622],[-48.68566532699719,-26.904025050363053],[-48.68559514787494,-26.904292902621727]]]}},{"type":"Feature","id":64,"properties":{"nome":null},"geometry":{"type":"Polygon","coordinates":[[[-48.68612184077379,-26.904316754324864],[-48.68559514787494,-26.904292902621727],[-48.68566532699719,-26.904025050363053],[-48.68609656636775,-26.904044579199308],[-48.68612184077379,-26.904316754324864]]]}},{"type":"Feature","id":65,"properties":{"nome":null},"geometry":{"type":"Polygon","coordinates":[[[-48.68622200884703,-26.90385490070986],[-48.685953653758844,-26.903791497804672],[-48.6858125979116,-26.90364782354068],[-48.685972850469646,-26.90352136112629],[-48.68630685707772,-26.903540439512618],[-48.68622200884703,-26.90385490070986]]]}},{"type":"Feature","id":66,"properties":{"nome":null},"geometry":{"type":"Polygon","coordinates":[[[-48.68791003346952,-26.894535013413904],[-48.68817158706665,-26.89426068368409],[-48.688394570565045,-26.89444337972788],[-48.68813429742168,-26.894716368159727],[-48.68791003346952,-26.894535013413904]]]}},{"type":"Feature","id":67,"properties":{"nome":null},"geometry":{"type":"Polygon","coordinates":[[[-48.68661214774029,-26.89271048893134],[-48.68609660844768,-26.893224686638668],[-48.68586660381398,-26.893049204433307],[-48.68634243200571,-26.892574614506906],[-48.68661214774029,-26.89271048893134]]]}},{"type":"Feature","id":68,"properties":{"nome":null},"geometry":{"type":"Polygon","coordinates":[[[-48.68634243200571,-26.892574614506906],[-48.68664210662856,-26.892275717066884],[-48.68685527262379,-26.89226554832826],[-48.686866614760746,-26.892456681401697],[-48.68661214774029,-26.89271048893134],[-48.68634243200571,-26.892574614506906]]]}},{"type":"Feature","id":69,"properties":{"nome":null},"geometry":{"type":"Polygon","coordinates":[[[-48.68604448642681,-26.891878096525026],[-48.68565081123388,-26.89227768072334],[-48.68541458868233,-26.892108591695443],[-48.68579784288359,-26.891719586271698],[-48.68604448642681,-26.891878096525026]]]}},{"type":"Feature","id":70,"properties":{"nome":null},"geometry":{"type":"Polygon","coordinates":[[[-48.68444682946432,-26.891662580601885],[-48.684733982715024,-26.891377905588783],[-48.684960584489794,-26.891556793577355],[-48.684686906502556,-26.891828109271696],[-48.68444682946432,-26.891662580601885]]]}},{"type":"Feature","id":71,"properties":{"nome":null},"geometry":{"type":"Polygon","coordinates":[[[-48.684733982715024,-26.891377905588783],[-48.685032919787446,-26.891081547060683],[-48.68528472743643,-26.891235445126352],[-48.684960584489794,-26.891556793577355],[-48.684733982715024,-26.891377905588783]]]}},{"type":"Feature","id":72,"properties":{"nome":null},"geometry":{"type":"Polygon","coordinates":[[[-48.683134510585084,-26.893494758964163],[-48.683088264959416,-26.893111236274986],[-48.683366087366636,-26.892942605149255],[-48.68367096798385,-26.893116464327164],[-48.683783321853994,-26.893336572974825],[-48.683134510585084,-26.893494758964163]]]}},{"type":"Feature","id":73,"properties":{"nome":null},"geometry":{"type":"Polygon","coordinates":[[[-48.699817592782644,-26.886110032726034],[-48.69981195668382,-26.886008095020003],[-48.70011186039855,-26.885965743930495],[-48.700121554702875,-26.886141067476565],[-48.699817592782644,-26.886110032726034]]]}},{"type":"Feature","id":74,"properties":{"nome":null},"geometry":{"type":"Polygon","coordinates":[[[-48.69981195668382,-26.886008095020003],[-48.69979492322292,-26.885700015632253],[-48.70009659386246,-26.885689639739148],[-48.70011186039855,-26.885965743930495],[-48.69981195668382,-26.886008095020003]]]}},{"type":"Feature","id":75,"properties":{"nome":null},"geometry":{"type":"Polygon","coordinates":[[[-48.699835184044844,-26.88642818701626],[-48.699817592782644,-26.886110032726034],[-48.700121554702875,-26.886141067476565],[-48.70013465647407,-26.886378017375836],[-48.699835184044844,-26.88642818701626]]]}},{"type":"Feature","id":76,"properties":{"nome":null},"geometry":{"type":"Polygon","coordinates":[[[-48.70043205720619,-26.88011852408741],[-48.70044649013446,-26.880500920725087],[-48.700142439654506,-26.880447461143373],[-48.70012902611587,-26.88009205420802],[-48.70043205720619,-26.88011852408741]]]}},{"type":"Feature","id":77,"properties":{"nome":null},"geometry":{"type":"Polygon","coordinates":[[[-48.70049651256617,-26.887173950542227],[-48.70048256447805,-26.886874942228506],[-48.7008311661453,-26.886736512797857],[-48.70087636058243,-26.88721455082152],[-48.70049651256617,-26.887173950542227]]]}},{"type":"Feature","id":78,"properties":{"nome":null},"geometry":{"type":"Polygon","coordinates":[[[-48.70238557231922,-26.886387140143704],[-48.7024065278921,-26.886799361991876],[-48.70210444041471,-26.886801391034712],[-48.70208416039283,-26.886402439766886],[-48.70238557231922,-26.886387140143704]]]}},{"type":"Feature","id":79,"properties":{"nome":null},"geometry":{"type":"Polygon","coordinates":[[[-48.70329635838682,-26.886874139626606],[-48.70327672585832,-26.886487053349978],[-48.70357722352761,-26.886453721753394],[-48.703595942013365,-26.886822756054887],[-48.70329635838682,-26.886874139626606]]]}},{"type":"Feature","id":80,"properties":{"nome":null},"geometry":{"type":"Polygon","coordinates":[[[-48.70331357362003,-26.887213554762578],[-48.70329635838682,-26.886874139626606],[-48.703595942013365,-26.886822756054887],[-48.703616693787176,-26.887231884636016],[-48.70331357362003,-26.887213554762578]]]}},{"type":"Feature","id":81,"properties":{"nome":null},"geometry":{"type":"Polygon","coordinates":[[[-48.70337313537432,-26.87893299020848],[-48.70335417323159,-26.878575757429285],[-48.70349775452869,-26.878434131472222],[-48.70365568722451,-26.878562886927458],[-48.703672801328196,-26.87888529144796],[-48.70337313537432,-26.87893299020848]]]}},{"type":"Feature","id":82,"properties":{"nome":null},"geometry":{"type":"Polygon","coordinates":[[[-48.704076239974185,-26.886172983510825],[-48.70410848670403,-26.8867871878107],[-48.70380520921924,-26.88676688465128],[-48.703774033807655,-26.886173042445893],[-48.704076239974185,-26.886172983510825]]]}},{"type":"Feature","id":83,"properties":{"nome":null},"geometry":{"type":"Polygon","coordinates":[[[-48.704417150376486,-26.88670854470052],[-48.704390178480516,-26.886208144770656],[-48.70469046847036,-26.88617219570288],[-48.70471977168775,-26.88671580459923],[-48.704417150376486,-26.88670854470052]]]}},{"type":"Feature","id":84,"properties":{"nome":null},"geometry":{"type":"Polygon","coordinates":[[[-48.704390178480516,-26.886208144770656],[-48.70436771762382,-26.88579146468181],[-48.704668395354794,-26.885762716186647],[-48.70469046847036,-26.88617219570288],[-48.704390178480516,-26.886208144770656]]]}},{"type":"Feature","id":85,"properties":{"nome":null},"geometry":{"type":"Polygon","coordinates":[[[-48.70439121817754,-26.883058457517574],[-48.70477102153045,-26.88303904525459],[-48.70488028669251,-26.88330458891082],[-48.70437729554993,-26.88333029709435],[-48.70439121817754,-26.883058457517574]]]}},{"type":"Feature","id":86,"properties":{"nome":null},"geometry":{"type":"Polygon","coordinates":[[[-48.703727154634805,-26.88309191970781],[-48.70375572480332,-26.883090935805576],[-48.70439121817754,-26.883058457517574],[-48.70437729554993,-26.88333029709435],[-48.703771504831856,-26.883361256559763],[-48.70376871168507,-26.883361376293678],[-48.70369167102332,-26.883364030360042],[-48.703727154634805,-26.88309191970781]]]}},{"type":"Feature","id":87,"properties":{"nome":null},"geometry":{"type":"Polygon","coordinates":[[[-48.69348803919548,-26.881493494593478],[-48.69350273657873,-26.881855956604586],[-48.693200823300515,-26.88185961878132],[-48.69318521225559,-26.881474605247504],[-48.69348803919548,-26.881493494593478]]]}},{"type":"Feature","id":88,"properties":{"nome":null},"geometry":{"type":"Polygon","coordinates":[[[-48.6979582134511,-26.881411756398172],[-48.697474773372896,-26.881429820170055],[-48.69747244621975,-26.88142989052427],[-48.69724437301206,-26.881435252507842],[-48.69732818877015,-26.881162501743592],[-48.69746337046401,-26.88115932346074],[-48.69795507593969,-26.881140950390517],[-48.6979582134511,-26.881411756398172]]]}},{"type":"Feature","id":89,"properties":{"nome":null},"geometry":{"type":"Polygon","coordinates":[[[-48.69976948802681,-26.87989002559582],[-48.699778577858595,-26.880061440849303],[-48.69947497156895,-26.880034918698197],[-48.699467091103784,-26.879886295359366],[-48.69976948802681,-26.87989002559582]]]}},{"type":"Feature","id":90,"properties":{"nome":null},"geometry":{"type":"Polygon","coordinates":[[[-48.70226479851514,-26.879181750147],[-48.70225446695351,-26.87899531696316],[-48.70239771845483,-26.878853421540388],[-48.70255595121047,-26.87898188165499],[-48.70256704496221,-26.879182052493228],[-48.70226479851514,-26.879181750147]]]}},{"type":"Feature","id":91,"properties":{"nome":null},"geometry":{"type":"Polygon","coordinates":[[[-48.70339929473003,-26.879425812078306],[-48.70337313537432,-26.87893299020848],[-48.703672801328196,-26.87888529144796],[-48.703696159028304,-26.879325312741813],[-48.70339929473003,-26.879425812078306]]]}},{"type":"Feature","id":92,"properties":{"nome":null},"geometry":{"type":"Polygon","coordinates":[[[-48.704244345991604,-26.878350105488487],[-48.70427678058684,-26.878916130040633],[-48.703975059515265,-26.878925457274832],[-48.703946553656024,-26.87842796317851],[-48.704244345991604,-26.878350105488487]]]}},{"type":"Feature","id":93,"properties":{"nome":null},"geometry":{"type":"Polygon","coordinates":[[[-48.70533440709521,-26.877244957673813],[-48.705297660007304,-26.876585273179373],[-48.70559700813006,-26.876533589553077],[-48.705633611247855,-26.87719067357912],[-48.70533440709521,-26.877244957673813]]]}},{"type":"Feature","id":94,"properties":{"nome":null},"geometry":{"type":"Polygon","coordinates":[[[-48.69660290127069,-26.87675654936429],[-48.696594385579246,-26.87654434588741],[-48.69673978426725,-26.87640422225741],[-48.696896038810145,-26.876534610729085],[-48.69690652876898,-26.8767959879329],[-48.69660290127069,-26.87675654936429]]]}},{"type":"Feature","id":95,"properties":{"nome":null},"geometry":{"type":"Polygon","coordinates":[[[-48.69666066528784,-26.878493242574507],[-48.69665457912096,-26.87822053489724],[-48.696955684845435,-26.878184320497116],[-48.696963732374336,-26.878544864973836],[-48.69666066528784,-26.878493242574507]]]}},{"type":"Feature","id":96,"properties":{"nome":null},"geometry":{"type":"Polygon","coordinates":[[[-48.69585892096361,-26.87850820586052],[-48.6962244392356,-26.878501341640277],[-48.69622508452917,-26.878501330506605],[-48.696315111350145,-26.878499985027247],[-48.69632047567292,-26.878770630553923],[-48.69623043757065,-26.878771975842476],[-48.695869513154804,-26.878778753438983],[-48.69585892096361,-26.87850820586052]]]}},{"type":"Feature","id":97,"properties":{"nome":null},"geometry":{"type":"Polygon","coordinates":[[[-48.694819315307306,-26.878544517761984],[-48.69502213171989,-26.878542311008985],[-48.69530372312372,-26.878528040443655],[-48.69531168299738,-26.878798756220487],[-48.69503582393124,-26.87881273677737],[-48.695029138626325,-26.87881294173022],[-48.694775630841384,-26.878815700091824],[-48.694819315307306,-26.878544517761984]]]}},{"type":"Feature","id":98,"properties":{"nome":null},"geometry":{"type":"Polygon","coordinates":[[[-48.6944443599146,-26.878820472669805],[-48.69408895472615,-26.878832831643518],[-48.694078578770615,-26.878562302103276],[-48.69441336967281,-26.878550659774994],[-48.6944443599146,-26.878820472669805]]]}},{"type":"Feature","id":99,"properties":{"nome":null},"geometry":{"type":"Polygon","coordinates":[[[-48.69307098598004,-26.870542982214044],[-48.69308284254198,-26.870831553334902],[-48.692778568291466,-26.870777110838862],[-48.69277038121857,-26.870577847383515],[-48.69307098598004,-26.870542982214044]]]}},{"type":"Feature","id":100,"properties":{"nome":null},"geometry":{"type":"Polygon","coordinates":[[[-48.694367698350014,-26.877437706573176],[-48.69434991606235,-26.87718551730725],[-48.69435743808755,-26.877133970880433],[-48.694406629665316,-26.877002335316693],[-48.694433493397874,-26.87695901627927],[-48.69461131044644,-26.876766464434162],[-48.69490777287884,-26.876869830210033],[-48.69476423235545,-26.877025264055998],[-48.69468390366494,-26.877112249628475],[-48.69465302916934,-26.87719486860161],[-48.69466329207189,-26.877304188951914],[-48.694669439713195,-26.877427609545343],[-48.694367698350014,-26.877437706573176]]]}},{"type":"Feature","id":101,"properties":{"nome":null},"geometry":{"type":"Polygon","coordinates":[[[-48.69265334135361,-26.876752451667905],[-48.692067064028706,-26.876769253815336],[-48.691911396077515,-26.876638302193086],[-48.6920574226701,-26.87649870561744],[-48.69261949745817,-26.876482596439985],[-48.69265334135361,-26.876752451667905]]]}},{"type":"Feature","id":102,"properties":{"nome":null},"geometry":{"type":"Polygon","coordinates":[[[-48.69237146577854,-26.876267028170595],[-48.691780007101826,-26.87627785347299],[-48.69162603614367,-26.87614529950072],[-48.69177384893119,-26.87600722231407],[-48.69237413089972,-26.87599623518514],[-48.69237146577854,-26.876267028170595]]]}},{"type":"Feature","id":103,"properties":{"nome":null},"geometry":{"type":"Polygon","coordinates":[[[-48.691474932657925,-26.875319567336582],[-48.69150144309269,-26.875528986554745],[-48.69135552800447,-26.87566867646845],[-48.69108705923325,-26.875413002515113],[-48.69098189706412,-26.875252943413493],[-48.69089598631662,-26.87484621671781],[-48.691114353521854,-26.87491891833856],[-48.69120524770611,-26.875052803527815],[-48.6913307103305,-26.875250500189008],[-48.691474932657925,-26.875319567336582]]]}},{"type":"Feature","id":104,"properties":{"nome":null},"geometry":{"type":"Polygon","coordinates":[[[-48.69199911262632,-26.8752925171458],[-48.69144814360201,-26.875306738138818],[-48.6913307103305,-26.875250500189008],[-48.69120524770611,-26.875052803527815],[-48.69184177934635,-26.875025800601918],[-48.69199911262632,-26.8752925171458]]]}},{"type":"Feature","id":105,"properties":{"nome":null},"geometry":{"type":"Polygon","coordinates":[[[-48.692804833313005,-26.875271716085656],[-48.69199911262632,-26.8752925171458],[-48.69184127333877,-26.875025792333822],[-48.69277881278981,-26.87500158885081],[-48.692804833313005,-26.875271716085656]]]}},{"type":"Feature","id":106,"properties":{"nome":null},"geometry":{"type":"Polygon","coordinates":[[[-48.69203889344132,-26.874788713381015],[-48.691648582939386,-26.874799095908692],[-48.69149325358261,-26.87466782460029],[-48.691639634102835,-26.874528528307962],[-48.69201633302612,-26.874518508150402],[-48.69203889344132,-26.874788713381015]]]}},{"type":"Feature","id":107,"properties":{"nome":null},"geometry":{"type":"Polygon","coordinates":[[[-48.69127437774975,-26.87370754909627],[-48.69096825559795,-26.87371875261324],[-48.69085260036489,-26.87348888072021],[-48.69107239114497,-26.87343050640588],[-48.69127437774975,-26.87370754909627]]]}},{"type":"Feature","id":108,"properties":{"nome":null},"geometry":{"type":"Polygon","coordinates":[[[-48.69232644513274,-26.87366904269357],[-48.69155902955554,-26.87369713203579],[-48.69162283480376,-26.873402614026727],[-48.69219205061639,-26.87339053458774],[-48.69232644513274,-26.87366904269357]]]}},{"type":"Feature","id":109,"properties":{"nome":null},"geometry":{"type":"Polygon","coordinates":[[[-48.69119613616122,-26.87170762789536],[-48.691155526336466,-26.871844461684535],[-48.690853691329906,-26.87186005433471],[-48.69079995912247,-26.87163015318005],[-48.69085156201038,-26.87141508262412],[-48.69119613616122,-26.87170762789536]]]}},{"type":"Feature","id":110,"properties":{"nome":null},"geometry":{"type":"Polygon","coordinates":[[[-48.69085156201038,-26.87141508262412],[-48.69102085626813,-26.871386284173266],[-48.69152489188705,-26.871430875193926],[-48.691466261633224,-26.87170268942873],[-48.69119613616122,-26.87170762789536],[-48.69085156201038,-26.87141508262412]]]}},{"type":"Feature","id":111,"properties":{"nome":null},"geometry":{"type":"Polygon","coordinates":[[[-48.691165795319655,-26.869037032453612],[-48.69121527880201,-26.868964445683147],[-48.69121572162114,-26.868963798650743],[-48.691390601126734,-26.868710470848043],[-48.69167065830582,-26.868819016034017],[-48.691472572092536,-26.869105962624698],[-48.691421051657784,-26.86918153937803],[-48.691165795319655,-26.869037032453612]]]}},{"type":"Feature","id":112,"properties":{"nome":null},"geometry":{"type":"Polygon","coordinates":[[[-48.69266171396279,-26.871119350642182],[-48.69216393697357,-26.871129013267712],[-48.69227074705966,-26.87085618980517],[-48.69265864950602,-26.87084865969961],[-48.69266171396279,-26.871119350642182]]]}},{"type":"Feature","id":113,"properties":{"nome":null},"geometry":{"type":"Polygon","coordinates":[[[-48.693044563631,-26.870039507941463],[-48.69305364936164,-26.870200581276404],[-48.692751059212,-26.87019396404595],[-48.69273795121416,-26.869961561119617],[-48.6927378346246,-26.869959026968157],[-48.692732969128265,-26.869821864122606],[-48.693044563631,-26.870039507941463]]]}},{"type":"Feature","id":114,"properties":{"nome":null},"geometry":{"type":"Polygon","coordinates":[[[-48.6920979283205,-26.870300226042772],[-48.69261593109048,-26.8702902485693],[-48.692586609029775,-26.870561562984886],[-48.69194115889372,-26.870573994768122],[-48.6920979283205,-26.870300226042772]]]}},{"type":"Feature","id":115,"properties":{"nome":null},"geometry":{"type":"Polygon","coordinates":[[[-48.692987890235436,-26.869999922852866],[-48.69289286939718,-26.87009001488094],[-48.69251336980339,-26.870099480660812],[-48.69256235139582,-26.86982746668082],[-48.69273483046791,-26.869823165156753],[-48.692987890235436,-26.869999922852866]]]}},{"type":"Feature","id":116,"properties":{"nome":null},"geometry":{"type":"Polygon","coordinates":[[[-48.69305364936164,-26.870200581276404],[-48.69306563267809,-26.870413025511763],[-48.693065722829196,-26.870414879693893],[-48.69307098598004,-26.870542982214044],[-48.69277038121857,-26.870577847383515],[-48.69276413397556,-26.870425774423676],[-48.692751059212,-26.87019396404595],[-48.69305364936164,-26.870200581276404]]]}},{"type":"Feature","id":117,"properties":{"nome":null},"geometry":{"type":"Polygon","coordinates":[[[-48.69301245320528,-26.86909817683142],[-48.693017430228146,-26.869280172049045],[-48.692715492817165,-26.869279539671886],[-48.69266494309794,-26.86915431723524],[-48.69277856290809,-26.868975023216073],[-48.69301245320528,-26.86909817683142]]]}},{"type":"Feature","id":118,"properties":{"nome":null},"geometry":{"type":"Polygon","coordinates":[[[-48.693017430228146,-26.869280172049045],[-48.69302313149535,-26.86948869639923],[-48.693039467945844,-26.869949151816545],[-48.693044563631,-26.870039507941463],[-48.692732969128265,-26.869821864122606],[-48.6927214375471,-26.86949681082574],[-48.69272140624812,-26.86949582484977],[-48.692715492817165,-26.869279539671886],[-48.693017430228146,-26.869280172049045]]]}},{"type":"Feature","id":119,"properties":{"nome":null},"geometry":{"type":"Polygon","coordinates":[[[-48.69154394804898,-26.8693782949328],[-48.692481970944854,-26.869363358130396],[-48.69231996150951,-26.869636668217044],[-48.6914503061039,-26.86965051453595],[-48.69154394804898,-26.8693782949328]]]}},{"type":"Feature","id":120,"properties":{"nome":null},"geometry":{"type":"Polygon","coordinates":[[[-48.69277856290809,-26.868975023216073],[-48.69266494309794,-26.86915431723524],[-48.69252521239426,-26.86915566656212],[-48.69225798477101,-26.869161702417315],[-48.69228001473361,-26.868890432276466],[-48.69269403969137,-26.868750300607225],[-48.69277856290809,-26.868975023216073]]]}},{"type":"Feature","id":121,"properties":{"nome":null},"geometry":{"type":"Polygon","coordinates":[[[-48.69269403969137,-26.868750300607225],[-48.69304970047946,-26.86866748165157],[-48.69300997120266,-26.86900780020669],[-48.69301002690277,-26.869009418289554],[-48.69301245320528,-26.86909817683142],[-48.69277856290809,-26.868975023216073],[-48.69269403969137,-26.868750300607225]]]}},{"type":"Feature","id":122,"properties":{"nome":null},"geometry":{"type":"Polygon","coordinates":[[[-48.69181828093064,-26.866777038159704],[-48.69183155473296,-26.866555658089872],[-48.69199035122125,-26.866427777337545],[-48.69213294081884,-26.866570193226533],[-48.692121087470376,-26.86676788583612],[-48.69181828093064,-26.866777038159704]]]}},{"type":"Feature","id":123,"properties":{"nome":null},"geometry":{"type":"Polygon","coordinates":[[[-48.69264326995887,-26.867418441314154],[-48.69264291141255,-26.86740963576135],[-48.692522421939636,-26.867192657040018],[-48.69250681426086,-26.86712505390733],[-48.692532149140575,-26.866702495605015],[-48.692834253927366,-26.866705052078547],[-48.69281033953891,-26.867103941009113],[-48.69292762018228,-26.86731514022334],[-48.69293024584541,-26.867324390699352],[-48.69264326995887,-26.867418441314154]]]}},{"type":"Feature","id":124,"properties":{"nome":null},"geometry":{"type":"Polygon","coordinates":[[[-48.669676185540446,-26.888473545073353],[-48.67020321580919,-26.888822959220068],[-48.67013418896294,-26.8891138330308],[-48.66948621189659,-26.88868423332584],[-48.669676185540446,-26.888473545073353]]]}},{"type":"Feature","id":125,"properties":{"nome":null},"geometry":{"type":"Polygon","coordinates":[[[-48.6696915096787,-26.887952146739693],[-48.670311313510034,-26.888367440910265],[-48.67024212647959,-26.888658991702933],[-48.66940031902106,-26.888094944301255],[-48.6696915096787,-26.887952146739693]]]}},{"type":"Feature","id":126,"properties":{"nome":null},"geometry":{"type":"Polygon","coordinates":[[[-48.67068824971134,-26.889144526472965],[-48.67114517262337,-26.889447453614846],[-48.67112300804221,-26.889769395438233],[-48.6704620001407,-26.88933116531105],[-48.67068824971134,-26.889144526472965]]]}},{"type":"Feature","id":127,"properties":{"nome":null},"geometry":{"type":"Polygon","coordinates":[[[-48.670311313510034,-26.888367440910265],[-48.67117947928702,-26.888949139848375],[-48.67115724184818,-26.8892721462737],[-48.67024212647959,-26.888658991702933],[-48.670311313510034,-26.888367440910265]]]}},{"type":"Feature","id":128,"properties":{"nome":null},"geometry":{"type":"Polygon","coordinates":[[[-48.670419859683186,-26.887910028430195],[-48.67121427971756,-26.888443658048423],[-48.671192024238806,-26.888766921403096],[-48.67035063475579,-26.888201741130796],[-48.670419859683186,-26.887910028430195]]]}},{"type":"Feature","id":129,"properties":{"nome":null},"geometry":{"type":"Polygon","coordinates":[[[-48.6704620001407,-26.88933116531105],[-48.67013418896294,-26.8891138330308],[-48.67020321580919,-26.888822959220068],[-48.67068824971134,-26.889144526472965],[-48.6704620001407,-26.88933116531105]]]}},{"type":"Feature","id":130,"properties":{"nome":null},"geometry":{"type":"Polygon","coordinates":[[[-48.669187682622585,-26.887614556705238],[-48.6696915096787,-26.887952146739693],[-48.66940031902106,-26.888094944301255],[-48.66890118110953,-26.887760495300007],[-48.669187682622585,-26.887614556705238]]]}},{"type":"Feature","id":131,"properties":{"nome":null},"geometry":{"type":"Polygon","coordinates":[[[-48.66963829217741,-26.887385022814897],[-48.67014875285143,-26.88772791690146],[-48.66985772291228,-26.88787063690016],[-48.66935194330858,-26.887530885490868],[-48.66963829217741,-26.887385022814897]]]}},{"type":"Feature","id":132,"properties":{"nome":null},"geometry":{"type":"Polygon","coordinates":[[[-48.66948621189659,-26.88868423332584],[-48.6689387695191,-26.88832128164319],[-48.66923064042078,-26.888178151594747],[-48.669676185540446,-26.888473545073353],[-48.66948621189659,-26.88868423332584]]]}},{"type":"Feature","id":133,"properties":{"nome":null},"geometry":{"type":"Polygon","coordinates":[[[-48.66805492298493,-26.885828571377594],[-48.66856218613781,-26.886117819018395],[-48.668572420995595,-26.88612420302163],[-48.66930593001471,-26.886609108262082],[-48.669101517363416,-26.88678728336053],[-48.66839493800318,-26.88634322976112],[-48.66789531504696,-26.886058338257886],[-48.66786563284552,-26.886042776607876],[-48.66805492298493,-26.885828571377594]]]}},{"type":"Feature","id":134,"properties":{"nome":null},"geometry":{"type":"Polygon","coordinates":[[[-48.67023536453457,-26.887583256021156],[-48.66954811469378,-26.887124011221214],[-48.66968058667591,-26.88687495278674],[-48.67028408001473,-26.887278228953175],[-48.67023536453457,-26.887583256021156]]]}},{"type":"Feature","id":135,"properties":{"nome":null},"geometry":{"type":"Polygon","coordinates":[[[-48.67030981748304,-26.88711707980223],[-48.669749500630125,-26.886745390178667],[-48.66988188061298,-26.886496502347466],[-48.67035844007742,-26.886812631402652],[-48.67030981748304,-26.88711707980223]]]}},{"type":"Feature","id":136,"properties":{"nome":null},"geometry":{"type":"Polygon","coordinates":[[[-48.668444106316755,-26.887993318479907],[-48.668411502464686,-26.887971702112598],[-48.66735488142007,-26.887299261901944],[-48.66731915495278,-26.887110560468393],[-48.66752959926226,-26.887078525108805],[-48.66858741759625,-26.88775172554208],[-48.668589796229575,-26.887753270967682],[-48.66873124868654,-26.88784705484863],[-48.668444106316755,-26.887993318479907]]]}},{"type":"Feature","id":137,"properties":{"nome":null},"geometry":{"type":"Polygon","coordinates":[[[-48.668767559708584,-26.887129974842154],[-48.66842385052468,-26.886885550924212],[-48.66839937934845,-26.886695411136373],[-48.66861142695666,-26.88667346898397],[-48.66895688575083,-26.886919135990055],[-48.668767559708584,-26.887129974842154]]]}},{"type":"Feature","id":138,"properties":{"nome":null},"geometry":{"type":"Polygon","coordinates":[[[-48.669101517363416,-26.88678728336053],[-48.66930593001471,-26.886609108262082],[-48.66935671631441,-26.88650933186672],[-48.66952233749612,-26.886594698870912],[-48.6696558694713,-26.886674581820014],[-48.66956691545984,-26.886789551668453],[-48.66968058667591,-26.88687495278674],[-48.66954811469378,-26.887124011221214],[-48.669101517363416,-26.88678728336053]]]}},{"type":"Feature","id":139,"properties":{"nome":null},"geometry":{"type":"Polygon","coordinates":[[[-48.66895688575083,-26.886919135990055],[-48.66916397964321,-26.88706640612325],[-48.66963829217741,-26.887385022814897],[-48.66935194330858,-26.887530885490868],[-48.6689813237615,-26.887281923458925],[-48.66897803121479,-26.887279647327524],[-48.668767559708584,-26.887129974842154],[-48.66895688575083,-26.886919135990055]]]}},{"type":"Feature","id":140,"properties":{"nome":null},"geometry":{"type":"Polygon","coordinates":[[[-48.66938486918117,-26.886169366643056],[-48.66970080155576,-26.88637638439992],[-48.66970151549193,-26.886376855517728],[-48.66988188061298,-26.886496502347466],[-48.669749500630125,-26.886745390178667],[-48.6696558694713,-26.886674581820014],[-48.66952233749612,-26.886594698870912],[-48.66935671631441,-26.88650933186672],[-48.669311298552095,-26.88645641372893],[-48.66938486918117,-26.886169366643056]]]}},{"type":"Feature","id":141,"properties":{"nome":null},"geometry":{"type":"Polygon","coordinates":[[[-48.66786563284552,-26.886042776607876],[-48.6674690197963,-26.885834834752405],[-48.667414908023346,-26.88564968573007],[-48.66762138787559,-26.885601164014624],[-48.668050114070574,-26.88582594170304],[-48.66805492298493,-26.885828571377594],[-48.66786563284552,-26.886042776607876]]]}},{"type":"Feature","id":142,"properties":{"nome":null},"geometry":{"type":"Polygon","coordinates":[[[-48.67314109638188,-26.885181918075872],[-48.67361198127241,-26.88471793348814],[-48.67381175865096,-26.88492325615862],[-48.67347944481981,-26.88526560517456],[-48.67336496507726,-26.885363501884335],[-48.67314109638188,-26.885181918075872]]]}},{"type":"Feature","id":143,"properties":{"nome":null},"geometry":{"type":"Polygon","coordinates":[[[-48.673060994098115,-26.8859782968265],[-48.673445997473614,-26.885597633473896],[-48.67355832275892,-26.88568889684707],[-48.673657559811595,-26.885787192861816],[-48.6732975194513,-26.886147366870752],[-48.673060994098115,-26.8859782968265]]]}},{"type":"Feature","id":144,"properties":{"nome":null},"geometry":{"type":"Polygon","coordinates":[[[-48.67264600745995,-26.885681659693045],[-48.67314109638188,-26.885181918075872],[-48.67336496507726,-26.885363501884335],[-48.67326958966843,-26.885473182250806],[-48.67288238871697,-26.885850628738602],[-48.67264600745995,-26.885681659693045]]]}},{"type":"Feature","id":145,"properties":{"nome":null},"geometry":{"type":"Polygon","coordinates":[[[-48.67439525899652,-26.884377738071365],[-48.67466027434171,-26.884599683682147],[-48.674662410780435,-26.88460150838233],[-48.674863874370345,-26.8847769625481],[-48.67476885783768,-26.885071550103333],[-48.67458831348574,-26.88492048735346],[-48.674323331087884,-26.88468806128733],[-48.674213715920786,-26.884596078803884],[-48.67439525899652,-26.884377738071365]]]}},{"type":"Feature","id":146,"properties":{"nome":null},"geometry":{"type":"Polygon","coordinates":[[[-48.674213715920786,-26.884596078803884],[-48.67406048297242,-26.884678174364495],[-48.67382821969352,-26.884504862243606],[-48.673972592291285,-26.884387294409162],[-48.67348461400202,-26.88396369840064],[-48.67376889741,-26.88383425652082],[-48.67427143136715,-26.88427403454447],[-48.67439525899652,-26.884377738071365],[-48.674213715920786,-26.884596078803884]]]}},{"type":"Feature","id":147,"properties":{"nome":null},"geometry":{"type":"Polygon","coordinates":[[[-48.674042193126,-26.886094508347835],[-48.673657559811595,-26.885787192861816],[-48.67355832275892,-26.88568889684707],[-48.6734479006958,-26.885603276146583],[-48.67326958966843,-26.885473182250806],[-48.67336496507726,-26.885363501884335],[-48.67347944481981,-26.88526560517456],[-48.673757985535325,-26.885485863944194],[-48.67376233481206,-26.88548937024118],[-48.674150778210326,-26.885814988114667],[-48.674042193126,-26.886094508347835]]]}},{"type":"Feature","id":148,"properties":{"nome":null},"geometry":{"type":"Polygon","coordinates":[[[-48.66850309626035,-26.887615072772235],[-48.668544071085044,-26.887560295911495],[-48.66825595002683,-26.887443548117552],[-48.66818056072715,-26.88726448140344],[-48.66838026037422,-26.887196882201735],[-48.668725822153455,-26.887336903211896],[-48.66877580969243,-26.887282591813907],[-48.66902672677937,-26.887435227710593],[-48.66898603351415,-26.887479441023014],[-48.669187682622585,-26.887614556705238],[-48.66890118110953,-26.887760495300007],[-48.66880567575904,-26.887696501260056],[-48.66875881494058,-26.887759146772204],[-48.66850309626035,-26.887615072772235]]]}},{"type":"Feature","id":149,"properties":{"nome":null},"geometry":{"type":"Polygon","coordinates":[[[-48.69211948807727,-26.875781711847676],[-48.69151129768261,-26.87579952921523],[-48.69135552800447,-26.87566867646845],[-48.69150144309269,-26.875528986554745],[-48.692119914669256,-26.875510867867142],[-48.69211948807727,-26.875781711847676]]]}},{"type":"Feature","id":150,"properties":{"nome":null},"geometry":{"type":"Polygon","coordinates":[[[-48.692914364363354,-26.875758421999997],[-48.69211948807727,-26.875781711847676],[-48.692119914669256,-26.875510867867142],[-48.69280856837905,-26.87549069001485],[-48.692914364363354,-26.875758421999997]]]}},{"type":"Feature","id":151,"properties":{"nome":null},"geometry":{"type":"Polygon","coordinates":[[[-48.69826985334587,-26.87933757210229],[-48.6985373390218,-26.879318712808466],[-48.69860915873796,-26.879494918777837],[-48.69856063991828,-26.879667724557365],[-48.69830769113025,-26.87966866272739],[-48.69820835505005,-26.879534912971724],[-48.69826985334587,-26.87933757210229]]]}},{"type":"Feature","id":152,"properties":{"nome":null},"geometry":{"type":"Polygon","coordinates":[[[-48.71423919137887,-26.88811236413458],[-48.714256523407414,-26.88941573207145],[-48.7139546065059,-26.88941497783848],[-48.71393722229828,-26.888107475978657],[-48.71423919137887,-26.88811236413458]]]}},{"type":"Feature","id":153,"properties":{"nome":null},"geometry":{"type":"Polygon","coordinates":[[[-48.71421929571232,-26.886616243373865],[-48.71423919137887,-26.88811236413458],[-48.71393722229828,-26.888107475978657],[-48.71391781618758,-26.886647872659967],[-48.71421929571232,-26.886616243373865]]]}},{"type":"Feature","id":154,"properties":{"nome":null},"geometry":{"type":"Polygon","coordinates":[[[-48.68993312469184,-26.926748721085026],[-48.689793246049234,-26.926540502500526],[-48.68977392618029,-26.92644704239021],[-48.68979360306168,-26.926347627708065],[-48.689817151380325,-26.92629551337758],[-48.689958169468575,-26.926108380171033],[-48.69000642739995,-26.92606764399416],[-48.690188438665444,-26.925971153441367],[-48.69039526324754,-26.926018748895803],[-48.69034216422657,-26.926204140022797],[-48.69018939403141,-26.9262851292366],[-48.690085339495205,-26.92642321152679],[-48.69008115547884,-26.926444350199542],[-48.6902175491225,-26.926647381127356],[-48.68993312469184,-26.926748721085026]]]}},{"type":"Feature","id":155,"properties":{"nome":null},"geometry":{"type":"Polygon","coordinates":[[[-48.69103157073604,-26.928071639738004],[-48.69099046617134,-26.928044388477133],[-48.69096922091368,-26.928027294277523],[-48.69075277474648,-26.927816772800895],[-48.69074765146552,-26.9278115234066],[-48.690472008731874,-26.927514027905083],[-48.690717025885675,-26.927354798705508],[-48.69097747737939,-26.927635898758258],[-48.69118156854024,-26.92783440483499],[-48.69103157073604,-26.928071639738004]]]}}]}
