{"type":"FeatureCollection","features":[{"type":"Feature","id":1,"properties":{"nome":null},"geometry":{"type":"Polygon","coordinates":[[[-48.692940891582474,-26.866628354120287],[-48.69255829737356,-26.866618985744136],[-48.69263432742747,-26.866473544697616],[-48.69273249122779,-26.86643769736125],[-48.692871258920476,-26.8664586881078],[-48.692940891582474,-26.866628354120287]]]}},{"type":"Feature","id":2,"properties":{"nome":null},"geometry":{"type":"Polygon","coordinates":[[[-48.69288218743262,-26.866948848526942],[-48.69252527351446,-26.86687435960218],[-48.69255829737356,-26.866618985744136],[-48.692940891582474,-26.866628354120287],[-48.69288218743262,-26.866948848526942]]]}},{"type":"Feature","id":3,"properties":{"nome":null},"geometry":{"type":"Polygon","coordinates":[[[-48.69252527351446,-26.86687435960218],[-48.69288218743262,-26.866948848526942],[-48.69282228371083,-26.867156970340936],[-48.69249383216803,-26.86705173788871],[-48.69252527351446,-26.86687435960218]]]}},{"type":"Feature","id":4,"properties":{"nome":null},"geometry":{"type":"Polygon","coordinates":[[[-48.69249383216803,-26.86705173788871],[-48.69282228371083,-26.867156970340936],[-48.69277028776647,-26.867318408047172],[-48.692383204173815,-26.867187250024852],[-48.69249383216803,-26.86705173788871]]]}},{"type":"Feature","id":5,"properties":{"nome":null},"geometry":{"type":"Polygon","coordinates":[[[-48.690759758469184,-26.87018799437973],[-48.69113926699899,-26.87017859214588],[-48.69117525160688,-26.87029153306524],[-48.69151231691668,-26.87031576591399],[-48.69150572480848,-26.870640231482056],[-48.69076795929909,-26.870640657604177],[-48.690759758469184,-26.87018799437973]]]}},{"type":"Feature","id":6,"properties":{"nome":null},"geometry":{"type":"Polygon","coordinates":[[[-48.69268561274115,-26.87080306749964],[-48.693127425789974,-26.870810282554263],[-48.69317052035468,-26.87228717094738],[-48.690938655279304,-26.872344335685753],[-48.690792043044596,-26.87219525672955],[-48.69079983447887,-26.871983163753757],[-48.69274572739713,-26.871955660344156],[-48.69268561274115,-26.87080306749964]]]}},{"type":"Feature","id":7,"properties":{"nome":null},"geometry":{"type":"Polygon","coordinates":[[[-48.692209674754075,-26.873332582658012],[-48.692194542118706,-26.873734930930578],[-48.69108748243861,-26.87375429107735],[-48.691098600402725,-26.874063441817277],[-48.69096044917642,-26.874182898381186],[-48.69070243634321,-26.874206768243123],[-48.69052766534766,-26.874244482900888],[-48.69038427735977,-26.8741079405159],[-48.690381441780715,-26.873905035806416],[-48.690325861673074,-26.873557707833353],[-48.69042309070569,-26.873397010982906],[-48.69079894004994,-26.873396914064088],[-48.691162205450254,-26.873331070816885],[-48.692209674754075,-26.873332582658012]]]}},{"type":"Feature","id":8,"properties":{"nome":null},"geometry":{"type":"Polygon","coordinates":[[[-48.691253914733046,-26.87481187339904],[-48.691095277910094,-26.874740621185],[-48.69108782112577,-26.874593816845188],[-48.691194409211164,-26.87448632774974],[-48.6932552136565,-26.8744575777087],[-48.693248055206,-26.874810121716827],[-48.691253914733046,-26.87481187339904]]]}},{"type":"Feature","id":9,"properties":{"nome":null},"geometry":{"type":"Polygon","coordinates":[[[-48.69205166657038,-26.874943503639276],[-48.69202691964867,-26.875305122825015],[-48.691546123539275,-26.875331597032655],[-48.691637266691465,-26.8754704052418],[-48.69289412827846,-26.875444125491533],[-48.69288728520643,-26.87578107044996],[-48.69134090283099,-26.87584006962932],[-48.69096944713269,-26.875109950585724],[-48.69100683681387,-26.87498260491961],[-48.691219813847475,-26.874948635708336],[-48.69205166657038,-26.874943503639276]]]}},{"type":"Feature","id":10,"properties":{"nome":null},"geometry":{"type":"Polygon","coordinates":[[[-48.69331905507273,-26.875941045635685],[-48.69330095236674,-26.87631837867222],[-48.692994799942795,-26.87631337885279],[-48.69299576155043,-26.875923282506395],[-48.69331905507273,-26.875941045635685]]]}},{"type":"Feature","id":11,"properties":{"nome":null},"geometry":{"type":"Polygon","coordinates":[[[-48.69299576155043,-26.875923282506395],[-48.692994799942795,-26.87631337885279],[-48.69164374169379,-26.87635060317002],[-48.691432426484106,-26.875960159479266],[-48.69299576155043,-26.875923282506395]]]}},{"type":"Feature","id":12,"properties":{"nome":null},"geometry":{"type":"Polygon","coordinates":[[[-48.691715025684125,-26.876439153054175],[-48.692916107768816,-26.87641820336899],[-48.692922610123155,-26.876783454693232],[-48.69204361538341,-26.87688144727809],[-48.69185752270453,-26.876791021556134],[-48.691715025684125,-26.876439153054175]]]}},{"type":"Feature","id":13,"properties":{"nome":null},"geometry":{"type":"Polygon","coordinates":[[[-48.693659912408776,-26.878864648703892],[-48.69357386845994,-26.877274707946018],[-48.69366382245042,-26.877129495063507],[-48.693831892092604,-26.877079183830244],[-48.69397067391338,-26.877100175228737],[-48.69403373137531,-26.87742265649527],[-48.69408707982274,-26.878909074346318],[-48.693659912408776,-26.878864648703892]]]}},{"type":"Feature","id":14,"properties":{"nome":null},"geometry":{"type":"Polygon","coordinates":[[[-48.69433885001716,-26.87850746727096],[-48.6942653148607,-26.877158039575498],[-48.694338568750005,-26.876978223884013],[-48.69503064277296,-26.87700200235753],[-48.69513653048871,-26.877100478132398],[-48.695066630874656,-26.877286591207117],[-48.694981804263776,-26.87735074581173],[-48.69477280760526,-26.877359818584825],[-48.694708792006935,-26.87742743419086],[-48.69528991944697,-26.877430675130984],[-48.69541389986616,-26.877495116192033],[-48.6954167430417,-26.877698020366903],[-48.69538777149751,-26.87775372459196],[-48.69472573726535,-26.877792855197427],[-48.69475665556383,-26.878498682658122],[-48.69433885001716,-26.87850746727096]]]}},{"type":"Feature","id":15,"properties":{"nome":null},"geometry":{"type":"Polygon","coordinates":[[[-48.69658197044379,-26.878759407519333],[-48.69652852730194,-26.87658951120499],[-48.696603105780184,-26.876344175956863],[-48.69672537740199,-26.876321202811468],[-48.69692323823752,-26.876346275246302],[-48.69701913392938,-26.878825833616375],[-48.69664294895168,-26.87884154579951],[-48.69658197044379,-26.878759407519333]]]}},{"type":"Feature","id":16,"properties":{"nome":null},"geometry":{"type":"Polygon","coordinates":[[[-48.69866779563066,-26.879732799360383],[-48.69822967893452,-26.879713175878393],[-48.69820974993872,-26.879494388113166],[-48.698382693285005,-26.879375491417406],[-48.698549310694524,-26.879396932062512],[-48.698648878227665,-26.879464093305472],[-48.69866779563066,-26.879732799360383]]]}},{"type":"Feature","id":17,"properties":{"nome":null},"geometry":{"type":"Polygon","coordinates":[[[-48.698273962283956,-26.880104010273392],[-48.69822967893452,-26.879713175878393],[-48.69866779563066,-26.879732799360383],[-48.698673873371405,-26.88011988964346],[-48.698273962283956,-26.880104010273392]]]}},{"type":"Feature","id":18,"properties":{"nome":null},"geometry":{"type":"Polygon","coordinates":[[[-48.700038643315274,-26.88009530673822],[-48.700047303720034,-26.879839533273657],[-48.700245356809226,-26.87968359266457],[-48.70047428454452,-26.879721649737235],[-48.700495485005206,-26.880049689679275],[-48.700449561086536,-26.88008327180163],[-48.700038643315274,-26.88009530673822]]]}},{"type":"Feature","id":19,"properties":{"nome":null},"geometry":{"type":"Polygon","coordinates":[[[-48.70328617944233,-26.878525280079252],[-48.70330241958051,-26.878238420063457],[-48.703429496854135,-26.878149980229413],[-48.703644569866675,-26.878184686149392],[-48.703743003408604,-26.878308001667055],[-48.70371765044333,-26.87852917367676],[-48.70328617944233,-26.878525280079252]]]}},{"type":"Feature","id":20,"properties":{"nome":null},"geometry":{"type":"Polygon","coordinates":[[[-48.70330740641062,-26.879196619800723],[-48.70328617944233,-26.878525280079252],[-48.70371765044333,-26.87852917367676],[-48.703729011123656,-26.879172265405174],[-48.70330740641062,-26.879196619800723]]]}},{"type":"Feature","id":21,"properties":{"nome":null},"geometry":{"type":"Polygon","coordinates":[[[-48.70388806328007,-26.878535065553674],[-48.70385798209558,-26.877957208496955],[-48.70389529571748,-26.877832978228074],[-48.70409442275115,-26.877795642953945],[-48.704225934268024,-26.87783211036726],[-48.70430697319101,-26.87795514369288],[-48.704309287194164,-26.878529428815362],[-48.70388806328007,-26.878535065553674]]]}},{"type":"Feature","id":22,"properties":{"nome":null},"geometry":{"type":"Polygon","coordinates":[[[-48.70062732220752,-26.883594061535106],[-48.700242707017225,-26.883595601541487],[-48.70019165591616,-26.883538593231055],[-48.70017636990889,-26.883176319919084],[-48.700224161067986,-26.883136526177857],[-48.70061566940692,-26.88313821992254],[-48.70067902423841,-26.883189186206355],[-48.700687638192235,-26.88353730711416],[-48.70062732220752,-26.883594061535106]]]}},{"type":"Feature","id":23,"properties":{"nome":null},"geometry":{"type":"Polygon","coordinates":[[[-48.67448619198033,-26.88435976641097],[-48.673549017213766,-26.88525562343263],[-48.67363775205585,-26.88534134883334],[-48.67433329237487,-26.88468806018516],[-48.67460999767736,-26.88494228618956],[-48.67367952188911,-26.885850738377915],[-48.67324294378745,-26.886264863030057],[-48.673042259528195,-26.886377027802556],[-48.67290507151371,-26.886278020250284],[-48.67286664470111,-26.88611510285077],[-48.67333575170899,-26.885642218377363],[-48.67320172354624,-26.885558868035666],[-48.67293906489056,-26.88529862871102],[-48.67418191060358,-26.884092601843722],[-48.67448619198033,-26.88435976641097]]]}},{"type":"Feature","id":24,"properties":{"nome":null},"geometry":{"type":"Polygon","coordinates":[[[-48.6736242653031,-26.885999629912313],[-48.673939627095095,-26.88623576862859],[-48.673499761073636,-26.886640477151023],[-48.673398733566685,-26.8866450539278],[-48.67324807546865,-26.88652397960658],[-48.67324064228815,-26.88637717598035],[-48.6736242653031,-26.885999629912313]]]}},{"type":"Feature","id":25,"properties":{"nome":null},"geometry":{"type":"Polygon","coordinates":[[[-48.671531506807156,-26.883842951728106],[-48.67165302237035,-26.883857438489798],[-48.67182011237128,-26.884025598792423],[-48.67181819345736,-26.884119193454005],[-48.67110808583976,-26.884803437732927],[-48.67144188330943,-26.885158478597997],[-48.67119701884174,-26.88538850518137],[-48.67050180681311,-26.88483713039908],[-48.671531506807156,-26.883842951728106]]]}},{"type":"Feature","id":26,"properties":{"nome":null},"geometry":{"type":"Polygon","coordinates":[[[-48.66890358767141,-26.885550402301813],[-48.668314897152925,-26.88506631262753],[-48.66793197200585,-26.88490082554423],[-48.6677512906666,-26.884716832504076],[-48.667740129338405,-26.88458245063721],[-48.66781846547446,-26.884496360283546],[-48.6680136847757,-26.884480859514284],[-48.6682846338226,-26.884675705358077],[-48.668661240508214,-26.88480987844806],[-48.66919193717342,-26.885236833289063],[-48.66890358767141,-26.885550402301813]]]}},{"type":"Feature","id":27,"properties":{"nome":null},"geometry":{"type":"Polygon","coordinates":[[[-48.669571430184966,-26.886248014031644],[-48.66989773356862,-26.886459375354704],[-48.66936188424666,-26.88713087981355],[-48.67174458302844,-26.88872749499637],[-48.67145725432159,-26.88899115168099],[-48.66910915559425,-26.88740446544218],[-48.66904151139453,-26.887478249617388],[-48.66879889893229,-26.887767605494552],[-48.66849656488668,-26.887575361830596],[-48.6690359644032,-26.88690079904372],[-48.668705264878795,-26.886564528318214],[-48.66837516334695,-26.88636870642461],[-48.667514835806415,-26.88589261147076],[-48.667350395823945,-26.88576506144812],[-48.66736681214771,-26.8856436184082],[-48.66740617301365,-26.88559121475743],[-48.667622782546395,-26.88555110043083],[-48.66817981904854,-26.885881747322383],[-48.668823646802835,-26.886223188513657],[-48.66929673963938,-26.88657429155157],[-48.669571430184966,-26.886248014031644]]]}},{"type":"Feature","id":28,"properties":{"nome":null},"geometry":{"type":"Polygon","coordinates":[[[-48.66849656488668,-26.887575361830596],[-48.66879889893229,-26.887767605494552],[-48.66874916385667,-26.887816717648693],[-48.66905788158327,-26.888037153402045],[-48.66910629197906,-26.888222083279306],[-48.67005377768934,-26.888861891616394],[-48.66989014282238,-26.889033959651798],[-48.66831104782601,-26.887965527678823],[-48.668278369032315,-26.887861999265404],[-48.66830927851042,-26.887712708222622],[-48.66849656488668,-26.887575361830596]]]}},{"type":"Feature","id":29,"properties":{"nome":null},"geometry":{"type":"Polygon","coordinates":[[[-48.66904151139453,-26.887478249617388],[-48.669773059853505,-26.88795533072908],[-48.669543916885395,-26.888266756197403],[-48.66879889893229,-26.887767605494552],[-48.66904151139453,-26.887478249617388]]]}},{"type":"Feature","id":30,"properties":{"nome":null},"geometry":{"type":"Polygon","coordinates":[[[-48.669773059853505,-26.88795533072908],[-48.67104060557603,-26.888772062295516],[-48.67102756762059,-26.889068328907104],[-48.6712436305345,-26.889224814516634],[-48.67115795017896,-26.88932951099318],[-48.669543916885395,-26.888266756197403],[-48.669773059853505,-26.88795533072908]]]}},{"type":"Feature","id":31,"properties":{"nome":null},"geometry":{"type":"Polygon","coordinates":[[[-48.66989014282238,-26.889033959651798],[-48.67005377768934,-26.888861891616394],[-48.670177346981006,-26.888776546394872],[-48.67063743327657,-26.88908373979616],[-48.67042265441104,-26.889373557589558],[-48.66989014282238,-26.889033959651798]]]}},{"type":"Feature","id":32,"properties":{"nome":null},"geometry":{"type":"Polygon","coordinates":[[[-48.68494361953486,-26.891072944709112],[-48.68508211668791,-26.890937897226745],[-48.685257233186995,-26.890884591459645],[-48.68539070560955,-26.8909960101926],[-48.685409037120245,-26.891121146358046],[-48.68524136889197,-26.89132125530906],[-48.68494361953486,-26.891072944709112]]]}},{"type":"Feature","id":33,"properties":{"nome":null},"geometry":{"type":"Polygon","coordinates":[[[-48.68511765985543,-26.89158450164165],[-48.68544451202499,-26.891259046922894],[-48.68560811014785,-26.89125860700167],[-48.68578333631237,-26.891370709769017],[-48.6857558001002,-26.891526303063475],[-48.68544679009509,-26.891830204822877],[-48.68511765985543,-26.89158450164165]]]}},{"type":"Feature","id":34,"properties":{"nome":null},"geometry":{"type":"Polygon","coordinates":[[[-48.685343517377625,-26.892627457558337],[-48.68505607590389,-26.89238555818172],[-48.68586245395464,-26.891587347387826],[-48.68608077042284,-26.891634617555443],[-48.68617236222823,-26.891751591432516],[-48.686124967811395,-26.891856924934128],[-48.685343517377625,-26.892627457558337]]]}},{"type":"Feature","id":35,"properties":{"nome":null},"geometry":{"type":"Polygon","coordinates":[[[-48.68581612966013,-26.892323116148987],[-48.68622118464423,-26.89191779797243],[-48.686392886652534,-26.89186131517466],[-48.68655799290787,-26.89195764631511],[-48.68658721041864,-26.892061114581626],[-48.68610667037524,-26.89258378946728],[-48.68581612966013,-26.892323116148987]]]}},{"type":"Feature","id":36,"properties":{"nome":null},"geometry":{"type":"Polygon","coordinates":[[[-48.686881088139216,-26.892499731861573],[-48.68657276628097,-26.89225749336637],[-48.686704241252485,-26.89212544895104],[-48.68684310194236,-26.892143328812065],[-48.686963294348935,-26.892223319689148],[-48.68699510152416,-26.89237052173626],[-48.686881088139216,-26.892499731861573]]]}},{"type":"Feature","id":37,"properties":{"nome":null},"geometry":{"type":"Polygon","coordinates":[[[-48.687207237477715,-26.892892063379396],[-48.686902583791635,-26.89264052284843],[-48.68706600935839,-26.892477793488798],[-48.68719829355225,-26.89247683975034],[-48.68731918573852,-26.892522512251368],[-48.68739578221604,-26.892692294004412],[-48.687207237477715,-26.892892063379396]]]}},{"type":"Feature","id":38,"properties":{"nome":null},"geometry":{"type":"Polygon","coordinates":[[[-48.68663533136604,-26.89414040955837],[-48.686334219746776,-26.893885805150813],[-48.68662848906741,-26.893622230943368],[-48.68692720229018,-26.893823740349784],[-48.68663533136604,-26.89414040955837]]]}},{"type":"Feature","id":39,"properties":{"nome":null},"geometry":{"type":"Polygon","coordinates":[[[-48.68822537287961,-26.894684518936963],[-48.68790353735922,-26.89442177677751],[-48.68829944955406,-26.89403814918023],[-48.68844214163601,-26.894038925079055],[-48.68855796848664,-26.89416253560073],[-48.68860809659499,-26.894264784649575],[-48.68851970286073,-26.894417821063616],[-48.68822537287961,-26.894684518936963]]]}},{"type":"Feature","id":40,"properties":{"nome":null},"geometry":{"type":"Polygon","coordinates":[[[-48.68575249671166,-26.895102777123768],[-48.68555094924229,-26.895257077264823],[-48.68529764053741,-26.89521859505415],[-48.6851931996103,-26.895134179110553],[-48.68479976348473,-26.894798475668313],[-48.68449650236885,-26.89507594188979],[-48.68423442152842,-26.89487034733304],[-48.68453332295185,-26.894550678213985],[-48.68501231108081,-26.894446180497688],[-48.68575249671166,-26.895102777123768]]]}},{"type":"Feature","id":41,"properties":{"nome":null},"geometry":{"type":"Polygon","coordinates":[[[-48.68385136782729,-26.893258372461787],[-48.68336442861038,-26.893241021061808],[-48.68325227986143,-26.893108104167798],[-48.68336670030594,-26.8930444431808],[-48.68372154501419,-26.893053385452664],[-48.68385136782729,-26.893258372461787]]]}},{"type":"Feature","id":42,"properties":{"nome":null},"geometry":{"type":"Polygon","coordinates":[[[-48.68372154501419,-26.893053385452664],[-48.68336670030594,-26.8930444431808],[-48.68344857550658,-26.89295528138584],[-48.683574282598364,-26.892935497655433],[-48.68364855040257,-26.892963243127504],[-48.68372154501419,-26.893053385452664]]]}},{"type":"Feature","id":43,"properties":{"nome":null},"geometry":{"type":"Polygon","coordinates":[[[-48.68623106406022,-26.903469892026266],[-48.68618824922457,-26.90386242140592],[-48.68586855033301,-26.903835334427026],[-48.685773342264795,-26.90372454291896],[-48.68579803853964,-26.90353769454916],[-48.685900608486534,-26.90345823374304],[-48.68623106406022,-26.903469892026266]]]}},{"type":"Feature","id":44,"properties":{"nome":null},"geometry":{"type":"Polygon","coordinates":[[[-48.68546546395692,-26.90431246080188],[-48.685099507375504,-26.90433454788402],[-48.684999992637266,-26.90426425595768],[-48.684970519695796,-26.904173267509165],[-48.684997806782874,-26.90403015498066],[-48.68509341763823,-26.903950579779966],[-48.68548682947314,-26.903947669245124],[-48.68546546395692,-26.90431246080188]]]}},{"type":"Feature","id":45,"properties":{"nome":null},"geometry":{"type":"Polygon","coordinates":[[[-48.68375602669654,-26.90483681501434],[-48.68372383331461,-26.905220153799142],[-48.683358701977994,-26.90520167816247],[-48.68323514717719,-26.905115386483036],[-48.68324200325425,-26.904950092985786],[-48.683352554612604,-26.904820830870626],[-48.68375602669654,-26.90483681501434]]]}},{"type":"Feature","id":46,"properties":{"nome":null},"geometry":{"type":"Polygon","coordinates":[[[-48.685741424428834,-26.918938275402006],[-48.68571097366732,-26.918553909197538],[-48.68723105090725,-26.91844775593456],[-48.68748840186968,-26.9184613356901],[-48.68766746810006,-26.918557896800117],[-48.687966645043055,-26.918569041405473],[-48.68807799649593,-26.91874251323418],[-48.68804393802945,-26.91887615333438],[-48.68794141926622,-26.918952495189878],[-48.68757991320017,-26.91892472505361],[-48.687397621013126,-26.918815627584305],[-48.68613539879968,-26.918910407155817],[-48.685741424428834,-26.918938275402006]]]}},{"type":"Feature","id":47,"properties":{"nome":null},"geometry":{"type":"Polygon","coordinates":[[[-48.68515418942575,-26.92092911978408],[-48.68469828762445,-26.920749991390796],[-48.68503985359425,-26.92039045481954],[-48.6854501287478,-26.92058755817529],[-48.68515418942575,-26.92092911978408]]]}},{"type":"Feature","id":48,"properties":{"nome":null},"geometry":{"type":"Polygon","coordinates":[[[-48.69116055783584,-26.921576808698436],[-48.69106968592765,-26.921594047142644],[-48.69151865259229,-26.922456514154593],[-48.69174178011766,-26.92244143925634],[-48.69186730313168,-26.922774305358168],[-48.69172643487532,-26.922853144022135],[-48.69176642097206,-26.922941182724422],[-48.691556423835216,-26.923337219338556],[-48.690619126941705,-26.92166469488114],[-48.690846842848906,-26.921253345596796],[-48.69097644328892,-26.921214894966152],[-48.69116055783584,-26.921576808698436]]]}},{"type":"Feature","id":49,"properties":{"nome":null},"geometry":{"type":"Polygon","coordinates":[[[-48.689908384861596,-26.92681498502139],[-48.68970319399953,-26.9264620872527],[-48.68978807828882,-26.926226290832837],[-48.69015440840859,-26.926360245297943],[-48.69013927847327,-26.926419293753142],[-48.69025968227114,-26.926661572265786],[-48.689908384861596,-26.92681498502139]]]}},{"type":"Feature","id":50,"properties":{"nome":null},"geometry":{"type":"Polygon","coordinates":[[[-48.69021969523458,-26.927257004489956],[-48.69057194619,-26.927056793793593],[-48.691057082175035,-26.927682668100847],[-48.69104732515627,-26.9278198271892],[-48.69086043926437,-26.92793536149621],[-48.69067736598064,-26.92786370484719],[-48.69021969523458,-26.927257004489956]]]}},{"type":"Feature","id":51,"properties":{"nome":null},"geometry":{"type":"Polygon","coordinates":[[[-48.69128784142149,-26.93139560289553],[-48.69121848928643,-26.93129616031986],[-48.691248559076115,-26.93118742198187],[-48.691398959079564,-26.93115399379628],[-48.6915109062988,-26.931213561795072],[-48.69150703708886,-26.931318048071482],[-48.69146561027695,-26.931386029012195],[-48.69128784142149,-26.93139560289553]]]}},{"type":"Feature","id":52,"properties":{"nome":null},"geometry":{"type":"Polygon","coordinates":[[[-48.69155623131937,-26.931808830182884],[-48.691645028168544,-26.93172289894579],[-48.69194362382367,-26.93193532311429],[-48.69185283161157,-26.93203370524903],[-48.69155623131937,-26.931808830182884]]]}},{"type":"Feature","id":53,"properties":{"nome":null},"geometry":{"type":"Polygon","coordinates":[[[-48.69185283161157,-26.93203370524903],[-48.69163938164063,-26.932256475763666],[-48.69143711825996,-26.93227189104254],[-48.69135792038571,-26.93222846293073],[-48.69129742871031,-26.9321213629598],[-48.69133426987731,-26.93202209819424],[-48.69155623131937,-26.931808830182884],[-48.69185283161157,-26.93203370524903]]]}},{"type":"Feature","id":54,"properties":{"nome":null},"geometry":{"type":"Polygon","coordinates":[[[-48.69420803208745,-26.935726770283495],[-48.69368979242172,-26.935356275813916],[-48.694448929067605,-26.93535308307269],[-48.6952444794386,-26.934929161798905],[-48.695324166343454,-26.934777541005293],[-48.695435615382515,-26.93477624142138],[-48.69557225491397,-26.93473478167412],[-48.69566327304273,-26.934539653522325],[-48.69576478689388,-26.934513223694832],[-48.69577306339549,-26.934791117411084],[-48.69591273154757,-26.934943201400788],[-48.69576843190674,-26.93501886583776],[-48.695671150373485,-26.93517956220063],[-48.69472724663439,-26.935707170259693],[-48.69420803208745,-26.935726770283495]]]}},{"type":"Feature","id":55,"properties":{"nome":null},"geometry":{"type":"Polygon","coordinates":[[[-48.694735055333204,-26.939430501430444],[-48.69484460545403,-26.939522797174764],[-48.69486301458236,-26.939644812908973],[-48.69478414845599,-26.939755874971276],[-48.69454415273707,-26.9397425890724],[-48.69441704917621,-26.939999543859187],[-48.69401946924884,-26.93985884617821],[-48.69422575761593,-26.93947523043101],[-48.694735055333204,-26.939430501430444]]]}},{"type":"Feature","id":56,"properties":{"nome":null},"geometry":{"type":"Polygon","coordinates":[[[-48.694735055333204,-26.939430501430444],[-48.69422575761593,-26.93947523043101],[-48.694391469561964,-26.939203303009762],[-48.694735055333204,-26.939430501430444]]]}},{"type":"Feature","id":57,"properties":{"nome":null},"geometry":{"type":"Polygon","coordinates":[[[-48.69401946924884,-26.93985884617821],[-48.69441704917621,-26.939999543859187],[-48.69437001844815,-26.940086159393164],[-48.69461456454306,-26.940218113301025],[-48.69458423987019,-26.940339331475812],[-48.694098277581084,-26.940606022940386],[-48.694002143839164,-26.940538912705048],[-48.693682186180666,-26.940861371953503],[-48.693352521375516,-26.940634398593815],[-48.69387432489285,-26.94014671335837],[-48.69401946924884,-26.93985884617821]]]}},{"type":"Feature","id":58,"properties":{"nome":null},"geometry":{"type":"Polygon","coordinates":[[[-48.659591757608496,-26.902262993272043],[-48.659680557832516,-26.902345607021555],[-48.659352313840586,-26.9027333904628],[-48.659103447207116,-26.902648122128785],[-48.65838315170989,-26.903141751792656],[-48.65849231432258,-26.903249670515653],[-48.6587857854942,-26.903872464908797],[-48.65856102713473,-26.90430565424265],[-48.658615930413276,-26.904344015553402],[-48.65839142689708,-26.904764725519488],[-48.65727312036034,-26.903965959196984],[-48.65713354267175,-26.903982367824376],[-48.65695414014507,-26.90356743926364],[-48.65569008193182,-26.904432768282504],[-48.65531993977215,-26.904151986989195],[-48.657814268874276,-26.90237082782885],[-48.65959741115418,-26.90165140218776],[-48.660029536898165,-26.901627357463866],[-48.660103001961524,-26.9017783759004],[-48.660086123876226,-26.90192165471145],[-48.65997297186059,-26.90200716258696],[-48.659591757608496,-26.902262993272043]]]}}]}
