{"type":"FeatureCollection","features":[{"type":"Feature","id":1,"properties":{"nome":null},"geometry":{"type":"Polygon","coordinates":[[[-48.70565553821086,-26.876753226893946],[-48.705279737637184,-26.87675024393933],[-48.70523263151869,-26.876153384448706],[-48.7052752493132,-26.875938733713532],[-48.70533837678259,-26.875914792181604],[-48.70553351723298,-26.87590235695259],[-48.70564257739876,-26.87601648183214],[-48.70565553821086,-26.876753226893946]]]}},{"type":"Feature","id":2,"properties":{"nome":null},"geometry":{"type":"Polygon","coordinates":[[[-48.70518224897748,-26.876580130512195],[-48.70478538544506,-26.87658616603278],[-48.70479649169089,-26.87620871694754],[-48.704947540534626,-26.876139389876386],[-48.7051455298452,-26.87615821072224],[-48.70518224897748,-26.876580130512195]]]}},{"type":"Feature","id":3,"properties":{"nome":null},"geometry":{"type":"Polygon","coordinates":[[[-48.70478538544506,-26.87658616603278],[-48.70518224897748,-26.876580130512195],[-48.70519624030913,-26.876748887471777],[-48.70479944022237,-26.87675180338307],[-48.70478538544506,-26.87658616603278]]]}},{"type":"Feature","id":4,"properties":{"nome":null},"geometry":{"type":"Polygon","coordinates":[[[-48.70477100095106,-26.877125850145546],[-48.704412531171805,-26.877126267081774],[-48.70442238999903,-26.876982864721356],[-48.70450126162925,-26.87686867336433],[-48.70471373650589,-26.876859642606355],[-48.70478428107297,-26.876962864343596],[-48.70477100095106,-26.877125850145546]]]}},{"type":"Feature","id":5,"properties":{"nome":null},"geometry":{"type":"Polygon","coordinates":[[[-48.70430589287767,-26.878269907540602],[-48.703874548842144,-26.878259775650903],[-48.703899196511976,-26.877901271790687],[-48.70398433426937,-26.87782151160671],[-48.704130644780825,-26.877814526950186],[-48.70426513066831,-26.87787601058531],[-48.70430589287767,-26.878269907540602]]]}},{"type":"Feature","id":6,"properties":{"nome":null},"geometry":{"type":"Polygon","coordinates":[[[-48.7037114724465,-26.878235278245814],[-48.70385879717499,-26.88144908756625],[-48.70344837874008,-26.881436172449952],[-48.703333711891574,-26.878329005354725],[-48.70335654227522,-26.878232628322795],[-48.70359419328224,-26.878183436676146],[-48.7037114724465,-26.878235278245814]]]}},{"type":"Feature","id":7,"properties":{"nome":null},"geometry":{"type":"Polygon","coordinates":[[[-48.70324487948127,-26.87910778813079],[-48.7028310539683,-26.879091695567002],[-48.702810990885105,-26.878879147137397],[-48.70296242200121,-26.87879110386436],[-48.703188185830236,-26.87881350089151],[-48.70323434038126,-26.878905609346265],[-48.70324487948127,-26.87910778813079]]]}},{"type":"Feature","id":8,"properties":{"nome":null},"geometry":{"type":"Polygon","coordinates":[[[-48.70264142341473,-26.87934764588526],[-48.70224448749495,-26.879356794158923],[-48.70223163662823,-26.87913187953819],[-48.70265248281962,-26.87914496740782],[-48.70264142341473,-26.87934764588526]]]}},{"type":"Feature","id":9,"properties":{"nome":null},"geometry":{"type":"Polygon","coordinates":[[[-48.70223163662823,-26.87913187953819],[-48.70221423299518,-26.878959946367853],[-48.70266291215182,-26.878973486960174],[-48.70265248281962,-26.87914496740782],[-48.70223163662823,-26.87913187953819]]]}},{"type":"Feature","id":10,"properties":{"nome":null},"geometry":{"type":"Polygon","coordinates":[[[-48.70266291215182,-26.878973486960174],[-48.70221423299518,-26.878959946367853],[-48.70227703855016,-26.87877995607491],[-48.70248660507634,-26.87874279300351],[-48.702624444637955,-26.878810574054008],[-48.70266291215182,-26.878973486960174]]]}},{"type":"Feature","id":11,"properties":{"nome":null},"geometry":{"type":"Polygon","coordinates":[[[-48.701652741552685,-26.8798777205577],[-48.70132178179626,-26.879894181004577],[-48.70046446684947,-26.88012365600787],[-48.70004032746569,-26.880101145888787],[-48.70005120216423,-26.879907826781963],[-48.700158356257475,-26.87977225151925],[-48.7004800781981,-26.879696346632205],[-48.70091990091143,-26.87963172535345],[-48.70124225451526,-26.879524619797195],[-48.70144069062586,-26.879521607032316],[-48.70164020754067,-26.879637206970777],[-48.701652741552685,-26.8798777205577]]]}},{"type":"Feature","id":12,"properties":{"nome":null},"geometry":{"type":"Polygon","coordinates":[[[-48.699855426780694,-26.880123101826058],[-48.69940699690894,-26.880097072684265],[-48.6994322292231,-26.879710492295533],[-48.699576642977775,-26.87962545919002],[-48.699736429790875,-26.87964054501899],[-48.69986300864942,-26.879748717329214],[-48.699855426780694,-26.880123101826058]]]}},{"type":"Feature","id":13,"properties":{"nome":null},"geometry":{"type":"Polygon","coordinates":[[[-48.69869288437099,-26.879785833111765],[-48.69826488883945,-26.879781979651042],[-48.69825944614388,-26.879535339475893],[-48.69832175244374,-26.87938031007643],[-48.698589707382155,-26.879381555706168],[-48.698698573585084,-26.87950504450659],[-48.69869288437099,-26.879785833111765]]]}},{"type":"Feature","id":14,"properties":{"nome":null},"geometry":{"type":"Polygon","coordinates":[[[-48.696577269697535,-26.877535508273695],[-48.696545265704266,-26.87636777013744],[-48.6966889178319,-26.876320177840192],[-48.696859073326586,-26.87633855641153],[-48.69697160335777,-26.876452744176415],[-48.69699159326506,-26.877526659173196],[-48.696577269697535,-26.877535508273695]]]}},{"type":"Feature","id":15,"properties":{"nome":null},"geometry":{"type":"Polygon","coordinates":[[[-48.693554347409005,-26.881752443171344],[-48.69312583888564,-26.881773533169962],[-48.693108081963466,-26.881277020712407],[-48.693231436701225,-26.88120101328202],[-48.69354114456732,-26.88120295063742],[-48.693554347409005,-26.881752443171344]]]}},{"type":"Feature","id":16,"properties":{"nome":null},"geometry":{"type":"Polygon","coordinates":[[[-48.69299033110639,-26.866510136676233],[-48.692871909440626,-26.86720104280312],[-48.69163935708831,-26.86894733784843],[-48.691424575174324,-26.86855683781788],[-48.69243106663335,-26.866975380672493],[-48.69253784617511,-26.86651523115808],[-48.692790466924436,-26.86641324670324],[-48.69299033110639,-26.866510136676233]]]}},{"type":"Feature","id":17,"properties":{"nome":null},"geometry":{"type":"Polygon","coordinates":[[[-48.691424575174324,-26.86855683781788],[-48.69163935708831,-26.86894733784843],[-48.69111093233095,-26.869606575231792],[-48.69121814905696,-26.870837960115878],[-48.69075294871707,-26.871810317516907],[-48.69075875727214,-26.869469741729723],[-48.691424575174324,-26.86855683781788]]]}},{"type":"Feature","id":18,"properties":{"nome":null},"geometry":{"type":"Polygon","coordinates":[[[-48.69121814905696,-26.870837960115878],[-48.69124262020034,-26.872373840135843],[-48.69090877388983,-26.872362142419306],[-48.69082769119393,-26.872242223009515],[-48.69075294871707,-26.871810317516907],[-48.69121814905696,-26.870837960115878]]]}},{"type":"Feature","id":19,"properties":{"nome":null},"geometry":{"type":"Polygon","coordinates":[[[-48.694183847991745,-26.940681892683287],[-48.69394968205919,-26.940553229265433],[-48.693696280999625,-26.940343107739338],[-48.69453040719837,-26.939052221119887],[-48.69489570403419,-26.939239202451652],[-48.69480873321183,-26.939406308569446],[-48.69486605855151,-26.93966939893087],[-48.694773648622586,-26.939761515013732],[-48.694508714784625,-26.93977590875291],[-48.6944333817977,-26.940055555990195],[-48.694652226828374,-26.94025262798339],[-48.694183847991745,-26.940681892683287]]]}},{"type":"Feature","id":20,"properties":{"nome":null},"geometry":{"type":"Polygon","coordinates":[[[-48.67434215672161,-26.884683094789693],[-48.67464315272424,-26.88494084135698],[-48.674348753895465,-26.88521062963693],[-48.67408276343956,-26.88545279783894],[-48.67392957650977,-26.885625043241095],[-48.67370970956054,-26.88582427823041],[-48.67308837286268,-26.886422610492712],[-48.6729000191438,-26.886272825624022],[-48.67288524381574,-26.886144626450843],[-48.67337688866095,-26.885590972032535],[-48.67364211384943,-26.88538624355041],[-48.67434215672161,-26.884683094789693]]]}},{"type":"Feature","id":21,"properties":{"nome":null},"geometry":{"type":"Polygon","coordinates":[[[-48.67337688866095,-26.885590972032535],[-48.673284930603856,-26.885492710034008],[-48.67316427079313,-26.88560619350337],[-48.672866819636695,-26.885345381681702],[-48.673415434299514,-26.884898774458605],[-48.67368537073686,-26.88514352795709],[-48.67355344390999,-26.885297397710207],[-48.67364211384943,-26.88538624355041],[-48.67337688866095,-26.885590972032535]]]}},{"type":"Feature","id":22,"properties":{"nome":null},"geometry":{"type":"Polygon","coordinates":[[[-48.66920009734108,-26.885266185936302],[-48.668919730428954,-26.885529952593917],[-48.667755330759555,-26.8847773249821],[-48.667730957605045,-26.88460839651896],[-48.667784811261065,-26.88452814306227],[-48.66801552747293,-26.884478899183083],[-48.668659603276154,-26.884807860660633],[-48.66920009734108,-26.885266185936302]]]}},{"type":"Feature","id":23,"properties":{"nome":null},"geometry":{"type":"Polygon","coordinates":[[[-48.667387515104075,-26.884892964365495],[-48.66895294211696,-26.88577704907628],[-48.67066830629252,-26.8869881596506],[-48.67043790571641,-26.887021809861327],[-48.6711493741328,-26.887629629820374],[-48.67118150312547,-26.88792976199268],[-48.67104423361965,-26.888174046535273],[-48.669986625445155,-26.887473130979625],[-48.66993447872016,-26.887300622995536],[-48.66968808907121,-26.887265348556184],[-48.66938588268464,-26.88706686858683],[-48.66939062153109,-26.88683600242954],[-48.669600081949966,-26.88680512986927],[-48.669654512776326,-26.88669679800753],[-48.66948052765041,-26.88652540076248],[-48.66935817720491,-26.886551468758338],[-48.66927661680166,-26.886625023411106],[-48.668922392912854,-26.88675649479742],[-48.668263599650025,-26.88629621407627],[-48.66818039863013,-26.88611070950663],[-48.66828791563912,-26.88595956275517],[-48.66923576265659,-26.886580657091073],[-48.669314163259244,-26.886491446400424],[-48.66844614719322,-26.885881033355176],[-48.66855263770082,-26.885779802646255],[-48.66844219916802,-26.885734287304803],[-48.66825284746027,-26.88580294107059],[-48.66724103985482,-26.885246322119368],[-48.667169899143424,-26.88515152176547],[-48.66720132177395,-26.884977272829307],[-48.667387515104075,-26.884892964365495]]]}},{"type":"Feature","id":24,"properties":{"nome":null},"geometry":{"type":"Polygon","coordinates":[[[-48.66825284746027,-26.88580294107059],[-48.66844219916802,-26.885734287304803],[-48.66855263770082,-26.885779802646255],[-48.66844614719322,-26.885881033355176],[-48.66825284746027,-26.88580294107059]]]}},{"type":"Feature","id":25,"properties":{"nome":null},"geometry":{"type":"Polygon","coordinates":[[[-48.66828791563912,-26.88595956275517],[-48.66818039863013,-26.88611070950663],[-48.668263599650025,-26.88629621407627],[-48.66741686949226,-26.885835947883226],[-48.66736743614582,-26.8857009347591],[-48.66745324497082,-26.885590001501654],[-48.66759311956808,-26.88555798155643],[-48.66828791563912,-26.88595956275517]]]}},{"type":"Feature","id":26,"properties":{"nome":null},"geometry":{"type":"Polygon","coordinates":[[[-48.668922392912854,-26.88675649479742],[-48.66927661680166,-26.886625023411106],[-48.66935817720491,-26.886551468758338],[-48.66948052765041,-26.88652540076248],[-48.669654512776326,-26.88669679800753],[-48.669600081949966,-26.88680512986927],[-48.66939062153109,-26.88683600242954],[-48.66938588268464,-26.88706686858683],[-48.66932506979197,-26.88714700686659],[-48.67061928546371,-26.888020356355472],[-48.67049162060223,-26.88830537017239],[-48.66910081550271,-26.88738985371314],[-48.669005337289306,-26.887463178433038],[-48.66993915639274,-26.88809027835914],[-48.6695161524178,-26.8880115177668],[-48.66966360734872,-26.888288586708377],[-48.66880441185032,-26.887756343041776],[-48.668750621240356,-26.887833476356647],[-48.67135325229273,-26.889567926807093],[-48.6710901470215,-26.88983822325047],[-48.66832036118452,-26.887938723197433],[-48.668299594036256,-26.88776361226284],[-48.669104361166255,-26.88687809124465],[-48.668922392912854,-26.88675649479742]]]}},{"type":"Feature","id":27,"properties":{"nome":null},"geometry":{"type":"Polygon","coordinates":[[[-48.66993915639274,-26.88809027835914],[-48.670862354883226,-26.888726560076833],[-48.670741433075676,-26.888852521041535],[-48.671585833441256,-26.889428201757774],[-48.67145530521612,-26.889513433468984],[-48.66966360734872,-26.888288586708377],[-48.6695161524178,-26.8880115177668],[-48.66993915639274,-26.88809027835914]]]}},{"type":"Feature","id":28,"properties":{"nome":null},"geometry":{"type":"Polygon","coordinates":[[[-48.670862354883226,-26.888726560076833],[-48.67176906330557,-26.889318872241763],[-48.671585833441256,-26.889428201757774],[-48.670741433075676,-26.888852521041535],[-48.670862354883226,-26.888726560076833]]]}},{"type":"Feature","id":29,"properties":{"nome":null},"geometry":{"type":"Polygon","coordinates":[[[-48.67061928546371,-26.888020356355472],[-48.670866340130786,-26.88819295849064],[-48.67086815513691,-26.888274130422854],[-48.67103183483681,-26.888439114974968],[-48.671180614539985,-26.888482140170698],[-48.67136431475439,-26.88851949897162],[-48.67169378714081,-26.88874651363562],[-48.67161780295692,-26.889057346399866],[-48.671072010601435,-26.888686325993138],[-48.671063044403965,-26.8886143979264],[-48.67096671120287,-26.888559754322618],[-48.67088991028593,-26.888570971802785],[-48.67049162060223,-26.88830537017239],[-48.67061928546371,-26.888020356355472]]]}},{"type":"Feature","id":30,"properties":{"nome":null},"geometry":{"type":"Polygon","coordinates":[[[-48.671072010601435,-26.888686325993138],[-48.67088991028593,-26.888570971802785],[-48.67096671120287,-26.888559754322618],[-48.671063044403965,-26.8886143979264],[-48.671072010601435,-26.888686325993138]]]}},{"type":"Feature","id":31,"properties":{"nome":null},"geometry":{"type":"Polygon","coordinates":[[[-48.670866340130786,-26.88819295849064],[-48.67136431475439,-26.88851949897162],[-48.671180614539985,-26.888482140170698],[-48.67103183483681,-26.888439114974968],[-48.67086815513691,-26.888274130422854],[-48.670866340130786,-26.88819295849064]]]}},{"type":"Feature","id":32,"properties":{"nome":null},"geometry":{"type":"Polygon","coordinates":[[[-48.67161780295692,-26.889057346399866],[-48.67169378714081,-26.88874651363562],[-48.672013527412425,-26.88893903688403],[-48.67201929563869,-26.889166955039997],[-48.67191286757579,-26.88926506784712],[-48.67161780295692,-26.889057346399866]]]}},{"type":"Feature","id":33,"properties":{"nome":null},"geometry":{"type":"Polygon","coordinates":[[[-48.67104423361965,-26.888174046535273],[-48.67118150312547,-26.88792976199268],[-48.6711493741328,-26.887629629820374],[-48.67043790571641,-26.887021809861327],[-48.67066830629252,-26.8869881596506],[-48.671296375824454,-26.887419834957857],[-48.671478258918654,-26.88737602154466],[-48.67158782982712,-26.88763373856032],[-48.67179704569852,-26.888124042994352],[-48.67142317530057,-26.887855725958723],[-48.67133717630741,-26.887976021285372],[-48.6719727886201,-26.888379730150525],[-48.67198148468675,-26.8888043109024],[-48.67104423361965,-26.888174046535273]]]}},{"type":"Feature","id":34,"properties":{"nome":null},"geometry":{"type":"Polygon","coordinates":[[[-48.65539656560389,-26.904152829345957],[-48.65554542334886,-26.904024226805074],[-48.656195494122855,-26.904066231055676],[-48.656014739569564,-26.904222392542398],[-48.65539656560389,-26.904152829345957]]]}},{"type":"Feature","id":35,"properties":{"nome":null},"geometry":{"type":"Polygon","coordinates":[[[-48.656195494122855,-26.904066231055676],[-48.65554542334886,-26.904024226805074],[-48.65751824430802,-26.902718140585595],[-48.65876519683732,-26.90200543083905],[-48.65887055754909,-26.90212889090607],[-48.65868780989821,-26.902213243431202],[-48.658253816265486,-26.902496282823],[-48.65809214492583,-26.902908672222548],[-48.65835969819246,-26.902931835288868],[-48.658341401114654,-26.903143749316392],[-48.658039695890096,-26.903257335945035],[-48.65821516720895,-26.90335699326722],[-48.6584845270514,-26.903461328445832],[-48.6585140359211,-26.9032121506973],[-48.65882618655662,-26.90343578705386],[-48.65856308385731,-26.90370293614542],[-48.658366993953344,-26.903758979753725],[-48.658394378468444,-26.903612754105406],[-48.65800973315298,-26.90335982609732],[-48.657825888061645,-26.9034972135326],[-48.65763121270943,-26.903316095660834],[-48.65737474343928,-26.903430431459153],[-48.657700677492286,-26.903154964659706],[-48.657579788276564,-26.903109266877806],[-48.657251662982844,-26.90332228001944],[-48.65724354455791,-26.903378320220234],[-48.656985399747505,-26.90357376974863],[-48.656944028713774,-26.903554357747677],[-48.656195494122855,-26.904066231055676]]]}},{"type":"Feature","id":36,"properties":{"nome":null},"geometry":{"type":"Polygon","coordinates":[[[-48.65626960071167,-26.904186053445173],[-48.656542053657446,-26.903972118545443],[-48.65686534894293,-26.903993089408008],[-48.657062148477955,-26.903902731551923],[-48.65703237684184,-26.90365881146376],[-48.656985399747505,-26.90357376974863],[-48.65724354455791,-26.903378320220234],[-48.65737474343928,-26.903430431459153],[-48.65763121270943,-26.903316095660834],[-48.657825888061645,-26.9034972135326],[-48.65761259457481,-26.90371213283732],[-48.657948780917195,-26.903951774674017],[-48.657754108850234,-26.904107707594928],[-48.657196701282295,-26.904129664616903],[-48.65729026691629,-26.90398141802424],[-48.65724013215679,-26.903880718370445],[-48.65686406159919,-26.90422401071307],[-48.65626960071167,-26.904186053445173]]]}},{"type":"Feature","id":37,"properties":{"nome":null},"geometry":{"type":"Polygon","coordinates":[[[-48.656542053657446,-26.903972118545443],[-48.65703237684184,-26.90365881146376],[-48.657062148477955,-26.903902731551923],[-48.65686534894293,-26.903993089408008],[-48.656542053657446,-26.903972118545443]]]}},{"type":"Feature","id":38,"properties":{"nome":null},"geometry":{"type":"Polygon","coordinates":[[[-48.657196701282295,-26.904129664616903],[-48.657754108850234,-26.904107707594928],[-48.657948780917195,-26.903951774674017],[-48.65820957205206,-26.90413398908056],[-48.657977269472866,-26.90442661524555],[-48.65759816451762,-26.90424243614222],[-48.65712839470795,-26.904234639578558],[-48.657196701282295,-26.904129664616903]]]}},{"type":"Feature","id":39,"properties":{"nome":null},"geometry":{"type":"Polygon","coordinates":[[[-48.65820957205206,-26.90413398908056],[-48.658366993953344,-26.903758979753725],[-48.65856308385731,-26.90370293614542],[-48.65882618655662,-26.90343578705386],[-48.65897787995941,-26.903506961147944],[-48.65880686337424,-26.90386614289287],[-48.658747900356,-26.903855802263955],[-48.65855400863057,-26.904311349426905],[-48.65820957205206,-26.90413398908056]]]}},{"type":"Feature","id":40,"properties":{"nome":null},"geometry":{"type":"Polygon","coordinates":[[[-48.65864162103955,-26.90293339122788],[-48.658421046954714,-26.903079532934058],[-48.65839678668601,-26.90315871162291],[-48.6585140359211,-26.9032121506973],[-48.6584845270514,-26.903461328445832],[-48.65821516720895,-26.90335699326722],[-48.658039695890096,-26.903257335945035],[-48.658341401114654,-26.903143749316392],[-48.65835969819246,-26.902931835288868],[-48.65809214492583,-26.902908672222548],[-48.658253816265486,-26.902496282823],[-48.65868780989821,-26.902213243431202],[-48.65887055754909,-26.90212889090607],[-48.65899357409865,-26.902240160480737],[-48.65897192671629,-26.902445777040892],[-48.65864162103955,-26.90293339122788]]]}},{"type":"Feature","id":41,"properties":{"nome":null},"geometry":{"type":"Polygon","coordinates":[[[-48.65864162103955,-26.90293339122788],[-48.65897192671629,-26.902445777040892],[-48.65899357409865,-26.902240160480737],[-48.65927891751363,-26.902497680310635],[-48.659278664103084,-26.902678685230462],[-48.65913367398726,-26.902620105891756],[-48.65864162103955,-26.90293339122788]]]}},{"type":"Feature","id":42,"properties":{"nome":null},"geometry":{"type":"Polygon","coordinates":[[[-48.659278664103084,-26.902678685230462],[-48.65927891751363,-26.902497680310635],[-48.65964645679435,-26.90282053979],[-48.659278664103084,-26.902678685230462]]]}},{"type":"Feature","id":43,"properties":{"nome":null},"geometry":{"type":"Polygon","coordinates":[[[-48.65236546563244,-26.91672776490733],[-48.65209722050839,-26.917072834233615],[-48.651741163504404,-26.916782914154926],[-48.65202281251848,-26.91646303489689],[-48.65236546563244,-26.91672776490733]]]}},{"type":"Feature","id":44,"properties":{"nome":null},"geometry":{"type":"Polygon","coordinates":[[[-48.651458635381495,-26.917817446536613],[-48.651095036558544,-26.917555487090773],[-48.651741163504404,-26.916782914154926],[-48.65209722050839,-26.917072834233615],[-48.651458635381495,-26.917817446536613]]]}},{"type":"Feature","id":45,"properties":{"nome":null},"geometry":{"type":"Polygon","coordinates":[[[-48.65111562059166,-26.91824241111224],[-48.65070310395274,-26.917988998008024],[-48.651095036558544,-26.917555487090773],[-48.651458635381495,-26.917817446536613],[-48.65111562059166,-26.91824241111224]]]}},{"type":"Feature","id":46,"properties":{"nome":null},"geometry":{"type":"Polygon","coordinates":[[[-48.69191356726058,-26.931960928770184],[-48.691846385740284,-26.93201132320611],[-48.69161933531324,-26.931790706948163],[-48.69166908193762,-26.931741587609423],[-48.69191356726058,-26.931960928770184]]]}},{"type":"Feature","id":47,"properties":{"nome":null},"geometry":{"type":"Polygon","coordinates":[[[-48.691846385740284,-26.93201132320611],[-48.69178974072801,-26.932057210007372],[-48.69152579340361,-26.93185315409898],[-48.69161933531324,-26.931790706948163],[-48.691846385740284,-26.93201132320611]]]}},{"type":"Feature","id":48,"properties":{"nome":null},"geometry":{"type":"Polygon","coordinates":[[[-48.69178974072801,-26.932057210007372],[-48.69169018367182,-26.932158569210703],[-48.69156825583902,-26.932247078866236],[-48.6914036850494,-26.932206935396984],[-48.69137113407779,-26.93209561183037],[-48.691390825297404,-26.931983582093793],[-48.69152579340361,-26.93185315409898],[-48.69178974072801,-26.932057210007372]]]}}]}
